X,Y,施設名,施設名かな,施設名（施設名かな）,所在地,地区名,TEL,FAX,詳細情報,開館時間,URL,バリアフリー情報,駐輪場 PC版詳細情報,駐輪場 携帯電話版詳細情報,大分類,小分類,カテゴリ,アイコン番号,施設ID
135.5054691,34.5922109,市立大学学術情報総合センター,しりつだいがくがくじゅつじょうほうそうごうせんたー,市立大学学術情報総合センター（しりつだいがくがくじゅつじょうほうそうごうせんたー）,住吉区杉本3丁目3番138号,住吉区,06-6605-3240,,,,http://www.media.osaka-cu.ac.jp/,,,,文化・観光,図書館,文化・観光/図書館,151,386
135.544424,34.703183,大阪市立城東図書館,おおさかしりつじょうとうとしょかん,大阪市立城東図書館（おおさかしりつじょうとうとしょかん）,城東区中央３丁目５－４５,城東区,06-6933-0350,06-6933-0351,,,http://www.oml.city.osaka.lg.jp/?page_id=141,,,,文化・観光,図書館,文化・観光/図書館,151,96244
135.527503,34.620514,大阪市立東住吉図書館,おおさかしりつひがしすみよしとしょかん,大阪市立東住吉図書館（おおさかしりつひがしすみよしとしょかん）,東住吉区東田辺2-11-28,東住吉区,06-6699-7000,,,,,,,,文化・観光,図書館,文化・観光/図書館,151,3129
135.4858203,34.6736001,大阪市公文書館,おおさかしこうぶんしょかん,大阪市公文書館（おおさかしこうぶんしょかん）,西区北堀江4-3-14,西区,06-6534-1662,06-6534-5482,,,http://www.city.osaka.lg.jp/somu/page/0000003759.html,,,,文化・観光,図書館,文化・観光/図書館,151,2167
135.4749253,34.606406,大阪市立住之江図書館,おおさかしりつすみのえとしょかん,大阪市立住之江図書館（おおさかしりつすみのえとしょかん）,住之江区南加賀屋3-1-20,住之江区,06-6683-2788,,,,http://www.oml.city.osaka.jp/info/69suminoe/index.html,,,,文化・観光,図書館,文化・観光/図書館,151,137
135.5004357,34.6048389,大阪市立住吉図書館,おおさかしりつすみよしとしょかん,大阪市立住吉図書館（おおさかしりつすみよしとしょかん）,住吉区南住吉3丁目15番57号,住吉区,06-6606-4946,06-6606-6987,,,http://www.oml.city.osaka.jp/info/70sumiyoshi/index.html,http://www.osaka-bfmap.jp/sisetu_data/data/210501.php?bunrui=1&name=21.php,,,文化・観光,図書館,文化・観光/図書館,151,1510
135.4948854,34.6344684,大阪市立西成図書館,おおさかしりつにしなりとしょかん,大阪市立西成図書館（おおさかしりつにしなりとしょかん）,西成区岸里1丁目1番50号,西成区,06-6659-2346,,,,http://www.oml.city.osaka.jp/info/73nishinari/,,,,文化・観光,図書館,文化・観光/図書館,151,4824
135.5105532,34.641069,大阪市立阿倍野図書館,おおさかしりつあべのとしょかん,大阪市立阿倍野図書館（おおさかしりつあべのとしょかん）,阿倍野区阿倍野筋4-19-118,阿倍野区,06-6656-1009,06-6656-1043,,,http://www.oml.city.osaka.jp/info/68abeno/,,,,文化・観光,図書館,文化・観光/図書館,151,1698
135.5593,34.6244109,大阪市立平野図書館,おおさかしりつひらのとしょかん,大阪市立平野図書館（おおさかしりつひらのとしょかん）,平野区平野東1-8-2,平野区,06-6793-0881,06-6791-5038,,,http://www.oml.city.osaka.jp/info/72hirano/,http://www.osaka-bfmap.jp/sisetu_data/data/230501.php?bunrui=1&name=23.php,,,文化・観光,図書館,文化・観光/図書館,151,2333
135.4720673,34.6509919,大阪市立大正図書館,おおさかしりつたいしょうとしょかん,大阪市立大正図書館（おおさかしりつたいしょうとしょかん）,大正区千島2-6-15,大正区,06-6552-1116,,,,http://www.oml.city.osaka.jp/info/57taisho/,,,,文化・観光,図書館,文化・観光/図書館,151,3854
135.4959688,34.6585779,大阪市立浪速図書館,おおさかしりつなにわとしょかん,大阪市立浪速図書館（おおさかしりつなにわとしょかん）,浪速区敷津西1-5-23,浪速区,06-6632-4946,06-6632-4973,,,http://www.oml.city.osaka.jp/info/59naniwa/,http://www.osaka-bfmap.jp/sisetu_data/data/100501.php?bunrui=1&name=10.php,,,文化・観光,図書館,文化・観光/図書館,151,56
135.4585717,34.6677469,大阪市立港図書館,おおさかしりつみなととしょかん,大阪市立港図書館（おおさかしりつみなととしょかん）,港区弁天2-1-5,港区,06-6576-2346,,,,http://www.oml.city.osaka.jp/info/56minato/,,,,文化・観光,図書館,文化・観光/図書館,151,1064
135.5397583,34.653167,大阪市立生野図書館,おおさかしりついくのとしょかん,大阪市立生野図書館（おおさかしりついくのとしょかん）,生野区勝山南4丁目7番11号,生野区,06-6717-2381,,,,http://www.oml.city.osaka.jp/info/64ikuno/,http://www.osaka-bfmap.jp/sisetu_data/data/150501.php?bunrui=1&name=15.php,,,文化・観光,図書館,文化・観光/図書館,151,4535
135.5220693,34.6614892,大阪市立天王寺図書館,おおさかしりつてんのうじとしょかん,大阪市立天王寺図書館（おおさかしりつてんのうじとしょかん）,天王寺区上之宮町4-47,天王寺区,06-6771-2840,,,,http://www.oml.city.osaka.jp/info/58tennoji/index.html,http://www.osaka-bfmap.jp/sisetu_data/data/090501.php?bunrui=1&name=9.php,,,文化・観光,図書館,文化・観光/図書館,151,4284
135.5078919,34.671475,大阪市立島之内図書館,おおさかしりつしまのうちとしょかん,大阪市立島之内図書館（おおさかしりつしまのうちとしょかん）,中央区島之内2-12-31,中央区,06-6211-3645,06-6212-5449,,,http://www.oml.city.osaka.jp/info/55shimanouchi/index.html,http://www.osaka-bfmap.jp/sisetu_data/data/050501.php?bunrui=1&name=5.php,,,文化・観光,図書館,文化・観光/図書館,151,710
135.5412311,34.6681847,大阪市立東成図書館,おおさかしりつひがしなりとしょかん,大阪市立東成図書館（おおさかしりつひがしなりとしょかん）,東成区大今里西3丁目2番17号,東成区,06-6972-0727,06-6972-0278,,,http://www.oml.city.osaka.jp/info/63higashinari/,,,,文化・観光,図書館,文化・観光/図書館,151,3417
135.4569527,34.6859331,大阪市立此花図書館,おおさかしりつこのはなとしょかん,大阪市立此花図書館（おおさかしりつこのはなとしょかん）,此花区四貫島1-1-18,此花区,6463-3463,,,,http://www.oml.city.osaka.jp/info/54konohana/index.html,http://www.osaka-bfmap.jp/sisetu_data/data/040501.php?bunrui=1&name=4.php,,,文化・観光,図書館,文化・観光/図書館,151,934
135.4859692,34.673961,大阪市立中央図書館,おおさかしりつちゅうおうとしょかん,大阪市立中央図書館（おおさかしりつちゅうおうとしょかん）,西区北堀江4-3-2,西区,06-6539-3300,06-6539-3335,,,http://www.oml.city.osaka.jp/info/10chuo/index.html,http://www.osaka-bfmap.jp/sisetu_data/data/060501.php?bunrui=1&name=6.php,,,文化・観光,図書館,文化・観光/図書館,151,2168
135.4731311,34.6913921,大阪市立福島図書館,おおさかしりつふくしまとしょかん,大阪市立福島図書館（おおさかしりつふくしまとしょかん）,福島区吉野3-17-23（区民センター3階）,福島区,06-6468-2336,06-6468-5191,,,http://www.oml.city.osaka.jp/info/53fukushima/,,,,文化・観光,図書館,文化・観光/図書館,151,3524
135.4960139,34.6919749,日本ライトハウス情報文化センター,にっぽんらいとはうすじょうほうぶんかせんたー,日本ライトハウス情報文化センター（にっぽんらいとはうすじょうほうぶんかせんたー）,西区江戸堀1-13-2,西区,06-6441-0015,06-6441-0095,,,,,,,文化・観光,図書館,文化・観光/図書館,151,2166
135.5031528,34.6936888,府立中之島図書館,ふりつなかのしまとしょかん,府立中之島図書館（ふりつなかのしまとしょかん）,北区中之島1-2-10,北区,06-6203-0474,,,,,,,,文化・観光,図書館,文化・観光/図書館,151,272
135.5277813,34.7008862,大阪市立都島図書館,おおさかしりつみやこじまとしょかん,大阪市立都島図書館（おおさかしりつみやこじまとしょかん）,都島区中野町2-16-25,都島区,06-6354-3229,,,,http://www.oml.city.osaka.jp/info/52miyakojima/,,,,文化・観光,図書館,文化・観光/図書館,151,8517
135.4561112,34.7111331,大阪市立西淀川図書館,おおさかしりつにしよどがわとしょかん,大阪市立西淀川図書館（おおさかしりつにしよどがわとしょかん）,西淀川区御幣島1丁目2番10号,西淀川区,06-6474-7900,,,,http://www.oml.city.osaka.jp/info/60nishiyodogawa/,,,,文化・観光,図書館,文化・観光/図書館,151,3715
135.4811527,34.7160972,大阪市立淀川図書館,おおさかしりつよどがわとしょかん,大阪市立淀川図書館（おおさかしりつよどがわとしょかん）,淀川区新北野1-10-14,淀川区,06-6305-2346,,,,http://www.oml.city.osaka.jp/riyou/61yodogawa.html,http://www.osaka-bfmap.jp/sisetu_data/data/120501.php?bunrui=1&name=12.php,,,文化・観光,図書館,文化・観光/図書館,151,2494
135.508567,34.7156859,大阪市立北図書館,おおさかしりつきたとしょかん,大阪市立北図書館（おおさかしりつきたとしょかん）,北区本庄東3-8-2,北区,06-6375-0410,,,,http://www.oml.city.osaka.jp/info/51kita/,http://www.osaka-bfmap.jp/sisetu_data/data/010501.php?bunrui=3&name=search_name.php,,,文化・観光,図書館,文化・観光/図書館,151,1783
135.5424418,34.720828,大阪市立旭図書館,おおさかしりつあさひとしょかん,大阪市立旭図書館（おおさかしりつあさひとしょかん）,旭区中宮1-11-14,旭区,06-6955-0307,06-6955-0287,,,http://www.oml.city.osaka.jp/info/65asahi/,http://www.osaka-bfmap.jp/sisetu_data/data/160501.php?bunrui=1&name=16.php,,,文化・観光,図書館,文化・観光/図書館,151,895
135.5197557,34.7338612,大阪市立東淀川図書館,おおさかしりつひがしよどがわとしょかん,大阪市立東淀川図書館（おおさかしりつひがしよどがわとしょかん）,東淀川区東淡路1-4-53,東淀川区,06-6323-5476,,,,http://www.oml.city.osaka.jp/info/62higashiyodogawa/,,,,文化・観光,図書館,文化・観光/図書館,151,255
135.5735138,34.704533,大阪市立鶴見図書館,おおさかしりつつるみとしょかん,大阪市立鶴見図書館（おおさかしりつつるみとしょかん）,鶴見区横堤5-3-15,鶴見区,06-6913-0772,06-6913-3975,,,http://www.oml.city.osaka.jp/info/67tsurumi/,,,,文化・観光,図書館,文化・観光/図書館,151,4118
135.5023309,34.6213782,大阪府公文書館,,大阪府公文書館（）,住吉区帝塚山東2丁目1番44号,住吉区,06-6675-5551,06-6675-5552　,,,http://www.pref.osaka.jp/archives/index.html,,,,文化・観光,図書館,文化・観光/図書館,112,453
135.5218423,34.6110029,長居植物園,ながいしょくぶつえん,長居植物園（ながいしょくぶつえん）,東住吉区長居公園内,東住吉区,06-6696-7117,,,,http://www.ocsga.or.jp/n-syoku/index.html,,,,文化・観光,美術館・博物館,文化・観光/美術館・博物館,150,3118
135.5736277,34.710103,咲くやこの花館,さくやこのはなかん,咲くやこの花館（さくやこのはなかん）,鶴見区緑地公園２－１６３,大阪市以外,06-6912-0055,06-6913-8711,,,http://www.sakuyakonohana.com/,http://www.osaka-bfmap.jp/sisetu_data/data/180401.php?bunrui=1&name=18.php,,,文化・観光,美術館・博物館,文化・観光/美術館・博物館,152,4119
135.5116668,34.7102359,住まいのミュージアム「大阪くらしの今昔館」,すまいのみゅーじあむ「おおさかくらしのこんじゃくかん」,住まいのミュージアム「大阪くらしの今昔館」（すまいのみゅーじあむ「おおさかくらしのこんじゃくかん」）,北区天神橋6-4-20,北区,06-6242-1170,06-6354-3002,,,http://konjyakukan.com/,,,,文化・観光,美術館・博物館,文化・観光/美術館・博物館,150,70
135.4961891,34.6864329,大阪科学技術館,おおさかかがくぎじゅつかん,大阪科学技術館（おおさかかがくぎじゅつかん）,西区靱本町1-8-4,西区,06-6441-0915,,,,,http://www.osaka-bfmap.jp/sisetu_data/data/060401.php?bunrui=1&amp;amp;amp;name=6.php,,,文化・観光,美術館・博物館,文化・観光/美術館・博物館,150,63
135.4967478,34.6831845,アジア・太平洋人権情報センター(ヒューライツ大阪),あじあたいへいようじんけんじょうほうせんたー（ひゅーらいつおおさか）,アジア・太平洋人権情報センター(ヒューライツ大阪)（あじあたいへいようじんけんじょうほうせんたー（ひゅーらいつおおさか））,西区西本町1-7-7 CE西本町ビル8階,西区,06-6543-7003,06-6543-7004,国際的な人権情報の収集・提供,,http://www.hurights.or.jp/index_j.html,,,,文化・観光,美術館・博物館,文化・観光/美術館・博物館,150,1052
135.4288107,34.654564,海遊館,かいゆうかん,海遊館（かいゆうかん）,港区海岸通1-1-10,港区,06-6576-5501,,,,http://www.kaiyukan.com/index.html,http://www.osaka-bfmap.jp/sisetu_data/data/070401.php?bunrui=1&name=7.php,,,文化・観光,美術館・博物館,文化・観光/美術館・博物館,150,1964
135.4379998,34.651072,海岸通ギャラリーCASO,かいがんどおりぎゃらりーかそ,海岸通ギャラリーCASO（かいがんどおりぎゃらりーかそ）,港区海岸通2-7-23,港区,06-6576-3633,,,,http://www.cwo.zaq.ne.jp/caso/,,,,文化・観光,美術館・博物館,文化・観光/美術館・博物館,150,1967
135.4864502,34.6545219,大阪人権博物館（リバティおおさか）,おおさかじんけんはくぶつかん（りばてぃおおさか）,大阪人権博物館（リバティおおさか）（おおさかじんけんはくぶつかん（りばてぃおおさか））,浪速区浪速西3-6-36,浪速区,06-6561-5891,06-6561-5995,,,http://www.liberty.or.jp/,,,,文化・観光,美術館・博物館,文化・観光/美術館・博物館,150,2678
135.5223247,34.610264,自然史博物館,しぜんしはくぶつかん,自然史博物館（しぜんしはくぶつかん）,東住吉区長居公園内,東住吉区,06-6697-6221,06-6697-6225,,,http://www.mus-nh.city.osaka.jp/,,,,文化・観光,美術館・博物館,文化・観光/美術館・博物館,150,3113
135.5792689,34.610156,クラフトパーク,くらふとぱーく,クラフトパーク（くらふとぱーく）,平野区長吉六反1-8-44,平野区,06-4302-9210,06-4302-9212,,,,http://www.osaka-bfmap.jp/sisetu_data/data/230401.php?bunrui=1&name=23.php,,,文化・観光,美術館・博物館,文化・観光/美術館・博物館,146,2356
135.5076049,34.6507395,天王寺動物園,てんのうじどうぶつえん,天王寺動物園（てんのうじどうぶつえん）,天王寺区茶臼山町1-108　天王寺公園内,天王寺区,06-6771-8401 (天王寺動植物公園事務所),,,,http://www.jazga.or.jp/tennoji,,,,文化・観光,美術館・博物館,文化・観光/美術館・博物館,150,4324
135.5103248,34.651286,天王寺動植物公園事務所,てんのうじどうしょくぶつこうえんじむしょ,天王寺動植物公園事務所（てんのうじどうしょくぶつこうえんじむしょ）,天王寺区茶臼山1-108,天王寺区,06-6771-8401,,,,,,,,文化・観光,美術館・博物館,文化・観光/美術館・博物館,150,4318
135.510442,34.650142,市立美術館,しりつびじゅつかん,市立美術館（しりつびじゅつかん）,天王寺区茶臼山1-82,天王寺区,06-6771-4874,,,,http://www.city.osaka.lg.jp/museum/,http://www.osaka-bfmap.jp/sisetu_data/data/090401.php?bunrui=1&name=9.php,,,文化・観光,美術館・博物館,文化・観光/美術館・博物館,152,4319
135.511361,34.6505862,長生庵,ちょうせいあん,長生庵（ちょうせいあん）,天王寺区茶臼山町1-108　天王寺公園慶沢園内,天王寺区,06-6771-8401(天王寺動植物公園事務所),,,,,,,,文化・観光,美術館・博物館,文化・観光/美術館・博物館,150,4322
135.5110329,34.649883,慶沢園,けいたくえん,慶沢園（けいたくえん）,天王寺区茶臼山町1-108　天王寺公園内,天王寺区,06-6771-8401(天王寺動植物公園事務所),,,,,,,,文化・観光,美術館・博物館,文化・観光/美術館・博物館,150,4323
135.4986078,34.661133,日本工芸館,にほんこうげいかん,日本工芸館（にほんこうげいかん）,浪速区難波中3-7-6,浪速区,06-6641-6309,,,,http://www.nihon-kogeikan.or.jp/,,,,文化・観光,美術館・博物館,文化・観光/美術館・博物館,152,2632
135.4316418,34.6660081,ユニバーサル・スタジオ・ジャパン,ゆにばーさる・すたじお・じゃぱん,ユニバーサル・スタジオ・ジャパン（ゆにばーさる・すたじお・じゃぱん）,此花区桜島2-1-33,此花区,6465-3000,,,,,,,,文化・観光,美術館・博物館,文化・観光/美術館・博物館,150,1141
135.462414,34.6697691,交通科学博物館,こうつうかがくはくぶつかん,交通科学博物館（こうつうかがくはくぶつかん）,港区波除3-11-10,港区,06-6581-5771,,,,http://www.mtm.or.jp/index.html,http://www.osaka-bfmap.jp/sisetu_data/data/070402.php?bunrui=1&name=7.php,,,文化・観光,美術館・博物館,文化・観光/美術館・博物館,150,975
135.462478,34.6935249,下水道科学館,げすいどうかがくかん,下水道科学館（げすいどうかがくかん）,此花区高見1-2-53,此花区,6466-3170,6466-3165,,,http://www.city-osaka-sewerage-museum.or.jp/,http://www.osaka-bfmap.jp/sisetu_data/data/040401.php?bunrui=1&name=4.php,,,文化・観光,美術館・博物館,文化・観光/美術館・博物館,150,1134
135.5021921,34.6679531,上方浮世絵館,かみがたうきよえかん,上方浮世絵館（かみがたうきよえかん）,中央区難波1-6-4,中央区,06-6211-0303,06-6211-0393,,,,,,,文化・観光,美術館・博物館,文化・観光/美術館・博物館,152,715
135.5030578,34.6646249,府立上方演芸資料館（ワッハ上方）,ふりつかみがたえんげいしりょうかん（わっはかみがた）,府立上方演芸資料館（ワッハ上方）（ふりつかみがたえんげいしりょうかん（わっはかみがた））,中央区難波千日前12-7　ＹＥＳ・ＮＡＭＢＡビル,中央区,06-6631-0884,06-6636-1996,,,http://www.wahha.or.jp/,,,,文化・観光,美術館・博物館,文化・観光/美術館・博物館,150,713
135.5084558,34.6673609,国立文楽劇場,こくりつぶんらくげきじょう,国立文楽劇場（こくりつぶんらくげきじょう）,中央区日本橋1-12-10,中央区,06-6212-2531,06-6212-1202,,,,http://www.osaka-bfmap.jp/sisetu_data/data/050406.php?bunrui=1&name=5.php,,,文化・観光,美術館・博物館,文化・観光/美術館・博物館,150,716
135.5022467,34.6875168,湯木美術館,ゆきびじゅつかん,湯木美術館（ゆきびじゅつかん）,中央区平野町3-3-9,中央区,06-6203-0188,,,,,,,,文化・観光,美術館・博物館,文化・観光/美術館・博物館,152,867
135.4921581,34.691764,国立国際美術館,こくりつこくさいびじゅつかん,国立国際美術館（こくりつこくさいびじゅつかん）,北区中之島4-2-55,北区,06-6447-4680,,,,,http://www.osaka-bfmap.jp/sisetu_data/data/010404.php?bunrui=1&name=1.php,,,文化・観光,美術館・博物館,文化・観光/美術館・博物館,152,168
135.491506,34.6912721,科学館,かがくかん,科学館（かがくかん）,北区中之島4-2-1,北区,06-6444-5656,,,,http://www.sci-museum.jp/,http://www.osaka-bfmap.jp/sisetu_data/data/010401.php?bunrui=3&name=search_name.php,,,文化・観光,美術館・博物館,文化・観光/美術館・博物館,150,1785
135.5032438,34.6912078,適塾,てきじゅく,適塾（てきじゅく）,中央区北浜3-3-8,中央区,06-6231-1970,,,,,,,,文化・観光,美術館・博物館,文化・観光/美術館・博物館,150,714
135.5182472,34.683842,府立現代美術センター,ふりつげんだいびじゅつせんたー,府立現代美術センター（ふりつげんだいびじゅつせんたー）,中央区大手前3-1-43　大阪府新別館北館・南館,中央区,06-4790-8520,06-4790-8522,,,http://www.osaka-art.jp/,http://www.osaka-bfmap.jp/sisetu_data/data/051403.php?bunrui=1&name=5.php,,,文化・観光,美術館・博物館,文化・観光/美術館・博物館,152,654
135.5207171,34.6825581,大阪歴史博物館,おおさかれきしはくぶつかん,大阪歴史博物館（おおさかれきしはくぶつかん）,中央区大手前4-1-32,中央区,06-6946-5728,06-6946-2662,,,http://www.mus-his.city.osaka.jp/,http://www.osaka-bfmap.jp/sisetu_data/data/050404.php?bunrui=1&name=5.php,,,文化・観光,美術館・博物館,文化・観光/美術館・博物館,150,711
135.5295862,34.6817669,ピースおおさか：大阪国際平和センター,ぴーすおおさか：おおさかこくさいへいわせんたー,ピースおおさか：大阪国際平和センター（ぴーすおおさか：おおさかこくさいへいわせんたー）,中央区大阪城2-1,中央区,06-6947-7208,06-6943-6080,,,http://www.peace-osaka.or.jp/,http://www.osaka-bfmap.jp/sisetu_data/data/050405.php?bunrui=1&name=5.php,,,文化・観光,美術館・博物館,文化・観光/美術館・博物館,150,653
135.525822,34.687447,大阪城天守閣,おおさかじょうてんしゅかく,大阪城天守閣（おおさかじょうてんしゅかく）,中央区大阪城1-1,中央区,06-6941-3044,06-6941-2197,,,http://www.osakacastle.net/,http://www.osaka-bfmap.jp/sisetu_data/data/050401.php?bunrui=1&name=5.php,,,文化・観光,美術館・博物館,文化・観光/美術館・博物館,201,712
135.5609237,34.6699161,深江郷土資料館,ふかえきょうどしりょうかん,深江郷土資料館（ふかえきょうどしりょうかん）,東成区深江南3-16-14,東成区,06-6977-5555,,,,,,,,文化・観光,美術館・博物館,文化・観光/美術館・博物館,150,19257
135.5053223,34.693475,東洋陶磁美術館,とうようとうじびじゅつかん,東洋陶磁美術館（とうようとうじびじゅつかん）,北区中之島1-1-26,北区,06-6223-0055,,,,http://www.moco.or.jp/,http://www.osaka-bfmap.jp/sisetu_data/data/010402.php?bunrui=1&name=1.php,,,文化・観光,美術館・博物館,文化・観光/美術館・博物館,152,1784
135.5102224,34.7048421,キッズプラザ大阪,きっずぷらざおおさか,キッズプラザ大阪（きっずぷらざおおさか）,北区扇町2-1-7,北区,06-6311-6601,,,,http://www.kidsplaza.or.jp/,http://www.osaka-bfmap.jp/sisetu_data/data/010403.php?bunrui=3&name=search_name.php,,,文化・観光,美術館・博物館,文化・観光/美術館・博物館,150,1786
135.5216813,34.6959002,造幣博物館,ぞうへいはくぶつかん,造幣博物館（ぞうへいはくぶつかん）,北区天満1-1-79,北区,06-6351-8509,,,,,,,,文化・観光,美術館・博物館,文化・観光/美術館・博物館,150,1788
135.5250392,34.6950471,藤田美術館,ふじたびじゅつかん,藤田美術館（ふじたびじゅつかん）,都島区網島町10-32,都島区,06-6351-0852,,,,,,,,文化・観光,美術館・博物館,文化・観光/美術館・博物館,152,3043
135.5214109,34.6981107,泉布観,せんぷかん,泉布観（せんぷかん）,北区天満橋1丁目1番1号,中央区,,,登録年月日：平成22年3月5日　概要：明治4年（1871年）落成。造幣寮（現在の造幣局）の応接所として建設。全国でも最も古い洋風建築の一つである。明治天皇自身が命名。大正6年(1917年)に大阪市に移管された。昭和31年（1956年）、洋風建築としては全国に先駆けて国の重要文化財に指定された。,,,,,,文化・観光,都市景観資源,文化・観光/都市景観資源,167,13037
135.499508,34.628021,阿部野神社,あべのじんじゃ,阿部野神社（あべのじんじゃ）,阿倍野区北畠３丁目７－２０,阿倍野区,,,北畠親房と北畠顕家の両公が祀られている。神社は顕家が足利軍と戦った古戦場にあり、明治15年(1882年)に阿部野神社と号して別格官幣社に列せられた。現在の社殿は昭和43年(1968年)に再建されたものである。また、両公の生前の遺徳から知恵と勇気と学問の神として地域の人々から深く信仰されている。全国にある建武の中興に尽力された天皇、皇子、そして多くの忠臣義士をお祀りしている「建武中興十五社」の一つにも数えられている。,,,,,,文化・観光,都市景観資源,文化・観光/都市景観資源,167,95660
135.517999,34.625651,阿倍野長屋,あべのながや,阿倍野長屋（あべのながや）,阿倍野区昭和町４丁目６－８,阿倍野区,,,あびこ筋から東に一歩路地へ進むと、少し懐かしい下町の姿があり、その一角に「阿倍野長屋」が所在する。中には、洋館があったり、中庭を覗める縁側があったり、一度腰を下ろすと気持ちが和む場所である。様々な人が利用できるスペースとして、時間単位や1日単位でレンタル可能で、交流会、パソコン教室、ヨガ教室、展示会など様々なイベントに利用されている。,,,,,,文化・観光,都市景観資源,文化・観光/都市景観資源,167,95664
135.513209,34.646541,阿倍野歩道橋,あべのほどうきょう,阿倍野歩道橋（あべのほどうきょう）,阿倍野区阿倍野筋１丁目５,阿倍野区,,,本歩道橋は、阿倍野再開発事業の一環として架け替えが計画され、平成18～19年度（2006～7年度）にかけて「阿倍野歩道橋デザイン・設計コンペ」を実施し、「大阪の南の玄関口に相応しいランドマーク的な位置づけ」、「開放的な歩行者空間の創出」、「バリアフリー化を推進し、賑わいある通行路を確保」などの条件提示のもとで公募した中から、『阿倍野（abeno）の「ａ」からまちがはじまる』というテーマでデザインされた作品を最優秀作品として決定し、そのデザインをもとに設計、施工が行われ、平成25年4月に全面通行を開始している。様々に高さを変える屋根や構造体による変化に富んだ空間と、道路にせり出し天王寺公園を望む展望スペースなどにより、歩く・話す・眺める・待ち合わせるなど、多様な活動の起点となる新しいタイプの歩道橋が誕生した。本歩道橋は平成25年度（2013年度）に土木学会関西支部 技術賞、平成26年度(2014年度)にグッドデザイン賞を受賞している。,,,,,,文化・観光,都市景観資源,文化・観光/都市景観資源,167,95641
135.510435,34.640874,阿倍野区民センター,あべのくみんせんたー,阿倍野区民センター（あべのくみんせんたー）,阿倍野区阿倍野筋４丁目１９－１１８,阿倍野区,,,大阪市では、コミュニティ活動の拠点となる多目的な集合施設として、各区に区民センターもしくは区民ホール、会場を整備している。収容人数が600人を超える大ホールや集会室だけではなく、スタジオや調理実習室、アトリエ兼工作室も完備されている。平成14年1月完成、地上12階、地下1階（地下1階～2階は区民センター、3階は図書館、4階～12階は公社賃貸住宅)。,,,,,,文化・観光,都市景観資源,文化・観光/都市景観資源,167,95644
135.50271,34.630136,阿倍野七坂（相親坂）,あべのななさか（あいしんざか）,阿倍野七坂（相親坂）（あべのななさか（あいしんざか））,阿倍野区相生通２丁目,阿倍野区,,,阿倍野区の西側一帯は南北に続く上町台地の西端に位置し、起伏に富んだ地形になっている。安倍晴明神社、阿倍王子神社から熊野街道を南に下り、最初の十字交差点を西へ入ると、相生通に出る。相生通周辺やその南の阿部野神社周辺は、浸食によりいくつかの谷ができたため、坂の多い地形になっている。阿部野神社の社から名付けられた「やしろ坂」、正面参道に続く坂道の「みや坂」といった神社に由来している坂をはじめ、かつては名前の通り桜並木の美しかった「さくら坂」、他にも「みどり坂」や「みなみ坂」がある。また、相生通にある相生郵便局の角から北に上る細くて急な坂道は「相親坂」と呼ばれており、相生通の人たちが王子町方面へ買い物に出かけるとき、この坂の下でよく出会い挨拶を交わしたことから名前がついたと言われている。その東側にあり南へ上る坂道は、「相生阪」と呼ばれている。紀州街道の天神ノ森から東へ延びる町並みが、坂付近で相接するので名前がついたと言われている。,,,,,,文化・観光,都市景観資源,文化・観光/都市景観資源,167,95657
135.503563,34.629597,阿倍野七坂（相生阪）,あべのななさか（あいおいざか）,阿倍野七坂（相生阪）（あべのななさか（あいおいざか））,阿倍野区相生通１丁目,阿倍野区,,,阿倍野区の西側一帯は南北に続く上町台地の西端に位置し、起伏に富んだ地形になっている。安倍晴明神社、阿倍王子神社から熊野街道を南に下り、最初の十字交差点を西へ入ると、相生通に出る。相生通周辺やその南の阿部野神社周辺は、浸食によりいくつかの谷ができたため、坂の多い地形になっている。阿部野神社の社から名付けられた「やしろ坂」、正面参道に続く坂道の「みや坂」といった神社に由来している坂をはじめ、かつては名前の通り桜並木の美しかった「さくら坂」、他にも「みどり坂」や「みなみ坂」がある。また、相生通にある相生郵便局の角から北に上る細くて急な坂道は「相親坂」と呼ばれており、相生通の人たちが王子町方面へ買い物に出かけるとき、この坂の下でよく出会い挨拶を交わしたことから名前がついたと言われている。その東側にあり南へ上る坂道は、「相生阪」と呼ばれている。紀州街道の天神ノ森から東へ延びる町並みが、坂付近で相接するので名前がついたと言われている。,,,,,,文化・観光,都市景観資源,文化・観光/都市景観資源,167,95658
135.500844,34.628657,阿倍野七坂（やしろ坂）,あべのななさか（やしろざか）,阿倍野七坂（やしろ坂）（あべのななさか（やしろざか））,阿倍野区北畠３丁目,阿倍野区,,,阿倍野区の西側一帯は南北に続く上町台地の西端に位置し、起伏に富んだ地形になっている。安倍晴明神社、阿倍王子神社から熊野街道を南に下り、最初の十字交差点を西へ入ると、相生通に出る。相生通周辺やその南の阿部野神社周辺は、浸食によりいくつかの谷ができたため、坂の多い地形になっている。阿部野神社の社から名付けられた「やしろ坂」、正面参道に続く坂道の「みや坂」といった神社に由来している坂をはじめ、かつては名前の通り桜並木の美しかった「さくら坂」、他にも「みどり坂」や「みなみ坂」がある。また、相生通にある相生郵便局の角から北に上る細くて急な坂道は「相親坂」と呼ばれており、相生通の人たちが王子町方面へ買い物に出かけるとき、この坂の下でよく出会い挨拶を交わしたことから名前がついたと言われている。その東側にあり南へ上る坂道は、「相生阪」と呼ばれている。紀州街道の天神ノ森から東へ延びる町並みが、坂付近で相接するので名前がついたと言われている。,,,,,,文化・観光,都市景観資源,文化・観光/都市景観資源,167,95655
135.498065,34.627637,阿倍野七坂（みや坂）,あべのななさか（みやさか）,阿倍野七坂（みや坂）（あべのななさか（みやさか））,阿倍野区北畠３丁目,阿倍野区,,,阿倍野区の西側一帯は南北に続く上町台地の西端に位置し、起伏に富んだ地形になっている。安倍晴明神社、阿倍王子神社から熊野街道を南に下り、最初の十字交差点を西へ入ると、相生通に出る。相生通周辺やその南の阿部野神社周辺は、浸食によりいくつかの谷ができたため、坂の多い地形になっている。阿部野神社の社から名付けられた「やしろ坂」、正面参道に続く坂道の「みや坂」といった神社に由来している坂をはじめ、かつては名前の通り桜並木の美しかった「さくら坂」、他にも「みどり坂」や「みなみ坂」がある。また、相生通にある相生郵便局の角から北に上る細くて急な坂道は「相親坂」と呼ばれており、相生通の人たちが王子町方面へ買い物に出かけるとき、この坂の下でよく出会い挨拶を交わしたことから名前がついたと言われている。その東側にあり南へ上る坂道は、「相生阪」と呼ばれている。紀州街道の天神ノ森から東へ延びる町並みが、坂付近で相接するので名前がついたと言われている。,,,,,,文化・観光,都市景観資源,文化・観光/都市景観資源,167,95654
135.501696,34.626958,阿倍野七坂（みなみ坂）,あべのななさか（みなみざか）,阿倍野七坂（みなみ坂）（あべのななさか（みなみざか））,阿倍野区北畠２丁目、３丁目,阿倍野区,,,阿倍野区の西側一帯は南北に続く上町台地の西端に位置し、起伏に富んだ地形になっている。安倍晴明神社、阿倍王子神社から熊野街道を南に下り、最初の十字交差点を西へ入ると、相生通に出る。相生通周辺やその南の阿部野神社周辺は、浸食によりいくつかの谷ができたため、坂の多い地形になっている。阿部野神社の社から名付けられた「やしろ坂」、正面参道に続く坂道の「みや坂」といった神社に由来している坂をはじめ、かつては名前の通り桜並木の美しかった「さくら坂」、他にも「みどり坂」や「みなみ坂」がある。また、相生通にある相生郵便局の角から北に上る細くて急な坂道は「相親坂」と呼ばれており、相生通の人たちが王子町方面へ買い物に出かけるとき、この坂の下でよく出会い挨拶を交わしたことから名前がついたと言われている。その東側にあり南へ上る坂道は、「相生阪」と呼ばれている。紀州街道の天神ノ森から東へ延びる町並みが、坂付近で相接するので名前がついたと言われている。,,,,,,文化・観光,都市景観資源,文化・観光/都市景観資源,167,95652
135.501348,34.627456,阿倍野七坂（みどり坂）,あべのななさか（みどりざか）,阿倍野七坂（みどり坂）（あべのななさか（みどりざか））,阿倍野区北畠３丁目,阿倍野区,,,阿倍野区の西側一帯は南北に続く上町台地の西端に位置し、起伏に富んだ地形になっている。安倍晴明神社、阿倍王子神社から熊野街道を南に下り、最初の十字交差点を西へ入ると、相生通に出る。相生通周辺やその南の阿部野神社周辺は、浸食によりいくつかの谷ができたため、坂の多い地形になっている。阿部野神社の社から名付けられた「やしろ坂」、正面参道に続く坂道の「みや坂」といった神社に由来している坂をはじめ、かつては名前の通り桜並木の美しかった「さくら坂」、他にも「みどり坂」や「みなみ坂」がある。また、相生通にある相生郵便局の角から北に上る細くて急な坂道は「相親坂」と呼ばれており、相生通の人たちが王子町方面へ買い物に出かけるとき、この坂の下でよく出会い挨拶を交わしたことから名前がついたと言われている。その東側にあり南へ上る坂道は、「相生阪」と呼ばれている。紀州街道の天神ノ森から東へ延びる町並みが、坂付近で相接するので名前がついたと言われている。,,,,,,文化・観光,都市景観資源,文化・観光/都市景観資源,167,95653
135.500543,34.629257,阿倍野七坂（さくら坂）,あべのななさか（さくらざか）,阿倍野七坂（さくら坂）（あべのななさか（さくらざか））,阿倍野区北畠３丁目,阿倍野区,,,阿倍野区の西側一帯は南北に続く上町台地の西端に位置し、起伏に富んだ地形になっている。安倍晴明神社、阿倍王子神社から熊野街道を南に下り、最初の十字交差点を西へ入ると、相生通に出る。相生通周辺やその南の阿部野神社周辺は、浸食によりいくつかの谷ができたため、坂の多い地形になっている。阿部野神社の社から名付けられた「やしろ坂」、正面参道に続く坂道の「みや坂」といった神社に由来している坂をはじめ、かつては名前の通り桜並木の美しかった「さくら坂」、他にも「みどり坂」や「みなみ坂」がある。また、相生通にある相生郵便局の角から北に上る細くて急な坂道は「相親坂」と呼ばれており、相生通の人たちが王子町方面へ買い物に出かけるとき、この坂の下でよく出会い挨拶を交わしたことから名前がついたと言われている。その東側にあり南へ上る坂道は、「相生阪」と呼ばれている。紀州街道の天神ノ森から東へ延びる町並みが、坂付近で相接するので名前がついたと言われている。,,,,,,文化・観光,都市景観資源,文化・観光/都市景観資源,167,95656
135.508839,34.630977,阿倍王子神社,あべおうじじんじゃ,阿倍王子神社（あべおうじじんじゃ）,阿倍野区阿倍野元町９－４,阿倍野区,,,阿倍王子神社は、大阪府下に唯一現存する熊野権現の王子社である。飛鳥時代に、阿倍野の地名の由来となった豪族阿倍氏の氏寺とされる阿倍寺があり、阿倍王子神社は阿倍氏の氏神とされている。しかし、遷都とともに阿倍氏も奈良へ帰郷し、平安時代には阿倍寺も四天王寺に併合されてしまう。この頃から熊野信仰が盛んになり、阿倍王子神社が熊野街道沿いにあり、四天王寺と住吉大社の中間に位置することから、熊野王子社「阿倍の王子」となった。熊野詣は平安時代から室町時代頃までが最も盛んで、途中の街道には熊野九十九王子と呼ばれた王子社ができた。「王子」とは、熊野三山の末社という意味で、京都から摂津、和泉を経て熊野に至る街道の途中に、休憩と遥拝のために設けられた。阿倍王子神社の境内では保存樹に指定されている樹齢四、五百年のクスノキの巨木が枝を広げている。,,,,,,文化・観光,都市景観資源,文化・観光/都市景観資源,167,95648
135.513259,34.638054,阪南町界隈の特徴的な長屋・住宅のある町並み,はんなんちょうかいわいのとくちょうてきなながや・じゅうたくのあるまちなみ,阪南町界隈の特徴的な長屋・住宅のある町並み（はんなんちょうかいわいのとくちょうてきなながや・じゅうたくのあるまちなみ）,阿倍野区阪南町１丁目～５丁目,阿倍野区,,,阪南町界隈は大正13年(1924年)に設立された「阪南土地区画整理組合」によって順次、町並み整備が行われ、その際に様々な長屋が建てられた。伝統的な住宅様式から和洋折衷あるいは大胆な洋風のものまで様々な創意工夫がされた長屋が現在でも多く残されている。また、この界隈には、長屋以外の住宅でも特徴的なものが多く残されている。,,,,,,文化・観光,都市景観資源,文化・観光/都市景観資源,167,95670
135.512645,34.645447,路面電車の走るあべの筋,ろめんでんしゃのはしるあべのすじ,路面電車の走るあべの筋（ろめんでんしゃのはしるあべのすじ）,阿倍野区阿倍野筋１丁目～５丁目,阿倍野区,,,あべの筋は、阿倍野区と住吉区を南北に縦断する道路で、その中でも阿倍野筋1丁目のあべの近鉄前交差点から約1.2kmの区間は、阪堺電気軌道上町線が設置されている。歴史的には、明治18年(1885年)に現在の南海電気鉄道の前身である阪堺鉄道が難波～大和川間に開通し、大阪市が発足した明治22年(1889年)には、天王寺駅が開設。明治33年(1900年)には天王寺西門前～東天下茶屋間に、現在の「チンチン電車」阪堺電気軌道の前身となる、大阪馬車鉄道が開通し、レールの上を馬車が走った。その後、人口の都市集中化とともに、利用者が急増し、馬車鉄道では電化が検討され、明治42年(1909年)に南海電鉄（昭和55年（1980年）南海から分離）と合併し、翌年から電車に切り替えられた。交通量の増加によりその多くが廃止されている中、あべの筋の中でもこの区間は今でも「チンチン電車」が残っており、駅前の開発が進む中でのどかさを楽しめるひときわ市民に親しまれた景観となっている。,,,,,,文化・観光,都市景観資源,文化・観光/都市景観資源,167,95638
135.50882,34.631451,熊野街道,くまのかいどう,熊野街道（くまのかいどう）,阿倍野区阿倍野元町９、１８付近,阿倍野区,,,平安中期頃から、上皇や貴族たちの間では、熊野を苦行の果てに辿り着く浄土の地と憧れ、熊野詣が盛んになった。大川の船着場、天満の八軒家浜から続く熊野街道は、あべの筋を松虫の交差点へ南下し、あべの筋の1本西側の細い道へと入る。落ち着いた静かな街並みに社寺や歴史的な民家などが点在し、人々が行き交った祈りの道「熊野街道」の面影をしのぶことができる。,,,,,,文化・観光,都市景観資源,文化・観光/都市景観資源,167,95647
135.503665,34.635711,聖天山,しょうてんやま,聖天山（しょうてんやま）,阿倍野区松虫通３丁目２,阿倍野区,,,"聖天山辺りは、昭和25年(1950年)までは、原生林のような手つかずの荒れ地であり、帝塚山古墳ほどの規模の周濠をもった前方後円墳であったと推定されている。聖武天皇はこの古墳に立ち寄り、古くは聖武帝山と呼ばれていたが、正圓寺に大聖歓喜天を祀ったことから聖天山と呼ばれるようになった。聖天山公園は、昭和34年（1959年）10月の開園で、面積が約16,500㎡の公園で、公園の中央付近には、クスノキの巨木がある。「聖天さん」で有名な正圓寺は古義真言宗京都東寺の末院で、天慶2年（939年）に現在地の東方500ｍにお堂を建て開基し、「般若山阿倍野寺」と呼んだのが縁起である。正圓寺の正面参道横に「大聖歓喜天」と彫られた石標があり、その台石として「兼好法師藁打石」が残っており、聖天山公園南入口の高台に「徒然草」の序段が刻まれた「吉田兼好文学碑」が建てられている。",,,,,,文化・観光,都市景観資源,文化・観光/都市景観資源,167,95681
135.50698,34.629136,源正寺楼門,げんしょうじろうもん,源正寺楼門（げんしょうじろうもん）,阿倍野区阿倍野元町１８－３４,阿倍野区,,,平成14年(2002年)国の登録文化財に登録される。楼門は明治22年(1889年)に建てられ、大正12年(1923年)に上本町6丁目から現在地に移転された。大阪大空襲によって本尊などほとんどが焼失したが、楼門・経塚等が戦災を免れた。知恩院末寺で、初重袴腰を塗込める竜宮造の楼門で、上層は出組、二軒繁垂木、入母屋造、本瓦葺とする。蟇股や肘木の形式・絵様に近代らしい意匠が充溢するとともに、旧熊野街道に面し竜宮門として親しまれている。,,,,,,文化・観光,都市景観資源,文化・観光/都市景観資源,167,95649
135.519335,34.626384,桃ヶ池長屋,ももがいけながや,桃ヶ池長屋（ももがいけながや）,阿倍野区桃ケ池町２丁目１１,阿倍野区,,,この長屋は昭和４年(1929年)に建てられたものである。昭和初期としてはめずらしい通り庭のあるちょっと贅沢なつくりとなっている。長屋前の道は、田辺から王子神社をつなぐ街道筋として栄え、商売をする人が多く住んでいた。今は現在の暮らしに合わせて、壁の塗り直しや一部床のはり直しを行っているが、柱や梁などの骨組みは当時のまま残っている。,,,,,,文化・観光,都市景観資源,文化・観光/都市景観資源,167,95683
135.5082223,34.6340819,松虫塚,まつむしづか,松虫塚（まつむしづか）,阿倍野区松虫通１丁目１１－５,阿倍野区,,,昔、この辺りは見渡す限りの原野で、秋には虫の声が満ち、特に松虫（今の鈴虫）の澄んだ音色が美しく、名所として知られていた。古書「芦分船」によると、後鳥羽上皇が寵愛した白拍子の松虫、鈴虫姉妹が隠れ住んだといった伝説などが残されている。,,,,,,文化・観光,都市景観資源,文化・観光/都市景観資源,167,95680
135.505092,34.626344,晴明丘中央公園,せいめいがおかちゅうおうこうえん,晴明丘中央公園（せいめいがおかちゅうおうこうえん）,阿倍野区北畠１丁目１８,阿倍野区,,,"阪堺電軌上町線の線路沿いにある公園で、北畠駅の南側に位置する。面積が約12,000㎡と広々とした公園で、樹木が生い茂り人々の憩いの場となっている。開園：昭和57年(1982年)3月。",,,,,,文化・観光,都市景観資源,文化・観光/都市景観資源,167,95651
135.516352,34.628895,日本聖公会大阪聖アンデレ教会,にっぽんせいこうかいおおさかせいあんでれきょうかい,日本聖公会大阪聖アンデレ教会（にっぽんせいこうかいおおさかせいあんでれきょうかい）,阿倍野区昭和町３丁目１－５７,阿倍野区,,,明治17年（1884年）に川口居留地（現：大阪市西区川口）で英国聖公会宣教協会によって創設された桃山学院と深い繋がりをもつ。桃山中学校内の生徒と教職員による聖書研究会が嚆矢となる。聖書研究会は明治42年（1909年）に桃山中学校会衆、さらに明治44年（1911年）には桃山准教会へと発展した。大正6年（1917年）、学内でのキリスト教活動が禁止になり、その活動は当時の校長宅を経て、新生伝道館という建物に移された。昭和2年（1927年）、新生伝道館が桃山中学校の隣（現在地）に移築され、これと同時に桃山准教会は大阪聖アンデレ教会になった。移築された建物は昭和36年（1961年）の第2室戸台風により大きな被害を受けた。そのため、昭和39年（1964年）に現在の礼拝堂に建て替えられた。平成2年（1990年）には教会成立100周年を機に改修工事が行われた。桃山学院聖アンデレ礼拝堂としても使用されている。,,,,,,文化・観光,都市景観資源,文化・観光/都市景観資源,167,95663
135.515778,34.635552,日本基督教団南大阪教会,にほんきりすときょうだんみなみおおさかきょうかい,日本基督教団南大阪教会（にほんきりすときょうだんみなみおおさかきょうかい）,阿倍野区阪南町１丁目３０－５,阿倍野区,,,日本基督教団南大阪教会は、大正15年（1926年）２月７日に日本基督教団大阪教会の創立50周年記念事業の一つとして独立し宣教を開始した。南大阪教会の設計監督を担ったのが若き建築家の村野藤吾で、昭和３年（1928年）に旧礼拝堂と教会塔は完成し、これが彼の処女作である。旧会堂と教会塔は無事に戦火をくぐり抜けたが、時間の経過とともに傷みが激しくなり、旧会堂を取り壊すことになった。昭和56年（1981年）に新会堂が建築されたが、それも藤吾の手によるもので、これが宗教建築最後の作品となった。南大阪教会は、村野藤吾の処女作（教会塔）と最晩年の作品（新会堂）と共存している貴重な建築物である。また、教会の南東方向には阪田寛夫「サッちゃん」詩碑がある。阪田寛夫（1925年～2005年）は大阪市住吉区天王寺町（現・阿倍野区松崎町）生まれの詩人、小説家、児童文学作家であるが、彼は南大阪教会付属南大阪幼稚園の二期生でもあった。「サッちゃん」は昭和34年（1959年）に書かれた童謡で、阪田寛夫が園児だった時に、1年上のクラスに「さちこ」という園児がおり、この「さちこ」さんに対する親しい思いを、後にこどもの詩という形に結晶させたもの。,,,,,,文化・観光,都市景観資源,文化・観光/都市景観資源,167,95675
135.518374,34.63387,文の里商店街,ふみのさとしょうてんがい,文の里商店街（ふみのさとしょうてんがい）,阿倍野区昭和町１丁目,阿倍野区,,,地下鉄御堂筋線昭和町駅のすぐそばに位置する商店街。店舗数は約60店舗で、食料品、衣料品、飲食店等が立ち並んでいる。地区周辺には、平成26年(2014年)3月7日全面開業した「あべのハルカス」や「あべのand」「Hoop」、「あべのキューズタウン」などがあり、商業施設の競争が激化している地区にありながらも、地域の生活に密着した商店街として、古き良き商店街の雰囲気を守りつつ、これまでも100円商店街の実施などを通じて、商店街の活性化に積極的に取り組まれている。大阪商工会議所と文の里商店街が協働で、商店街の賑わい創りや新たな顧客獲得を目指す事業として平成25年に実施された「文の里商店街ポスター総選挙」で、一躍注目を集めた。,,,,,,文化・観光,都市景観資源,文化・観光/都市景観資源,167,95662
135.503236,34.628273,岸の五本松,きしのごほんまつ,岸の五本松（きしのごほんまつ）,阿倍野区北畠２丁目４,阿倍野区,,,「岸の五本松」と呼ばれる松の木が府立住吉高校正門の西筋向い、グラウンドに沿って残されている。古くはこの界隈にも松林が続き、松の木が多く茂っていたが、市街化され、住宅地となり、わずかに5本の松だけが道路沿いに残された。現在は、1本が枯れて4本になっているが、地域の人々は、岸の姫松との由緒を大切に思い、「岸の五本松」と呼んで長く親しまれている。,,,,,,文化・観光,都市景観資源,文化・観光/都市景観資源,167,95659
135.516234,34.633106,寺西家阿倍野長屋・寺西家住宅,てらにしけあべのながや・てらにしけじゅうたく,寺西家阿倍野長屋・寺西家住宅（てらにしけあべのながや・てらにしけじゅうたく）,阿倍野区阪南町１丁目５０－２５,阿倍野区,,,寺西家阿倍野長屋は、昭和7年(1932)に建築され、平成15年(2003)に長屋では全国初となる国の登録文化財に登録されている。地下鉄御堂筋線昭和町駅に近く、木造2階建四戸一棟からなる瓦葺入母屋造の長屋で、二戸に仕切る防火壁は屋根より高くし、袖壁をつけている。各戸毎に木戸門があり、１階は玄関、茶の間、和室、台所、ガス風呂、便所があり、２階は和室２室で構成されていた。平成16年(2004)に外観の改装工事を行い、続いて入居されたテナントが長屋住宅を飲食店舗に内部を改装された。寺西家住宅は、大正15年(1926)に建築され、当時の戸建て住宅の典型である。木造2階建入母屋造で和風建築の玄関横に洋式の応接間が取り付けられている。現在、住まいとして使用されながら、毎月の落語会をはじめ生花展や手作り作品展などの催会場としても利用されている。,,,,,,文化・観光,都市景観資源,文化・観光/都市景観資源,167,95676
135.503086,34.624082,姫松停留場,ひめまつていりゅうじょう,姫松停留場（ひめまつていりゅうじょう）,阿倍野区帝塚山１丁目８－１の先,阿倍野区,,,路面電車という性格上、プラットホーム上に上屋が設置されるだけの簡易なものが多い中、姫松駅は独立型のものとして整備されており、木造、平屋建て、鉄板葺きの小ぶりなデザインの駅舎である。建築年代は電化が進む大正7年頃のものと考えられる。正面に開口部を設け、内部は１室の空間である。柱には腕木のような形で桁を支え、また柱上と桁の間には格子状に束を入れる。,,,,,,文化・観光,都市景観資源,文化・観光/都市景観資源,167,95665
135.509011,34.631742,安倍晴明神社,あべのせいめいじんじゃ,安倍晴明神社（あべのせいめいじんじゃ）,阿倍野区阿倍野元町５－１６,阿倍野区,,,平安時代の天文博士安倍晴明が祭神として祀られており、この地は晴明が生まれた晴明屋敷があったと言われている。晴明は考元天皇の子孫で陰陽道の祖として広く知られており、少年時代に京に上り、天文・陰陽道・推算術を修め、天文司廊大博士、播磨守等を歴任した。「晴明宮御社伝書」では、晴明の死を惜しんだ上皇が、生誕の地に晴明を祀るように命じ、晴明没後2年の寛弘4年(1007年)、この地に安倍晴明神社が創設されたと言われている。明治時代には、「安倍晴明誕生地」の石碑と少祠のみとなっていたが、大正14年（1925年）に阿倍王子神社の末社として現在の社殿が竣工した。,,,,,,文化・観光,都市景観資源,文化・観光/都市景観資源,167,95646
135.51363,34.619473,奧田邸のクスノキ,おくだていのくすのき,奧田邸のクスノキ（おくだていのくすのき）,阿倍野区西田辺町１丁目２０,阿倍野区,,,寛文3年（1663年）に猿山新田を開墾した奧田市郎兵衛の子孫の方が住まれている非公開邸内に大阪市指定の保存樹のクスノキがある。新田の開墾時に防風と美観のために森林を造成し、「猿山の森」と呼ばれていた。このクスノキはその森の名残である。,,,,,,文化・観光,都市景観資源,文化・観光/都市景観資源,167,95666
135.510328,34.637847,大阪府阿倍野警察署,おおさかふあべのけいさつしょ,大阪府阿倍野警察署（おおさかふあべのけいさつしょ）,阿倍野区阿倍野筋５丁目１３－５,阿倍野区,,,あべの筋と阪神高速の交差点から南側に300mほど下がったところに位置する警察署の建物である。左右シンメトリーな外観となっている。平成２年６月完成、地上７階、地下１階。,,,,,,文化・観光,都市景観資源,文化・観光/都市景観資源,167,95645
135.513584,34.625435,北畠住宅,きたばたけじゅうたく,北畠住宅（きたばたけじゅうたく）,阿倍野区阪南町４丁目８、１１、１４、１７,阿倍野区,,,大正期の分譲市営住宅である。一角には「北畠自治町会」の石柱がある。大正時代に「桐山」と呼ばれる森だったこの地が、周辺に先立ち区画整理されたことにより、周辺とは異なる区画形質の街区に位置する。また、街区内の道路も未舗装となっており、この地域の市街化履歴を語る上では重要な資源である。,,,,,,文化・観光,都市景観資源,文化・観光/都市景観資源,167,95677
135.518385,34.638072,大阪市立工芸高等学校・第二工芸高等学校,おおさかしりつこうげいこうとうがっこう・だいにこうげいこうとうがっこう,大阪市立工芸高等学校・第二工芸高等学校（おおさかしりつこうげいこうとうがっこう・だいにこうげいこうとうがっこう）,阿倍野区文の里１丁目７－２、４８,阿倍野区,,,世界に巻き起こったモダンデザインの中枢を担ったバウハウス運動の影響を色濃く受けて誕生した大阪市立工芸高等学校・第二工芸高等学校の本館は、大阪のバウハウスと呼ぶにふさわしい、モダンな建築デザインと感性を誇っている。１、２階の外壁はレンガ積みで、玄関入口の大アーチが正面を引き立てており、３階には優美な曲線のマンサード風の屋根がかけられ、教室の窓で区切ることで、曲面の美しさを一層際立たせるなど、外観全体が極めて特徴的なデザインになっている。屋根上にはシンボルの時計台がそびえ、アールヌーボーの建築様式をより一層印象づけている。デザイン・造形を総合的に学ぶデザイン系5学科と美術科で構成される全国で唯一の高等学校で、大阪市立工芸高等学校として大正12年（1923年）に設立されている。その後、昭和16年（1941年）に第二本科（夜間部）が設置認可され、昭和28年（1953年）に第二工芸高等学校（定時制課程）として独立している。,,,,,,文化・観光,都市景観資源,文化・観光/都市景観資源,167,95678
135.4998779,34.6302528,ドムール北畠,どむーるきたばたけ,ドムール北畠（どむーるきたばたけ）,阿倍野区北畠３丁目３,阿倍野区,,,風致地区の由緒ある古い住宅地、その敷地の高低差と在来の大樹を生かし、歩車共用の道路沿いに個性的な住戸を配置している。昭和57年7月に完成。,,,,,,文化・観光,都市景観資源,文化・観光/都市景観資源,167,95661
135.51098,34.634932,はやし製菓本舗,はやしせいかほんぽ,はやし製菓本舗（はやしせいかほんぽ）,阿倍野区王子町１丁目７－１１,阿倍野区,,,あべの筋から1本東の通りに位置する南北100mにわたる王子1丁目商店街には、お寿司屋さんや精肉店等が並んでおり、その中に、浪花ことばせんべいで有名な「はやし製菓本舗」がある。創業80年以上の老舗のせんべい屋で、浪花ことばせんべいには、「べっぴん」「はんなり」などの浪花ことばが1枚1枚に刻印されている。,,,,,,文化・観光,都市景観資源,文化・観光/都市景観資源,167,95650
135.514721,34.641439,カトリック阿倍野教会,かとりっくあべのきょうかい,カトリック阿倍野教会（かとりっくあべのきょうかい）,阿倍野区松崎町３丁目６－２５,阿倍野区,,,建物の外観は、ノアの方舟を象っている。聖堂側壁の１２の窓にあるステンドグラスは、イエス・キリストに選ばれ派遣された１２人の使徒の足跡、宣教、または殉教などを、聖書・聖人伝等を参考にして表現している。,,,,,,文化・観光,都市景観資源,文化・観光/都市景観資源,167,95679
135.511186,34.646735,あべのルシアス,あべのるしあす,あべのルシアス（あべのるしあす）,阿倍野区阿倍野筋１丁目５－１,阿倍野区,,,"あべのルシアスは、阿倍野地区第2種市街地再開発事業地区内にあり、　事業地区の北側のA-1街区に平成10年(1998年)9月に完成した大型複合商業ビルである。隣接するきんえいアポロビルと、複数階が連絡通路で繋がる16階建てで、シネマコンプレックスフロアまでの巨大な吹き抜けが印象的なビルである。地上16階、地下5階、延床面積約68,000㎡。",,,,,,文化・観光,都市景観資源,文化・観光/都市景観資源,167,95642
135.511513,34.642357,あべのベルタ,あべのべるた,あべのベルタ（あべのべるた）,阿倍野区阿倍野筋３丁目１０－１,阿倍野区,,,"あべのベルタは、阿倍野地区第2種市街地再開発事業内にあり、事業地区の南側のB1街区に昭和61年(1986年)1月に完成した。地上17階、地下4階、延床面積約100,00㎡で、主な用途は、住宅、店舗、事務所等で、阿倍野市民学習センターといった公共施設も入り、市民に活用されている。",,,,,,文化・観光,都市景観資源,文化・観光/都市景観資源,167,95643
135.514035,34.646082,あべのハルカス,あべのはるかす,あべのハルカス（あべのはるかす）,阿倍野区阿倍野筋１丁目１－４３,阿倍野区,,,"「天王寺･あべの」ターミナルに直結する日本一の超高層複合ビル。建物デザインにおいては、階段状のセットバックにより生まれた屋上への緑化や、全面ガラス張りの外観等によるランドマーク性と周辺地域との調和の両立や、西面の一筋の折り目による高さ３００ｍの強調などの特長を持つ。駅、百貨店、美術館、ホテル、展望台等複数の都市機能が集積した『立体都市』である。平成26年（2014年）3月全面開業、地上60階、地下5階、高さ300ｍ、延床面積約306,000㎡。",,,,,,文化・観光,都市景観資源,文化・観光/都市景観資源,167,95639
135.5136,34.645244,Hoop,ふーぷ,Hoop（ふーぷ）,阿倍野区阿倍野筋１丁目２－３０,阿倍野区,,,"都会的なオープンスペースと、昼と夜とで表情が変わる斬新な形状の建造物が特徴的な都市商業施設である。商業施設の賑わいを醸しだすため、建物中心部外壁はガラススクリーンで構成され、視認性の高い構造となっている。建物の内と外の境界線は存在せず、行き交う人々は何かに束縛されるということなく自由に空間を楽しむことができる。平成12年（2000年）9月開業、地上6階、高さ約30ｍ、延床面積約20,000㎡。",,,,,,文化・観光,都市景観資源,文化・観光/都市景観資源,167,95640
135.521443,34.631027,桃ヶ池公園,ももがいけこうえん,桃ヶ池公園（ももがいけこうえん）,阿倍野区桃ケ池町１丁目２－２３,阿倍野区,,,"桃ヶ池公園は、昭和8年(1933年)10月に、大阪市により水や緑に囲まれた公園として整備された。桃や桜の花が咲く頃には多くの人が花見に訪れる区内最大（約71,500㎡）の公園である。桃ヶ池の歴史は古く、周辺は弥生時代から中世にかけての「桃ヶ池遺跡」として、大阪市の指定を受けている。桃ヶ池は、古くは猫間川につながる池で、その形から「股ヶ池」と記され、江戸時代の書物には、聖徳太子による大蛇退治の伝説が紹介されており、公園の中ほどには、股ヶ池明神がクスノキやエノキの大木に護られるようにひっそりと佇んでいる。また、池の中には、「へび島」と呼ばれる自然が残された島がある。",,,,,,文化・観光,都市景観資源,文化・観光/都市景観資源,167,95682
135.533191,34.66398,鶴橋商店街,つるはししょうてんがい,鶴橋商店街（つるはししょうてんがい）,生野区鶴橋２丁目,生野区,,,鶴橋2丁目にある鶴橋本通商店街は、鶴橋本通商店会、鶴橋本通鶴商会、鶴橋本通鶴進会の３つからなる商店街で、近鉄鶴橋駅東口の近くにあり、鶴橋卸売市場（鮮魚、乾物、青果等）と接している。鶴橋本通り沿いに、グルメや衣料、小物などの店が数十件並び、市内のみならず市外からも多くの人が訪れ、賑わっている。,,,,,,文化・観光,都市景観資源,文化・観光/都市景観資源,167,95626
135.532236,34.660212,鶴橋地域に残る旧家の家並み,つるはしちいきにのこるきょうかのいえなみ,鶴橋地域に残る旧家の家並み（つるはしちいきにのこるきょうかのいえなみ）,生野区桃谷２丁目１０、１１、１５、１６、１７,生野区,,,桑津街道は、上町台地の細工谷を起点とし、東住吉区の桑津天神社に至る街道である。仁徳天皇が高津宮から、桑津に住む妃髪長媛（かみながひめ）のもとに通ったとされる。この街道は旧木野村（現在の桃谷2丁目周辺）の集落も通っており、この辺には旧家の家並みが残っている。,,,,,,文化・観光,都市景観資源,文化・観光/都市景観資源,167,95629
135.551725,34.639952,楠正長史跡公園,くすのきまさながしせきこうえん,楠正長史跡公園（くすのきまさながしせきこうえん）,生野区巽南４丁目２,生野区,,,巽南の地は、もと河内国渋川郡四条村といい、この一画はその氏神、天神社のあった所である。楠正長は、南北朝時代の武将、楠正成の孫にあたる人物であり、文中元年(1372年)春、隣村の正覚寺村に生まれた。応永19年(1412年)桑原寺の近くにあった天神社に隠棲し、その祭祀を掌ったとされる。楠正長旧跡記念碑のある一帯が天神社で「遠宮さん」と呼ばれていた。当時は、広大な森や池、小高い山もあったとされ、ここに正長が住居を構えていたといわれている。現在では、クスノキの大木と正長の記念碑が残るのみとなっている。,,,,,,文化・観光,都市景観資源,文化・観光/都市景観資源,167,95624
135.491252,34.719992,淀川河川敷（淀川区）,よどがわかせんじき（よどがわく）,淀川河川敷（淀川区）（よどがわかせんじき（よどがわく））,淀川区塚本１丁目～西中島１丁目,淀川区,,,淀川区内の淀川河川敷に、都市部における貴重なオープンスペースとして淀川河川公園の西中島地区と十三野草地区があり、西中島地区は、野球場や芝生広場が整備されており、休日は野球やバーベキュー利用で賑わっている。十三野草地区は交通アクセスがよく、イベント会場としても利用されており、花火大会やマラソン会場等の利用で賑わっている。,,,,,,文化・観光,都市景観資源,文化・観光/都市景観資源,167,95637
135.55187,34.658187,翠岩さん墓所と頌徳碑,すいがんさんぼしょとしょうとくひ,翠岩さん墓所と頌徳碑（すいがんさんぼしょとしょうとくひ）,生野区中川東２丁目７－２８,生野区,,,約300年前、旧中川村に生まれ地域の福祉増進などに私財を投じた住吉屋太郎右衛門の墓である。住吉屋太郎右衛門は、後に、剃髪し翠岩と号したが生来慈善心に富み、公共心が強く、近郷の橋11カ所の架設や道路修理、社寺への寄金、村民への施米資金の寄付等、多くの功績が残されている。当時、寄付された土地は現在も中川町財産区として管理運営されており、福祉や地域振興に恩恵を与え続けている。墓石の入り口には、翠岩さんが架けた石橋の一部が記念石として置かれ、遺徳が偲ばれている。,,,,,,文化・観光,都市景観資源,文化・観光/都市景観資源,167,95627
135.536356,34.651338,舎利尊勝寺,しゃりそんしょうじ,舎利尊勝寺（しゃりそんしょうじ）,生野区舎利寺１丁目２－３６,生野区,,,正しくは、南岳山舎利尊勝寺。現在の本尊は、聖観世音菩薩である。約1400年前、用明天皇のころ、生野長者と呼ばれる長者に言葉の不自由な子が生まれた。長者が、四天王寺伽藍を建立するために来ていた聖徳太子にすがると、太子はその子に向かい「わたしが前世に預けた3つの仏舎利を返しなさい」といった。すると3つの仏舎利を吐き出し、それからは普通に話せるようになった。太子はそのうち、ひとつを法隆寺に、ひとつを四天王寺に、残った1つを長者に渡し、長者がお堂を建てて、この仏舎利を奉ったのが、舎利寺の起源と言われている。,,,,,,文化・観光,都市景観資源,文化・観光/都市景観資源,167,95621
135.528996,34.6458,源ケ橋温泉,げんがはしおんせん,源ケ橋温泉（げんがはしおんせん）,生野区林寺１丁目５－３３,生野区,,,昭和10年（1935年）ごろ建てられ、平成10年（1998年）年10月に国の文化財（登録有形文化財）に指定された。平面は番台を挟んで男女別に区画され、浴槽部分は随時改修されているが、脱衣場及び浴室の構えは良く残っている。外観は、屋根は茶褐色の桟瓦を葺き、入浴（ニューヨークとかけた）自由の女神像がある。正面２階には彫像付きの洋風窓や丸窓を開く。市街地における木造の公衆浴場の好例で、広く利用されている。登録有形文化財の登録基準としては、「国土の歴史的景観に寄与しているもの」であるとされる。,,,,,,文化・観光,都市景観資源,文化・観光/都市景観資源,167,95628
135.535629,34.657909,木村権右衛門邸跡の神木,きむらごんえもんていあとのしんぼく,木村権右衛門邸跡の神木（きむらごんえもんていあとのしんぼく）,生野区桃谷３丁目２１－１９,生野区,,,木村重成（大坂夏の陣で討死。享年23歳）の姉婿　猪飼野左馬助の子孫である木村権右衛門邸宅の跡地にある。現在は駐車場となっているが、樹齢約400年の椎の木の神木と立派な石灯籠、庭石が残されている。神木は重成のお手植えといわれている。,,,,,,文化・観光,都市景観資源,文化・観光/都市景観資源,167,95635
135.535803,34.658897,旧猪飼野村にある旧家・大東邸,きゅういかいのむらにあるきゅうか・おおひがしてい,旧猪飼野村にある旧家・大東邸（きゅういかいのむらにあるきゅうか・おおひがしてい）,生野区桃谷３丁目１９－２,生野区,,,旧家「大東邸」は、土蔵の外壁材は古い船板を使っており、300坪以上ある屋敷内には広大な庭園や古い石枠の井戸が現存し、母屋の中（昔の土間）にある井戸は現在も散水用などに使用しているという。昔の面影を残す旧家の大きいものがこれまでに多く解体され、旧猪飼野村（現在の鶴橋）では現存するものは珍しい。,,,,,,文化・観光,都市景観資源,文化・観光/都市景観資源,167,95634
135.534607,34.660168,御幸森天神宮,みゆきもりてんじんぐう,御幸森天神宮（みゆきもりてんじんぐう）,生野区桃谷３丁目１０－５,生野区,,,仁徳天皇・少彦名命（すくなひこなのみこと）・押坂彦命（おさかひこのみこと）を主祭神としている。今から約1600年前の猪飼野は猪甘津（いかいのつ）と呼ばれ難波の入江の港であり、猪甘部（猪を飼育していた古代の官職。鷹甘部などと同じ）が住まれていました。また当時、川辺にあった灯明台1基が今も残されている。難波に都を定められた仁徳天皇は鷹狩の折り等に度々当地の森にご休憩され、その由縁により御幸の森と呼ばれるようになった旨が社頭に立てられた由来碑に刻まれている。境内にある5本のムクノキ（椋）の老樹は『まちの貴重な緑をみんなで守っていこう』との願いから、市の保存樹林に指定されている。,,,,,,文化・観光,都市景観資源,文化・観光/都市景観資源,167,95631
135.53575,34.654215,御勝山古墳,おかちやまこふん,御勝山古墳（おかちやまこふん）,生野区勝山北３丁目１６、勝山南３丁目３,生野区,,,もとは岡山と呼ばれ、元和元年(1615年)夏の陣の大坂落城のとき、徳川秀忠がここで戦勝の宴を催したことから御勝山の名で知られるようになった。古墳時代中期の5世紀前半に造られた南北112m、東西55m、高さ約8mの前方後円墳で現在は前方部が道路（勝山通）と御勝山南公園になっており、後円部を残すのみである。市内では、茶臼山古墳（天王寺区）と帝塚山古墳（住吉区）と並んで重要な史跡の一つとなっている。御勝山南公園内には、歌人で万葉学者であり文学博士でもあった折口信夫の歌碑も建てられている。,,,,,,文化・観光,都市景観資源,文化・観光/都市景観資源,167,95667
135.536849,34.654811,俊徳街道道標2基と西俊徳地蔵堂,しゅんとくかいどうどうひょうにきとにししゅんとくじぞうどう,俊徳街道道標2基と西俊徳地蔵堂（しゅんとくかいどうどうひょうにきとにししゅんとくじぞうどう）,生野区勝山北４丁目１０,生野区,,,生野区勝山北4丁目に西俊徳地蔵堂があり、等身大の座像石仏が祀られている。説明板には、俊徳丸が四天王寺へ参る際、清い流れの平野川のほとりで休憩したとある。この地蔵堂横には四天王寺南門からほぼ真東へ延びる俊徳街道の道標が二基ある。街道を東へ進むと東俊徳地蔵堂があり、尊像は堂内奥に安置されており、立派なお姿は拝めないが、彫刻様式から室町末期の作と思われ、地元の人々の手により手厚く祀られている。,,,,,,文化・観光,都市景観資源,文化・観光/都市景観資源,167,95668
135.552374,34.643668,中高野街道沿いの家並み ,なかこうやかいどうぞいのいえなみ,中高野街道沿いの家並み （なかこうやかいどうぞいのいえなみ）,生野区巽中４丁目、巽南３丁目,生野区,,,中高野街道は、京街道守口から分岐して大阪狭山市で西高野街道に合流する長大な街道である。途中、古くからの町々を通過しており、巽小学校から巽神社付近の沿道には、古い民家や念仏堂、碑がみられるなど、落ち着いた佇まいの家並みとなっている。,,,,,,文化・観光,都市景観資源,文化・観光/都市景観資源,167,95622
135.532797,34.66043,彌榮神社,やえじんじゃ,彌榮神社（やえじんじゃ）,生野区桃谷２丁目１６－２２,生野区,,,旧記には、神祖素戔嗚命（すさのおのみこと）を文禄年間に熊野巫神社（旧出雲国意宇郡）より分霊奉還したのがはじまりとある。その当時は、牛頭（ごず）天王社と呼ばれ、創立以来旧木野（この）村の鎮守として崇敬厚く宮座を設けて奉仕し、明治5年（1872年）村社に列せられ、社号もこの時に彌榮神社と改められた。明治43年（1910年）、氏子協議のうえ大字岡村（現在勝山北4丁目）の御館神社を合祀した。その御館神社は、生土神（うぶすながみ）でいばらの神と呼ばれ、仁徳天皇の的殿の旧跡で、現在は彌榮神社の御旅所となっている。,,,,,,文化・観光,都市景観資源,文化・観光/都市景観資源,167,95630
135.550754,34.634117,平野川の自然的景観,ひらのがわのしぜんてきけいかん,平野川の自然的景観（ひらのがわのしぜんてきけいかん）,生野区巽南５丁目１４、１８、１９番地先,生野区,,,かつての平野川（旧平野川）は、生野区「俊徳橋」の北辺りから東成区の「中本橋」辺りまでをきわめて曲折して流れていたため、しばしば氾濫の元になった。そこで流れを変えるため、大正12年（1923年）にいまの平野川（新平野川）のように直線に改修された。いまの平野川の延長は、大和川分派点～第2寝屋川合流地点まで、17.375m あり、平野川は、奈良朝より平安朝にかけて百済郡（くだらごおり）が置かれ、その中央を流れていたので古くは百済（くだら）川と呼ばれていた。平野川大橋から両国橋付近は、自然な川の流れやカルガモなどが見られる。,,,,,,文化・観光,都市景観資源,文化・観光/都市景観資源,167,95625
135.545792,34.645495,式内 横野神社跡地(伝 横野堤跡) ,しきないよこのじんじゃあとち（でんよこのつつみあと）,式内 横野神社跡地(伝 横野堤跡) （しきないよこのじんじゃあとち（でんよこのつつみあと））,生野区巽西３丁目９,生野区,,,この社地は、もと河内国渋川郡大地村の神社で、古来より印地之宮または西之宮と呼ばれ、平安時代に編纂された神名帳にその名を記された延喜式の古社であった。御祭神は十一代垂仁天皇の皇子印色入日子の命で、社地は元々三百坪の境内であった。その起源は、日本書紀仁徳天皇十三年の條に「冬十月横野堤ヲ築ク」と云う記述があり、昔この付近を流れていた橘川（古平野川）の氾濫を防ぐため巨大な堤防を築かれたと云われ、その堤の安全と河水の緩流を願って造営されたのが当社の始まりといわれている。江戸時代前期、社殿の倒壊を受け、現在の巽神社の境内に御祭神を移したことがあった。享保年間には、国学者・並河誠所が当社地を調査し、由緒ある旧社である旨を報告した。これにより、享保16年公儀のお許しの下、村民によって再興された。以来、宮座を組み、神燈を守ってきたが、明治40年の神社合祀令により巽神社に合祀され廃社となった。正面の碑は大正8年宮座横野講の人々により建立されたものである。,,,,,,文化・観光,都市景観資源,文化・観光/都市景観資源,167,95623
135.534393,34.65893,安泉寺,あんせんじ,安泉寺（あんせんじ）,生野区桃谷３丁目１６－２６,生野区,,,創建年代不詳。古来村の念仏道場であったものが、徳川時代初期の寛文7年(1667年)に真宗大谷派末寺となった猪飼村固有の寺。村の中央部、鶴の橋60m北東にある。安泉寺は、徳川時代、村内の戸籍を預かり、寺小屋を開設していた。明治5年(1872年)に猪飼野小学校となり、明治20年(1887年)に平野川対岸の木野村小学校(宗玄寺も開設)と合併して、鶴嘴尋常小学校が建設されるまで村内の子供たちの教育にあたって来ました。現在の本堂と庫裡と併せて大正14年(1925年)春、住職檀信徒協力して全面的に改築したもので、南面を西面本瓦葺に変え、太鼓楼を廃し、鐘桜門とし、井戸屋型手洗所を附属した、鐘桜門は木村権右衛門氏の寄贈による。平成6年(1994年)に至って、境内南西隅にあった猪飼野若中会館を、村内南50mの場所に移築し、老朽化した庫裡を廃し両跡地に安泉寺門戸会館と庫裡を新築し、本堂の全面補修を実施した。,,,,,,文化・観光,都市景観資源,文化・観光/都市景観資源,167,95632
135.533958,34.65824,つるのはし跡公園,つるのはしあとこうえん,つるのはし跡公園（つるのはしあとこうえん）,生野区桃谷３丁目１７,生野区,,,昔、このあたりに鶴が多数飛来したことから橋の名となったようである。一説には、西暦 323年に百済川に架設された橋で猪甘津橋の古跡ともいわれ、『日本書紀』仁徳天皇14年11月の条に『猪甘津に橋を為（わた）す。即ち、そのところを号（なず）けて小橋という』と記され、文献にでている橋ではわが国最古のものといわれている。『つるのはし』は、旧桃谷街道・鶴橋街道が旧平野川を渡る地点に架けられ、古くは河内・大和への交通の要所。新平野川の開削により、昭和15年(1940年)に廃橋、石碑と当時の親柱4本を記念に保存し、平成10年(1998年)3月に『つるのはし跡公園』として開設された。,,,,,,文化・観光,都市景観資源,文化・観光/都市景観資源,167,95633
135.537976,34.660592,コリアタウン,こりあたうん,コリアタウン（こりあたうん）,生野区桃谷３～５丁目,生野区,,,御幸通商店街はJR環状線の鶴橋駅と桃谷駅の間にある商店街で、韓国食料品店や飲食店、民族衣装の店が500m程の通りに約140店舗が軒を並べる。多くは在日コリアンの人々による経営で、街中はハングルにあふれ、全国で最も在日コリアンの人々が集中する地域とされる。近年では地元によりNGOが結成され、他地方から修学旅行などで訪れる中高生を相手にキムチ作り体験やハングル教室、街案内などを行っている。中央門、百済門はコリアタウンを象徴する意匠となっている。,,,,,,文化・観光,都市景観資源,文化・観光/都市景観資源,167,95636
135.4627179,34.6265845,新木津川大橋と木津川渡船場,しんきづがわおおはしときづがわとせんじょう,新木津川大橋と木津川渡船場（しんきづがわおおはしときづがわとせんじょう）,大正区船町1丁目1番、住之江区平林北1丁目1番,大正区,,,木津川渡船は大正区船町1丁目と住之江区平林北1丁目を結んでいる(岸壁間238m)。昭和30年からカーフェリーを運航し乗用車から大型トラックまで運搬し得る能力を持っていたが、上流部に千本松大橋が開通し、今は人と自転車のみを運ぶ渡船となっている。新木津川大橋は、木津川の河口に位置している大正区と住之江区とを結ぶ橋で、河川内の航路(幅150m､高さ46m)確保のため、橋の全長は2.4km に及んでいる。本橋は川を渡る主橋(長さ 495m 幅員 11.25m)と両岸のアプローチ橋で構成され、主橋の形式は経済性と施工性に加えて景観面も考慮して中路式バランスドアーチ型式を採用している。現在、この形式の橋としては日本最大級であり、大阪港を代表する橋の一つである。本橋は平成6年の土木学会田中賞を受賞している。,,,,,,文化・観光,都市景観資源,文化・観光/都市景観資源,167,19456
135.5050609,34.5908025,大阪市立大学（杉本キャンパス）,おおさかしりつだいがく（すぎもときゃんぱす）,大阪市立大学（杉本キャンパス）（おおさかしりつだいがく（すぎもときゃんぱす））,住吉区杉本3丁目3番138号,住吉区,,,大阪市の南部、大和川を臨む地にある杉本キャンパスは緑豊かな清々しい環境が魅力の1つとなっている。杉本キャンパスのシンボル的存在である1号館（昭和9年（1934年）竣工）は国の登録有形文化財に登録されている。敷地中央にある「学術情報総合センター」は世界的に貴重な書物も含め約250万冊の蔵書を有し、教育・研究のための快適な環境を整えている。また、図書市民利用制度を設けており市民も利用できる。他にも八角形の大会議場・展示室等を連なる田中記念館、再生ガラスと透明ガラスを組み合わせた外壁と樹木が融合する高原記念館などがある。,,,,,,文化・観光,都市景観資源,文化・観光/都市景観資源,167,19483
135.4944515,34.6107416,浅沢神社,あさざわじんじゃ,浅沢神社（あさざわじんじゃ）,住吉区上住吉2丁目11番21号,住吉区,,,住吉といえば「初辰まいり」が有名だが、初辰とは、毎月最初の辰の日のこと。この日に参拝すれば、より一層力を与えて守り助けてくれると信仰されている。商売発達のために遠方から訪れる人も多い。種貸社、楠?社、浅沢神社、大歳社の四社をそれぞれにお参りするのが慣わしとなっている。古くからこの付近は池沼も多く、かきつばたの名所として万葉集にも詠まれた。平成9年(1997年)には、往時を偲ばせる「かきつばた園」が復活した。また、現存する柳は、古木ながら枝振りが隆盛で見る者にとってエネルギーを与え続けているかのように、たくましさを感じる。,,,,,,文化・観光,都市景観資源,文化・観光/都市景観資源,167,19477
135.5553095,34.6131814,式内楯原神社,しきないたてはらじんじゃ,式内楯原神社（しきないたてはらじんじゃ）,平野区喜連6丁目1番38号,平野区,,,式内楯原神社は平野区喜連の旧集落のほぼ中央に位置する式内社（しきないしゃ）である。本殿は大型の一間社流造（いっけんしゃりゅうつくり）で、正面向拝（ごはい）の足元には浜床（はまゆか）を据え、向拝上には千鳥破風（ちどりはふ）と唐破風（からはふ）を付ける。屋根は現在は銅板葺（どういたぶき）であるが、もとは檜皮葺（ひわだぶき）であった。庇（ひさし）部分の虹梁（こうりょう）型頭貫（かしらぬき）、木鼻（きばな）、海老虹梁（えびこうりょう）、蟇股（かえるまた）などの形態やこれらに施された彫刻は17世紀初頭の特徴をよく示しており、建立年代をこの時期と考えることができる。細部意匠は古式であり、彫刻類を多用しない身舎（もや）部分の簡素な構造は、市内に数少ない江戸時代初期の特徴をよく示すものとして貴重である。,,,,,,文化・観光,都市景観資源,文化・観光/都市景観資源,167,37754
135.5594193,34.6130893,八坂神社と椋の木,やさかじんじゃとむくのき,八坂神社と椋の木（やさかじんじゃとむくのき）,平野区喜連東2丁目1番14号,平野区,,,東喜連村の氏神で素盞鳴尊（すさのおのみこと）を祀り、八坂神社と称していたが、嘉永年間に忍坂大中姫命（おしさかのおおなかつひめ）(允恭（いんぎょう）天皇の皇后)を祀る媛天神（ひめてんじん）を合祀して東西神社となった。改称は、合祀により氏子が東西喜連村にまたがることになったので、東西の二字をとった。明治42年、天神・東西・春日の三社は現在の楯原神社に合祀されていたが、氏子の決議にもとづき再び八坂神社とした。昭和26年、東喜連氏子の要望により、東西社・春日社を元の東喜連に分離移転し、同時に地域の氏子も別れることとなった。境内には「椋の木」があり、根元の幹周りは約4m余りもある大木である。,,,,,,文化・観光,都市景観資源,文化・観光/都市景観資源,167,37756
135.4547523,34.6873159,本宮鴉宮,ほんぐうからすのみや,本宮鴉宮（ほんぐうからすのみや）,此花区伝法2丁目10番18号,此花区,,,鎌倉時代初期、順徳天皇の御代建保２年３月１７日（1214年）傅母(でんぽう)、現在の伝法町の開拓が始まり、建保３年４月２５日（1215年）村と港、全国の繁栄を祈願し旧社名傅母頭(もりす)神社を創建。文禄元年２月１９日（1592年）大閤豊臣秀吉が渡航の際、御神前に祈願すると神の使である３本足の八咫烏(やたがらす)が〔航海安全の守護を示さん〕との神告があり、出発に際し神主田中八太夫(はちだゆう)を水先奉行に抜擢したところ、お告げ通り八咫烏が出現し先導、御導きにより翌文禄２年１月１６日（1593年）無事に帰還した。このことに大閤は感激し、神社名を「鴉宮(からすのみや)」に改められたと伝えられている。本殿・拝殿・中門と透塀は、国の登録有形文化財に登録されている。,,,,,,文化・観光,都市景観資源,文化・観光/都市景観資源,167,19459
135.526925,34.7074641,鵺塚,ぬえづか,鵺塚（ぬえづか）,都島区都島本通3丁目18番,都島区,,,平家物語によれば、平安末期、近衛天皇（このえてんのう）を夜ごと悩ませていた怪鳥を源頼政（みなもとのよりまさ）が射落としたところ、頭は猿、胴体は狸、尾は蛇、手足は虎の姿で鳴く声は鵺（とらつぐみ）に似ており、これを鵺（ぬえ）と言い、鵺を丸木舟にのせて淀川に流したところ、澤上江（かすがえ）の渚に漂着したが、祟りを恐れた村人たちが母恩寺（ぼおんじ）の住職に告げ、ねんごろに弔って土に埋め、これを「鵺塚」としたと伝えられる。現在の塚は明治3年（1870）年、大阪府が改修し、祠も昭和32年(1957年)に地元の人々によって改修されたものである。この「鵺」は大阪港の紋章のデザインとしても使用されている。,,,,,,文化・観光,都市景観資源,文化・観光/都市景観資源,167,37734
135.518581,34.74971,緑風橋,りょくふうばし,緑風橋（りょくふうばし）,東淀川区下新庄4丁目～吹田市川岸町,東淀川区,,,東淀川区下新庄地区は、木造住宅の密集地であり、広域避難場所に指定された淀川右岸河川敷まで2km以上離れている、いわゆる避難困難地区になっていた。しかし、神崎川を挟んだ対岸には吹田市の広域避難場所である中の島公園があり、両地区を連絡する橋があれば、下新庄地区の住民が短時間に同公園に避難できる。一方、吹田市側の住民にとっても、阪急千里線下新庄駅利用の便が図れるようになる。このように、本橋は両市住民にとって大きなメリットがあり、国土庁の防災緑地網整備促進事業の補助も受けて、両市協力のかたちで実施された。本橋は、居住区域と広域避難場所や地区防災広場を結んでネットワーク化する、防災緑地整備の一環にもなっており、快適な環境形成にかかわる側面も考慮に入れて設計されている。周辺の開けたロケーションのなかに、デザイン化された照明柱や高欄が設けられ、夜間は阪急千里線の電車からライトアップされた橋の風景が楽しめる。,,,,,,文化・観光,都市景観資源,文化・観光/都市景観資源,167,95484
135.531549,34.748564,上新庄の古い趣のある家並み,かみしんじょうのふるいおもむきのあるいえなみ,上新庄の古い趣のある家並み（かみしんじょうのふるいおもむきのあるいえなみ）,東淀川区上新庄2丁目13番15号、20番15号、11番24号、13番25号,東淀川区,,,上新庄2丁目の阪急上新庄駅に隣接する一帯には、信覚寺や春日神社の社寺とともに、蔵などの木造建造物が点在しており、古い趣のある家並みが見られる。信覚寺は文禄年間（1592～95）創建と考えられる。春日神社はかつて榊神社と尊称し、天正6年（1578）奈良春日神社の御分霊を勧請遷祀して春日神社と改称した。本殿は貞享2年（1685）建立で、境内には樹木が茂り、特に本社裏の楠は樹齢400年以上で、市の保存樹に指定されている。また、植原邸の長屋門や蔵、外構の巨大な灯篭、また井上邸の明治から大正時代に建築された門蔵など、歴史を感じさせる木造建築物が残っている。,,,,,,文化・観光,都市景観資源,文化・観光/都市景観資源,167,95479
135.548257,34.750629,せせらぎの遊歩道,せせらぎのゆうほどう,せせらぎの遊歩道（せせらぎのゆうほどう）,東淀川区大桐3丁目～5丁目,東淀川区,,,大桐3～5丁目にかけて、延長610ｍのせせらぎの遊歩道がある。木々が生い茂り、小川が流れている。この小川は、昔、農業用水路として使っていた。子どもたちの水遊びや虫取りをする楽しそうな声、お父さんと楽しそうに散歩する姿、買い物の途中にベンチで一休みをしている方など、この都会のオアシスとして親しまれている。北側360m区間は、岩や石を配して日本庭園風に、南側の250m区間は、タイルを敷きつめ、洋風式庭園にとそれぞれ趣向がこらされている。,,,,,,文化・観光,都市景観資源,文化・観光/都市景観資源,167,95489
135.525257,34.737165,行友家と楠,ゆきともけとくすのき,行友家と楠（ゆきともけとくすのき）,東淀川区菅原1丁目12番18号,東淀川区,,,菅原1丁目にある行友家は、弘化元年（1844年）に建築された古民家で、北側道路に面したところに、門、塀、石垣が配置されており、門の両脇にある2本の大きな楠と一体となって、歴史を感じさせる一角となっている。楠は遠くからでもよく見え、直近ではその大きさに圧倒されるほどで、そのうちの1本が保存樹に指定されている（高さ約22m、幹回り約4.4m）。,,,,,,文化・観光,都市景観資源,文化・観光/都市景観資源,167,95486
135.507152,34.742265,須賀森公園とくす,すがのもりこうえんとくす,須賀森公園とくす（すがのもりこうえんとくす）,東淀川区西淡路4丁目17番,東淀川区,,,須賀森公園は須賀神社の跡地につくられた公園である。その由緒ある跡地を永久に保存するため、地元民の熱意で公園に姿をかえ、憩いの場となっている。ここには樹齢約600年の大楠があり、大阪府天然記念物に指定（昭和56年（1981年）6月1日）されている（樹高30m、直径1.6m）。,,,,,,文化・観光,都市景観資源,文化・観光/都市景観資源,167,95494
135.51007,34.721006,長柄橋,ながらばし,長柄橋（ながらばし）, 東淀川区柴島1丁目～北区天神橋8丁目,東淀川区,,,古くから広くその名が知られる長柄橋ではあるが、橋の所在地については定かでない。長柄橋の名が復活するのは、明治42年（1909年）、新淀川の開削にともなって架けられた鉄製のポニートラス橋である。この橋は明治7年（1874年）に開通した東海道本線のトラスが転用されたものである。その後、昭和11年（1936年）に架け替えられた橋は、第二次大戦末期に爆撃を受けて橋桁が損傷し、橋の下に避難していた人々に多くの犠牲者がでた。現在の長柄橋は、昭和58年（1983年）に完成したもので、中央部の橋はニールセンローゼ桁というアーチ形の橋が採用されている。近代的なアーチに千年の時の流れを映している。夜間にはライトアップが実施されており、広大な淀川の風景とマッチしている。,,,,,,文化・観光,都市景観資源,文化・観光/都市景観資源,167,95480
135.548284,34.750289,逆巻の地蔵尊,さかまきのじぞうそん,逆巻の地蔵尊（さかまきのじぞうそん）,東淀川区大桐5丁目4番,東淀川区,,,「逆巻の地蔵尊」は、弘化3年（1846年）、豊里大橋付近の阪巻村（現在は淀川の川底になった場所）に建立された。この場所は水流が激しく、帆を逆に巻かなければ転覆することから「逆巻の難所」と名付け、恐れられていた。幾度も船が難破し、数多くの犠牲者が出たため、慰霊と船便の安全守護を祈願して、この地蔵が建てられた。明治31年（1898年）、淀川改修のころ、観仏寺の住職が緋の衣を着た僧を背負って観仏寺に着いたところ、僧が地蔵に変わっていたという夢を見て、きっと工事で動かされる地蔵がここにいたいと夢告されたのだろうと考え、観仏寺が引き取り安置した。このとき、地蔵の下から犠牲者の戒名を書いた石が、80近くも出てきたそうである。六角の台石に座る蓮台をいれて1.6mもある大きな地蔵で、太く垂れた眉、小さい顔は、満面に慈悲をたたえている。,,,,,,文化・観光,都市景観資源,文化・観光/都市景観資源,167,95490
135.550915,34.737081,豊里大橋,とよさとおおはし,豊里大橋（とよさとおおはし）,東淀川区豊里3丁目～旭区太子橋2丁目,東淀川区,,,本橋は、万国博覧会の関連事業として昭和45年（1970年）に完成した。橋長561mのうち、河川中央の低水敷部分に377mの斜張橋形式が採用された。水面から45mのA字形の塔と、そこから斜めに張って主桁を吊っているケーブルが外観上のシンボルにもなっている。本橋の完成に伴い、300年の歴史をもち、淀川最後の渡船場であった平田渡しが姿を消すことになった。名神高速道路への連絡のほか、大阪北部と東部の工業地帯、さらに南港地域を結ぶ交通の大動脈としての機能を果たすとともに、そのバランスのよい外観により都市景観の向上にも寄与している。昭和58年（1983年）から夜間のライトアップも行われており、ランドマークとしての役割は、より一層大きくなっている。,,,,,,文化・観光,都市景観資源,文化・観光/都市景観資源,167,95493
135.529114,34.738033,菅原天満宮,すがはらてんまんぐう,菅原天満宮（すがはらてんまんぐう）,東淀川区菅原2丁目3番27号,東淀川区,,,菅原道真公を祭神とし、寛永年間（1624～44年）、この地が開発されたときに勧請（かんじょう）された。代々の言い伝えでは延喜元年（901年）に菅原道真が大宰府へ左遷され淀川を船で下る途中、当地摂津の国、二重新家村（ふたえしんけむら）住民の出迎えを受けて上陸され住民が牛を引きまわし、道真公をおなぐさめした由緒ある土地であるとされる。境内は一段高く、小丘陵になっている。天保（1830～44年）の頃、時の代官築山蔵左門（ちくざんぞうざえもん）が「堤防崩壊禁止令」を出し、堤防の盛り土を命じた。その名残が現在も幼稚園児が毎年10月25日に天秤棒に清めの砂を盛り、担いで石段を登り境内に砂を運ぶ「砂持ち行事」が行われている。境内には、江戸時代の神燈や水鉢などがあり、樹齢約500年といわれる楠はひときわ目をひく。現在の社殿は、昭和43年に再建されたものである。,,,,,,文化・観光,都市景観資源,文化・観光/都市景観資源,167,95488
135.541956,34.757022,神崎川（東淀川区）,かんざきがわ（ひがしよどがわく）,神崎川（東淀川区）（かんざきがわ（ひがしよどがわく））,東淀川区西淡路6丁目～下新庄4丁目、上新庄3丁目～南江口3丁目、相川1丁目～北江口4丁目,東淀川区,,,東淀川区内の神崎川では、「水とみどりのふれあい広場」や「なにわ自転車道」、「神崎川と新幹線」の交差、わが国で初めて採用された2主桁橋の江口橋など、特徴のある水辺が楽しめる。「水とみどりのふれあい広場」は、河川に親しむ空間として平成18年（2006年）に整備され、子どもたちの遊び場、市民の散策道、憩いの場として親しまれている。「なにわ自転車道」は、市民レクリエーションや健康増進を目的に平成13年度（2001年度）に整備され、周辺には江口の君堂、大隅神社などがあり、自然を楽しみながら東淀川区の歴史に触れることもできる。また、神崎川を東海道新幹線が横切っており、神崎川の自然景観軸に対して、規模の大きな人工構造物が横断する風景が見られる。,,,,,,文化・観光,都市景観資源,文化・観光/都市景観資源,167,95496
135.553924,34.756246,環境局東淀工場,かんきょうきょくひがしよどこうじょう,環境局東淀工場（かんきょうきょくひがしよどこうじょう）,東淀川区南江口3丁目16番6号,東淀川区,,,本施設は、老朽化のため平成13年（2001年）より稼動を停止していた旧東淀工場の建替えを行ったもので、平成22年（2010年）に完成した。施設の計画にあたっては、できるかぎり建物のコンパクト化を図り、壁面を分節化することにより威圧感を軽減するとともに、落ち着いたシンプルな外観や積極的な緑化により、周辺環境に配慮している。また、本施設では、排出されたごみがどのように処理されているかを見ることができる見学者対応設備を設けるとともに、動線・案内計画に配慮しており、すべての利用者・見学者にとってわかりやすく使いやすいものとなるよう計画している。,,,,,,文化・観光,都市景観資源,文化・観光/都市景観資源,167,95500
135.537826,34.749062,瑞光寺と雪鯨橋,ずいこうじとせつげいきょう,瑞光寺と雪鯨橋（ずいこうじとせつげいきょう）,東淀川区瑞光2丁目2番2号,東淀川区,,,瑞光寺は、聖徳太子の創建と伝えられ、現在の大阪経済大学敷地にあった。三寶寺の全盛時代に堂宇のひとつに属した臨済宗の禅寺であったが、建武年間（1334～1336年）の頃、火災に遭い建物が焼失した。その後、寛永20年（1643年）に伊予の国の天然という臨済宗の僧がこの地に入り、観世音菩薩を本尊に白隠禅師を坐主に迎え、指月寺と名づけて復興した。しかし、昭和20年（1945年）6月の大空襲で本尊の十一面観音を除いて、豪華な堂塔伽藍から寺宝一切を失った。その後、昭和59年（1984年）に再建され現在に至っている。瑞光寺の境内にある「弘済池（こうさいち）」には、全国にもここだけと思われる、鯨の骨でできた「雪鯨橋」が架かっている。4世住職潭住（たんじゅう）が、宝暦6年（1756年）に南紀を行脚しているとき、太地浦（現在の和歌山県太地町）の漁師に不漁であったことから豊漁の祈念を請われた。潭住は「殺生は五戒の一つ」として断ったが、ついに祈願に応じた。鯨がたくさん捕れたお礼として、30両と鯨骨18本が贈られたが、潭住は鯨を供養し、すべての生き物を大切にするという祈りを込めて、この橋が作られたといわれている。現在の橋は、6代目の橋で、平成18年（2006年）に架け替えられたものである。,,,,,,文化・観光,都市景観資源,文化・観光/都市景観資源,167,95485
135.5330086,34.7314203,淀川城北ワンド,よどがわしろきたわんど,淀川城北ワンド（よどがわしろきたわんど）,旭区赤川4丁目、生江3丁目、中宮5丁目、大宮5丁目,旭区,,,登録年月日：平成22年3月5日　概要：城北公園付近の堤防に位置し、天然記念物･イタセンパラの生息場所となるなど、多様な生態系を形成している。現地ではワンドの環境を守るためのクリーンキャンペーンが行われている。,,,,,,文化・観光,都市景観資源,文化・観光/都市景観資源,167,13048
135.544982,34.736287,淀川河川敷（東淀川区）,よどがわかせんじき（ひがしよどがわく）,淀川河川敷（東淀川区）（よどがわかせんじき（ひがしよどがわく））,東淀川区柴島1丁目～南江口3丁目,東淀川区,,,淀川は、ワンドや川べりに群生するヨシ原など変化のある自然環境に恵まれ、すばらしい景観をつくっている。河川敷には、自然とふれあいながら、スポーツや遊びが楽しめる場所として、芝生広場やテニスコート、野球場など、河川公園が整備され、多くの人たちに親しまれている。また、橋をはじめとする土木構造物、中でも柴島1丁目の長柄橋の近くの淀川大堰は、淀川の大事な景観の一部となっている。,,,,,,文化・観光,都市景観資源,文化・観光/都市景観資源,167,95481
135.554316,34.753245,江口の君堂（寂光寺）,えぐちのきみどう（じゃっこうじ）,江口の君堂（寂光寺）（えぐちのきみどう（じゃっこうじ））,東淀川区南江口3丁目13番23号,東淀川区,,,仁安2年（1167年）の秋、歌人西行法師が天王寺へ参詣する途中、江口の里であいにくの時雨にあい、一軒の粗末な里家で雨宿りを乞う。しかし、女家主の遊女妙（たえ）はその申し出を拒んだ。そこで、西行が「世の中をいとふまでこそかたからめかりの宿りを惜しむきみかな」と歌を詠むと、「世をいとふ人としきけば仮の宿に心とむなと思ふばかりぞ」と見事に返歌したといわれている。その即興の歌が縁となって後に妙は仏門に入り、余生を人びとの相談ごとにあてたといわれる。妙（光相比丘尼：こうそうびくに）の亡き後、江口の人びとが、冥福を祈って建てたのが、江口の君堂だといわれている。境内には手入れのいきとどいた約40種類の樹木が繁り、ひっそりとした佇まいは、都会の喧騒を忘れ、静かな心にさせられる。,,,,,,文化・観光,都市景観資源,文化・観光/都市景観資源,167,95499
135.508654,34.727452,柴島浄水場,くにじまじょうすいじょう,柴島浄水場（くにじまじょうすいじょう）,東淀川区柴島1丁目3番、8番、東淡路2丁目1番,東淀川区,,,"通水開始が大正3年（1914年）2月で、1日の標準給水能力は、1,180,000m3で、市内中部、北部、西北部に給水している。敷地面積約462,000m2のなかには、配水地やポンプ場、高度浄水処理棟などの設備が配置されている。阪急京都線の崇禅寺駅から淡路駅間東側線路沿いの460mには、樹齢50年以上のソメイヨシノを含め、合計160本の桜が植えられており、春には桜並木の通り抜けを開催している。また、崇禅寺駅の北側、柴島1丁目8番の東角には、昭和20年（1945年）6月の米軍機による空襲により浄水場の壁面に残された弾痕の一部が道路沿いに保存・展示されている。",,,,,,文化・観光,都市景観資源,文化・観光/都市景観資源,167,95482
135.540497,34.754285,松山神社,まつやまじんじゃ,松山神社（まつやまじんじゃ）,東淀川区小松4丁目15番38号,東淀川区,,,延喜元年（901年）、菅原道真が太宰府に流罪になる途中この地に立ち寄り、数千株の小松の茂る景観に感動し、小松の詩を吟じ直筆の御真像を与えた。道真亡き後、村民たちが社祠を構えてお祀りしたのが松山神社の起こりだといわれている。明治42年（1909年）に大隅神社に合祀されるが、昭和19年（1944年）に地元の復帰運動が実り神社を再建し、小松の氏神として現在に至る。門前となる参道が道路を隔てて南側の公園内に残されており、地域の歴史を今に伝えている。,,,,,,文化・観光,都市景観資源,文化・観光/都市景観資源,167,95483
135.515617,34.745668,延原倉庫（株）淡路物流センター,のぶはらそうこ（かぶ）あわじぶつりゅうせんたー,延原倉庫（株）淡路物流センター（のぶはらそうこ（かぶ）あわじぶつりゅうせんたー）,東淀川区西淡路6丁目4番111号,東淀川区,,,延原倉庫は、現在、貸倉庫業として西淡路6丁目に多くの倉庫を所有している。その中で、南東の門から見える5号倉庫は、第2次世界大戦の開戦の翌年（昭和17年（1942年）に完成した建物で、延原倉庫の前身の延原製作所が軍需工場の指定を受けていたころの建物である。鉄筋コンクリート造の巨大な空間は、長さ約280m、幅約20m、高さ約18mもあり、今もその当時の重厚さを残している。また、敷地の南西にある7号倉庫も同時期に建設された木造の建物で、大きな負荷に耐えられるよう、梁や柱が幾重にも張り巡らされた重厚な建物で、現在もそのまま倉庫として利用されている。（注）延原倉庫については、現在、物流総合センターとして機能しており、敷地内を多くのトラック等が往来していることなどから、一般に公開しておらず、倉庫の見学については、東淀川区役所が年に2回見学会（1回当たり最大参加人数20名）を開催することとしている。お問い合わせは、東淀川区役所総務課まで。,,,,,,文化・観光,都市景観資源,文化・観光/都市景観資源,167,95497
135.540701,34.761279,安威川と番田水路に挟まれた散歩道,あいがわとばんだすいろにはさまれたさんぽみち,安威川と番田水路に挟まれた散歩道（あいがわとばんだすいろにはさまれたさんぽみち）,東淀川区井高野１丁目、3丁目、4丁目,東淀川区,,,安威川河川敷は、「安威川水と緑の回廊計画」の一環として、公園や遊歩道などが連続的に整備されており、潤いのある水辺空間として散策を楽しんだり環境美化活動に参加するなど地域の方々に親しまれている。,,,,,,文化・観光,都市景観資源,文化・観光/都市景観資源,167,95478
135.550692,34.749831,大隅神社,おおすみじんじゃ,大隅神社（おおすみじんじゃ）,東淀川区大桐5丁目14番81号,東淀川区,,,"1700年ほど前、この大隅島に離宮を営んでおられた応神天皇（大隅宮：おおすみのみや）が崩御の後、里人が帝の御徳を慕い宮址に神祠を建立したのが起源とされている。ある年に淀川が氾濫し賀茂（かもの）明神の御神体が漂着して霊光を放ち、里人はこれを迎えて産土神（うぶすなのかみ）に合祀し、社名を賀茂神祠と改め社殿を2つに分けた。3,000坪以上の境内には杉や松が繁り、社殿も壮麗であったが、明治初年に周囲を民有地に払い下げた。そして、応神天皇を主祭神とし、名も大隅神社と改められた。境内に狛犬や灯籠が多いのは、稲生（いなう）神社などを合祀したためである。明治37年（1904年）に幣殿が設けられ、拝殿が再興改築されており、拝殿前には狛犬の列がある。",,,,,,文化・観光,都市景観資源,文化・観光/都市景観資源,167,95491
135.547015,34.741965,大宮,おおみや,大宮（おおみや）,東淀川区大道南3丁目2番2号,東淀川区,,,大宮は第27代安閑天皇を主祭神として祀られた神社である。安閑天皇はしばしばこの地を訪れ、放牧の適地として奨励されたので、牛を飼い牛乳を固めた酥(そ)というもの(チーズのようなもの)を献上するなど、この土地の発展に尽くされた徳を慕って祭祀された。そのことにちなんで明治の頃まで「乳牛牧（ちちうしまき・ちちゅうしまき）」という地名が残り、今の大隅東・大隅西小学校は大正15年（1926年）に改称するまで「乳牛牧尋常小学校」と称していた。また、この地は聖徳太子の伝承が多く、主祭神御神体の木像は聖徳太子の直作といわれている。たびたびこの地を訪れた聖徳太子は42歳のとき、村人達の歓待のお礼にと自画像を描き贈られたことが今に伝えられ奉祀されている。その旧跡であることから、大阪市へ編入される大正14年（1925年）まで「西成郡天王寺庄」と称していた。また、このとき太子の別称豊聡耳（とよとみみ）皇子から「豊里町」と名づけられたといわれている。境内は数本の楠につつまれて、本殿、日天社、八幡社、楠社、豊光社などがたたずんでおり、祭事には大勢の人々が訪れる。,,,,,,文化・観光,都市景観資源,文化・観光/都市景観資源,167,95492
135.506401,34.733761,中島惣社,なかじまそうしゃ,中島惣社（なかじまそうしゃ）,東淀川区東中島4丁目9番41号,東淀川区,,,中島惣社は、孝徳天皇の白雉（はくち）2年（651年）難波長柄豊碕に遷都されたころ、五穀豊饒を祈るために多くの神領を得て創建されたといわれている。慶長の末年（1615年）、大坂の役において兵火にあい、古文書などは焼失し本社古代の絵図面一葉と建武2年（1335年）中島總社と記した木製額面のみとなり、創祀の年月は不明であるが、その昔中島郷の中洲にあり、田畑が開け人家も増加したため守護神として宇賀御魂神（うがのみたまのかみ）を祀ったのが始まりと伝えられている。中島惣社は最初、稲荷神社と呼ばれていたが、明治29年（1896年）に現名に改められた。惣社というのは総社の意味で、中島郷48カ村の親宮（総社）で、明治41年（1908年）から42年（1909年）にかけて近隣の多くの神社を合祀した。昭和20年（1945年）の空襲で焼失してしまったが、幾度かの改築を経て、現在は美しい社殿が整備されている。また、境内には芭蕉の詠んだ句を刻んだ「落葉塚」と呼ばれる句碑が建てられている。,,,,,,文化・観光,都市景観資源,文化・観光/都市景観資源,167,95498
135.513348,34.741895,中島大水道跡,なかじまだいすいどうあと,中島大水道跡（なかじまだいすいどうあと）,東淀川区西淡路5丁目1番,東淀川区,,,江戸時代、北中島一帯は一万数千石の米を生産する農村だったが、低湿地で土砂堆積による洪水がひどく、一柳太郎兵衛、西尾六右衛門、沢田久左衛門の三庄屋が先頭に立って、幕府に排水路の設置を強く訴えた。幕府は「工事の費用は、すべて百姓が負担する」という条件をつけて設置を許可したが、不作に苦しむ村民が「せめて多少の補助を」と嘆願すると、感情を害し、許可を取り消した。耐えられなくなった三庄屋は、延宝6年（1678年）3月11日、新太郎松樋（しんたろうまつひ）を水路の拠点として、無許可のまま工事を強行した。村民たちは老若男女を問わず工事に参加し、昼夜の別なく働いて、福村吐口樋（ふくむらはけぐちひ）までの5102間（約9200メートル）、深さ3尺（約90センチメートル）の水路を28日間で完成させた。現在の東淀川区から西淀川区に至り、大阪湾に直結した大水路は埋め立てられたが、西淡路5丁目の新幹線の高架のそばに「新太郎松樋」の石柱と「中島大水道顕彰碑」（昭和63年）が建てられている。,,,,,,文化・観光,都市景観資源,文化・観光/都市景観資源,167,95495
135.529377,34.672972,三光神社,さんこうじんじゃ,三光神社（さんこうじんじゃ）,天王寺区玉造本町１４－９０,天王寺区,,,明治41年（1908年）境内の全国唯一の中風除けの神、三光宮を合祀してより三光神社と呼ばれるようになった。毎年6月1日から7日まで中風祈願大祭が行われ、全国各地から多くの参拝者が訪れる。古くから三光神社の地に真田の抜け穴の話が伝えられている。慶長19年(1614年)の大坂の合戦の頃、真田幸村がこの地に偃月城（えんげつじょう）と名付ける塁を築き、大坂城まで通じる暗道を造ったと言い伝えられており、今も「真田の抜け穴」として保存されており、境内には昭和62年（1987年）に建立された真田幸村の銅像がある。,,,,,,文化・観光,都市景観資源,文化・観光/都市景観資源,167,95189
135.525917,34.737442,一柳家の門・塀,いちりゅうけのもん・へい,一柳家の門・塀（いちりゅうけのもん・へい）,東淀川区菅原1丁目16番3号,東淀川区,,,一柳家の先祖は、中島大水道の開削にあたり、その実現に苦労を重ねた責任者の一人の一柳太郎兵衛であった。一柳家の亀岡街道沿いには、歴史を感じる板塀・門・土塀が連なってあり、その中でも、現在残る土塀には当時の瓦がぬりこめられており、続く四脚門は民家には珍しく共に風情をそえる。また土塀の脇には、天保7年（1836年）建立の亀岡街道と瑞光寺への道標があり、旧街道沿いの街並みを偲ばせる。,,,,,,文化・観光,都市景観資源,文化・観光/都市景観資源,167,95487
135.5117923,34.6635213,天王寺七坂（源聖寺坂）,てんのうじななさか（げんしょうじざか）,天王寺七坂（源聖寺坂）（てんのうじななさか（げんしょうじざか））,天王寺区下寺町１丁目付近,天王寺区,,,谷町九丁目から四天王寺西門の南北と谷町筋から松屋町筋までの東西の地域には寺や神社が多く、その名を付けた坂や坂の形から呼ばれるようになった坂などがあり、その七つの坂は天王寺七坂と言われている。口縄坂を上りきったところには織田作之助文学碑があり、松屋町筋と逢坂の交わる公園北口交差点の南東には道しるべの石標なども存在し、坂道とともに歴史的なまちなみを形成している。,,,,,,文化・観光,都市景観資源,文化・観光/都市景観資源,167,95150
135.511626,34.6568718,天王寺七坂（愛染坂）,てんのうじななさか（あいぜんざか）,天王寺七坂（愛染坂）（てんのうじななさか（あいぜんざか））,天王寺区伶人町付近,天王寺区,,,谷町九丁目から四天王寺西門の南北と谷町筋から松屋町筋までの東西の地域には寺や神社が多く、その名を付けた坂や坂の形から呼ばれるようになった坂などがあり、その七つの坂は天王寺七坂と言われている。口縄坂を上りきったところには織田作之助文学碑があり、松屋町筋と逢坂の交わる公園北口交差点の南東には道しるべの石標なども存在し、坂道とともに歴史的なまちなみを形成している。,,,,,,文化・観光,都市景観資源,文化・観光/都市景観資源,167,95155
135.511693,34.654641,天王寺七坂（天神坂）,てんのうじななさか（てんじんざか）,天王寺七坂（天神坂）（てんのうじななさか（てんじんざか））,天王寺区逢阪１丁目、伶人町,天王寺区,,,谷町九丁目から四天王寺西門の南北と谷町筋から松屋町筋までの東西の地域には寺や神社が多く、その名を付けた坂や坂の形から呼ばれるようになった坂などがあり、その七つの坂は天王寺七坂と言われている。口縄坂を上りきったところには織田作之助文学碑があり、松屋町筋と逢坂の交わる公園北口交差点の南東には道しるべの石標なども存在し、坂道とともに歴史的なまちなみを形成している。,,,,,,文化・観光,都市景観資源,文化・観光/都市景観資源,167,95157
135.511854,34.655837,天王寺七坂（清水坂）,てんのうじななさか（きよみずざか）,天王寺七坂（清水坂）（てんのうじななさか（きよみずざか））,天王寺区伶人町,天王寺区,,,谷町九丁目から四天王寺西門の南北と谷町筋から松屋町筋までの東西の地域には寺や神社が多く、その名を付けた坂や坂の形から呼ばれるようになった坂などがあり、その七つの坂は天王寺七坂と言われている。口縄坂を上りきったところには織田作之助文学碑があり、松屋町筋と逢坂の交わる公園北口交差点の南東には道しるべの石標なども存在し、坂道とともに歴史的なまちなみを形成している。,,,,,,文化・観光,都市景観資源,文化・観光/都市景観資源,167,95156
135.512656,34.6661245,天王寺七坂（真言坂）,てんのうじななさか（しんごんざか）,天王寺七坂（真言坂）（てんのうじななさか（しんごんざか））,天王寺区生玉町,天王寺区,,,谷町九丁目から四天王寺西門の南北と谷町筋から松屋町筋までの東西の地域には寺や神社が多く、その名を付けた坂や坂の形から呼ばれるようになった坂などがあり、その七つの坂は天王寺七坂と言われている。口縄坂を上りきったところには織田作之助文学碑があり、松屋町筋と逢坂の交わる公園北口交差点の南東には道しるべの石標なども存在し、坂道とともに歴史的なまちなみを形成している。,,,,,,文化・観光,都市景観資源,文化・観光/都市景観資源,167,95152
135.510998,34.653668,天王寺七坂（逢坂）,てんのうじななさか（おうさか）,天王寺七坂（逢坂）（てんのうじななさか（おうさか））,天王寺区逢阪１丁目,天王寺区,,,谷町九丁目から四天王寺西門の南北と谷町筋から松屋町筋までの東西の地域には寺や神社が多く、その名を付けた坂や坂の形から呼ばれるようになった坂などがあり、その七つの坂は天王寺七坂と言われている。口縄坂を上りきったところには織田作之助文学碑があり、松屋町筋と逢坂の交わる公園北口交差点の南東には道しるべの石標なども存在し、坂道とともに歴史的なまちなみを形成している。,,,,,,文化・観光,都市景観資源,文化・観光/都市景観資源,167,95158
135.5113149,34.6591266,天王寺七坂（口縄坂）,てんのうじななさか（くちなわざか）,天王寺七坂（口縄坂）（てんのうじななさか（くちなわざか））,天王寺区下寺町２丁目付近,天王寺区,,,谷町九丁目から四天王寺西門の南北と谷町筋から松屋町筋までの東西の地域には寺や神社が多く、その名を付けた坂や坂の形から呼ばれるようになった坂などがあり、その七つの坂は天王寺七坂と言われている。口縄坂を上りきったところには織田作之助文学碑があり、松屋町筋と逢坂の交わる公園北口交差点の南東には道しるべの石標なども存在し、坂道とともに歴史的なまちなみを形成している。,,,,,,文化・観光,都市景観資源,文化・観光/都市景観資源,167,95153
135.512643,34.663596,齢延寺,れいえんじ,齢延寺（れいえんじ）,天王寺区生玉町１３－３１,天王寺区,,,元和6年（1620年）僧義春によって曹洞宗の寺として真田山に開創され、元和9年（1623年）に現在の場所へ移転しており、志摩国領主稲葉家の菩提寺でもあった。江戸時代は「齢延寺の彼岸桜」と呼ばれた桜の名所で、今も大樹古墓の多い風格のある寺として知られる。境内には、幕末に私塾・泊園書院を興して活躍した儒者の藤澤東咳（とうがい）・南岳（なんがく）父子や、画家の鍋井克之、名刀鍛冶師（かじし）の左行秀（さのゆきひで）の墓がある。,,,,,,文化・観光,都市景観資源,文化・観光/都市景観資源,167,95151
135.529436,34.665661,鶴橋駅周辺の焼肉店の多い街並み,つるはしえきしゅうへんのやきにくてんのおおいまちなみ,鶴橋駅周辺の焼肉店の多い街並み（つるはしえきしゅうへんのやきにくてんのおおいまちなみ）,天王寺区下味原町１～５,天王寺区,,,天王寺区には鶴橋西商店街があり、ここ数年で焼き肉店が増えたことから“焼肉スクウェア”と呼ばれている。この商店街の風景は、焼肉店やキムチなどの食材を扱う店などが建ち並び、焼き肉の香ばしいかおりやキムチなどの独特なかおりが広範囲にわたって漂っていることから、環境省のかおり100選に選ばれている。,,,,,,文化・観光,都市景観資源,文化・観光/都市景観資源,167,95184
135.512702,34.663168,銀山寺,ぎんざんじ,銀山寺（ぎんざんじ）,天王寺区生玉寺町６－２６,天王寺区,,,天正１９年（１５９１年）に豊臣秀吉の城下町建設の一環である寺町建設の中で現在地に創建され、当時の寺号は大福寺といったが、後に太閤秀吉の命により寶樹山銀山寺と改称された。その後寛永８年（１６３１年）に本堂・大方丈・庫裡・表門・裏門が中興され、元禄１４年（１７０１年）には鐘楼・梵鐘・観音堂が建立された。,,,,,,文化・観光,都市景観資源,文化・観光/都市景観資源,167,95159
135.5159658,34.6514043,超願寺（竹本義太夫の墓）,ちょうがんじ（たけもとぎだゆうのはか）,超願寺（竹本義太夫の墓）（ちょうがんじ（たけもとぎだゆうのはか））,天王寺区大道１丁目１４－１,天王寺区,,,義太夫節浄瑠璃の元祖といわれ、慶安（けいあん）4年（1651年）この付近（堀越（ほりこし）神社南約100mの路上に、生誕地碑）に生まれた。若いころから研究熱心で小唄・俗謡から物売りの呼声まで身につけ、将来に備えた。その後京・大坂で修業を積み、延宝（えんぽう）5年（1677年）に独立、作者に近松門左衛門を迎え、その他、三味線・人形の名手、経済面での協力者を得て「曽根崎心中」で大当たりをとった。お墓は、超願寺境内にあり、お堂の状態で雨風から守られている。,,,,,,文化・観光,都市景観資源,文化・観光/都市景観資源,167,95187
135.5086863,34.6500407,天王寺公園・天王寺動物園,てんのうじこうえん・てんのうじどうぶつえん,天王寺公園・天王寺動物園（てんのうじこうえん・てんのうじどうぶつえん）,天王寺区茶臼山町,天王寺区,,,明治36年（1903年）の第5回内国勧業博覧会の跡地利用として東半分を公園にしたもので、明治42年（1909年）に開設された長い歴史をもつ。昭和62年（1987年）に、開催された天王寺博覧会を契機に水と緑をふんだんに取り入れた公園へと一新され、沈床花壇や小川の小径、バラのアーチなど見どころも多彩である。また、公園内には昭和8年（1933年）に大阪市に寄贈された旧黒田藩藏屋敷長屋門（大阪府有形文化財、大阪市顕彰史跡）や作品「めし」の一節を刻んだ林芙美子文学碑なども設置されている。動物園に関しては、大正4年（1915年）1月に日本で3番目の動物園として開園した。約11haの園内におよそ200種、900点の動物が飼育されており、年間120万人以上の利用者で賑わっている。,,,,,,文化・観光,都市景観資源,文化・観光/都市景観資源,167,95190
135.511615,34.651312,茶臼山・河底池・和気橋,ちゃうすやま・かわぞこいけ・わけばし,茶臼山・河底池・和気橋（ちゃうすやま・かわぞこいけ・わけばし）,天王寺区茶臼山町,天王寺区,,,大坂冬の陣で家康の本陣となり、夏の陣では幸村が布陣し激戦地となった茶臼山は、奈良時代に和気清麻呂（わけのきよまろ）が河内川の流水を南に引こうとした河底池とともに、天王寺公園の風景に取り入れられている。和気橋は、延暦７年（788年）和気清麻呂が旧大和川の流れを変えるために上町台地を開削した際、茶臼山古墳の濠を利用した名残が河底池であると伝えられていることから、「和気橋」と名付けられている。,,,,,,文化・観光,都市景観資源,文化・観光/都市景観資源,167,95192
135.514137,34.653247,總本家釣鐘屋,そうほんけつりがねや,總本家釣鐘屋（そうほんけつりがねや）,天王寺区大道１丁目５－２,天王寺区,,,明治33年（1900年）、地元の有志から四天王寺に大梵鐘が奉納され、大阪商人の心意気を示す快挙として評判になった。その奉納記念として、釣鐘のかたちを模した饅頭を、四天王寺の門前で売り出したのが「釣鐘まんじゅう」のはじまりである。店舗の屋根につけられた鐘などレトロな外観が、100年以上つづく店舗の歴史を感じさせる。,,,,,,文化・観光,都市景観資源,文化・観光/都市景観資源,167,95186
135.528046,34.671353,真田山公園前の道,さなだやまこうえんまえのみち,真田山公園前の道（さなだやまこうえんまえのみち）,天王寺区真田山町、玉造本町付近,天王寺区,,,真田山公園の北側の坂道は、真田山町と玉造本町との間の道を西へ入り、餌差町（えさしまち）の伝長寺前まで約330ｍつづいている。真田山公園の地には、もと騎兵第四連隊があり、昭和7年（1932年）に移転した跡地が公園となった。公園北の坂道も騎兵隊移転後に整備されたものである。上町台地に点在する文化遺産や貴重な史跡の景観を楽しみながら散策できるみちづくりの１つである「坂道」整備により、この石畳の道も昭和59年～60年（1984年～1985年）に整備された。,,,,,,文化・観光,都市景観資源,文化・観光/都市景観資源,167,95176
135.528138,34.669853,真田山公園,さなだやまこうえん,真田山公園（さなだやまこうえん）,天王寺区真田山町５,天王寺区,,,騎兵第四連隊の跡地に、昭和14年（1939年）8月に開設した。戦後、占領軍に一時期接収されたが、昭和23年（1948年）に運動公園として再開園し、現在は、天王寺スポーツセンターや真田山プール（屋外50m、冬季はアイススケートリンク）、野球場、テニスコートなどの施設を備えた総合スポーツ公園として多くの市民に活用されている。,,,,,,文化・観光,都市景観資源,文化・観光/都市景観資源,167,95177
135.512908,34.665141,生國魂神社,いくくにたまじんじゃ,生國魂神社（いくくにたまじんじゃ）,天王寺区生玉町１３－９,天王寺区,,,皇紀元年より３年前（約2700年前）、神武天皇が九州から難波津に到着の折、大阪湾に浮かぶ石山碕（現大阪城を含む一帯）に生島神、足島神を祀られたのがはじまりとされる。中世、神域内に石山本願寺が建立されたが、これは信長との石山合戦の後、寺内から出火し焼失してしまった。その後、天正11年（1583年）に豊臣秀吉が大阪城を築く地を同地と定めたため、現在の地に生國魂神社は遷された。明治維新後も官幣大社に列せられ、天下の名社として崇敬を集めたが、明治45年（1912年）の「南の大火」で炎上。大正3年（1914年）に国費により再建される。昭和20年（1945年）第1次大阪大空襲により灰塵に帰すも、同25年(1950年) には占領下にもかかわらず市民の赤誠により再建。翌26年(1951年)にジェーン台風により倒壊するも、またもや市民が中心となり同31年(1956年)に再建された。,,,,,,文化・観光,都市景観資源,文化・観光/都市景観資源,167,95149
135.511406,34.655296,清水寺,きよみずでら,清水寺（きよみずでら）,天王寺区伶人町５－８,天王寺区,,,かつては有栖寺（ありすでら）といってかなり古くからあったといわれる。寛永17年(1640年)に延海大阿闍梨（えんかいだいあじゃり）が観世音菩薩（かんぜおんぼさつ）のお告げをうけ、京都の清水寺から聖徳太子の作といわれる十一面千手観世音菩薩（せんじゅかんのんぼさつ）を遷して本尊として祀り、享保年間(1716年～1736年)に新清水寺に寺号を変えたとされている。墓地の西端には、もともとの眺望性を活かして京都の清水寺を模した「舞台」があり、市街地が展望でき、大阪南のシンボルである通天閣等も見える。,,,,,,文化・観光,都市景観資源,文化・観光/都市景観資源,167,95205
135.520311,34.653915,清寿院（関帝廟）,せいじゅいん（かんていびょう）,清寿院（関帝廟）（せいじゅいん（かんていびょう））,天王寺区勝山２丁目６－１５,天王寺区,,,「三国志」の英雄関羽を祀り、正式には黄檗（おうばく）宗白駒山清寿院と言われる。中国との縁が深いため南京寺と通称されている。明和元年（1764年）12月、浄土宗住職宗円より黄檗僧大肩和尚が譲り受け、中国僧大成和尚を中興開山となし、本堂を再建して黄檗宗の末寺となった。「摂津名所図会大成」には、藁葺きの表門や一対の摩伽羅（想像上の大魚）を載せた入母屋の本堂などをうかがうことができる。明治18年（1885年）に、長崎から来阪した広東華商の利興成・同孚泰の両貿易商が発起人となり、日本人取引業者を含めた篤志家（とくしか）とともに本堂・拝所・表門等が中国風に改築された。大坂の文化人木村蒹葭堂との交流が盛んであったと、「蒹葭堂日記」に開山禅師をはじめとした交流が綴られている。,,,,,,文化・観光,都市景観資源,文化・観光/都市景観資源,167,95164
135.523648,34.660477,大正湯の煙突,たいしょうゆのえんとつ,大正湯の煙突（たいしょうゆのえんとつ）,天王寺区松ケ鼻町３－１６,天王寺区,,,夕陽丘高校の東側の道を北へ入った閑静な住宅街の中にある。狭い空間をうまく開放感と質感をもつ雰囲気に仕立てた設計(昭和56年（1981年)）となっている。,,,,,,文化・観光,都市景観資源,文化・観光/都市景観資源,167,95201
135.52346,34.67085,楞嚴寺,りょうごんじ,楞嚴寺（りょうごんじ）,天王寺区城南寺町１－２６,天王寺区,,,慶長2年(1597年)僧禅牛の開創である。楞嚴寺には織田作の名で親まれ、『夫婦善哉』のように大阪を舞台として、市井に生きる人びとをいきいきと描いた作品を数多く残した「織田作之助」の墓所がある。,,,,,,文化・観光,都市景観資源,文化・観光/都市景観資源,167,95185
135.511261,34.649732,慶沢園,けいたくえん,慶沢園（けいたくえん）,天王寺区茶臼山町,天王寺区,,,もと住友本邸の庭で、美術館の敷地とともに大阪市へ寄贈されたものであり、10年余りの歳月を要して完成した純日本風の回遊式庭園である。明治41年（1908年）、庭師小川治兵衛が作り、伏見宮貞愛親王が慶沢園と命名した。,,,,,,文化・観光,都市景観資源,文化・観光/都市景観資源,167,95191
135.512576,34.657269,愛染堂（愛染さん）,あいぜんどう（あいぜんさん）,愛染堂（愛染さん）（あいぜんどう（あいぜんさん））,天王寺区夕陽丘町５－３６,天王寺区,,,推古天皇元年（593）、四天王寺の施薬院（せやくいん）として聖徳太子が建立し、その後、縁結びの神様として有名な愛染明王が本尊として祀られるようになったことから「愛染堂」と呼ばれるようになった。「愛染めの霊水」は飲むと愛が叶うと言われ、映画「愛染かつら」のモデルとなったことで知られる愛染かつらの霊木が境内にある。本堂（金堂）は大阪府の指定文化財、多宝塔は大阪市内最古の木造建築物で国の重要文化財の指定を受けている。毎年6月30日～7月2日に行われる「愛染まつり」は、大阪三大夏祭りのひとつといわれ、大阪に夏の訪れを告げる風物詩として広く知られる。愛染明王のご開帳が行われ、夜店も立ち並ぶのでたくさんの参詣者で賑わう。,,,,,,文化・観光,都市景観資源,文化・観光/都市景観資源,167,95203
135.511014,34.654529,安居神社,やすいじんじゃ,安居神社（やすいじんじゃ）,天王寺区逢阪１丁目３－２４,天王寺区,,,少彦名神(すくなひこなのかみ)、菅原道真を祀る古社。昌泰4年（901年）菅原道真が太宰府に左遷された際、河内の道明寺にいた伯母覚寿尼（かくじゅに）を訪ねて行く途中、ここへ立ち寄って安井（休憩）した。当時、道真に同情した村人がおこしを差し上げると、お礼にと菅原家の紋所「梅鉢」を渡した。これが、今でも大阪名物の「粟おこし」の商標の梅鉢となったといわれている。安居天神社は、その道真の死後の天慶5年（942年）、道真の霊を祀るために村人たちが建てたもの。当地は四天王寺の僧侶がここで夏安居（げあんご：雨季の間に外出を控え寺院で修行に専念すること）することもあり、「安井」が「安居」になったという。また、享保11年（1726年）、大丸の業祖下村彦右衛門氏が、社殿の破損荒廃の甚だしい事を嘆き修理するなど、歴代大丸店主の神社に対する信仰は篤く、世に大丸天神と称せられる所以である。境内には、道真も口にしたといわれる天王寺七名水のひとつ「かんしづめ（癇鎮め）の井」のほか、大坂夏の陣で徳川方に討たれて戦死した真田幸村の祈念碑銅像が建つ。,,,,,,文化・観光,都市景観資源,文化・観光/都市景観資源,167,95162
135.511556,34.660058,学園坂,がくえんざか,学園坂（がくえんざか）,天王寺区下寺町1丁目・2丁目付近,天王寺区,,,天王寺区下寺町・松屋町筋から谷町筋六万体へ通ずる坂は、上町台の中央を南北に分断するような大きな坂である。かつて小さな道を切り開いて自動車道路として造られたものである。その後、道沿いに大阪女子学園（現在大阪夕陽丘学園）ができて学園坂とよばれるようになった。,,,,,,文化・観光,都市景観資源,文化・観光/都市景観資源,167,95179
135.5103171,34.649723,大阪市立美術館,おおさかしりつびじゅつかん,大阪市立美術館（おおさかしりつびじゅつかん）,天王寺区茶臼山町１－８２,天王寺区,,,昭和11年（1936年）5月開館。美術館は天王寺公園の中に位置しているが、その敷地は住友家の本邸であったところで、美術館の建設を目的に庭園（慶沢園）とともに、大阪市に寄贈されたものである。美術館は設立当初の本館と、平成4年（1992年）に美術館正面地下に新設した地下展覧室からなり、本館陳列室では、特別展覧会や常設展示を開催している。,,,,,,文化・観光,都市景観資源,文化・観光/都市景観資源,167,95199
135.515456,34.656166,大阪市立大江幼稚園,おおさかしりつおおえようちえん,大阪市立大江幼稚園（おおさかしりつおおえようちえん）,天王寺区四天王寺１丁目１１－１０８,天王寺区,,,昭和5年（1930年）7月17日開設。平成22年（2010年）に、80周年を迎え、園舎は、戦災や災害に耐え、木造平屋建て瓦ぶき屋根の、歴史と伝統の重みと懐かしさを残している。園庭には、桜や藤などの樹木やブドウやミカン、モモ等の実のなる木があり、花壇には四季折々の花が咲く。,,,,,,文化・観光,都市景観資源,文化・観光/都市景観資源,167,95181
135.521636,34.674926,大阪ガス 実験集合住宅　ＮＥＸＴ21,おおさかがすじっけんしゅうごうじゅうたくねくすとにじゅういち,大阪ガス 実験集合住宅　ＮＥＸＴ21（おおさかがすじっけんしゅうごうじゅうたくねくすとにじゅういち）,天王寺区清水谷町６－１６,天王寺区,,,「ゆとりある生活と省エネルギー・環境保全の両立」をテーマに、近未来の都市型集合住宅のあり方を提案することを目的として、大阪ガス(株)が平成5年（1993年）10月に建設した実験集合住宅である。竣工以来、平成6年（1994年）4月、平成12年（2000年）4月、平成19年（2007年）4月から各5年間にわたり、それぞれ時代を見通したテーマを設定し、大阪ガス社員とその家族が実際に居住しながら、計3回15年間の実証実験が取り組まれてきた。平成25年（2013年）6月からは「第4フェーズ」として、「環境にやさしい心豊かな暮らし」をテーマに、人と人のつながりの創出、人と自然の関係性の再構築、省エネ・スマートな暮らしの実現を満たすべき要件と捉え、それらを具現化する、「住まい」および「エネルギーシステム」の2分野の実証実験が実施されている。樹木も多く配置され、周辺の住民の方々からも親しまれている建物である。,,,,,,文化・観光,都市景観資源,文化・観光/都市景観資源,167,95411
135.512044,34.657128,大江神社,おおえじんじゃ,大江神社（おおえじんじゃ）,天王寺区夕陽丘町５－４０,天王寺区,,,天王寺七宮の１つで、聖徳太子自らまつりごとを行ったこともあり四天王寺の鎮守といわれている。四天王寺の乾（いぬい　西北）に位置しているところから、江戸時代には「乾社」と呼ばれていた。当時は毘沙門天(びしゃもんてん）を祀っていたので、「毘沙門堂」とも呼ばれていた。その守護獣（おつかい）は虎なので、「狛犬」ならぬ「狛虎」が座し、阪神タイガースファンの参拝が後を絶たない。また、大江神社に向かう段丘崖の階段は、「百歳（ももとせ）の階段」と呼ばれている。「大江」の社号は慶応3年（1867年）に、この地は西側が傾斜地になっており、その昔大江の岸と称していたので、時の祀官（しかん）が改称した。当社は天王寺北村の産土神であり、祭社主神に豊受大神を祀り、稲荷神と同一神で五穀豊穣、食料保持の神である。,,,,,,文化・観光,都市景観資源,文化・観光/都市景観資源,167,95204
135.513386,34.651418,堀越神社,ほりこしじんじゃ,堀越神社（ほりこしじんじゃ）,天王寺区茶臼山町１－８,天王寺区,,,聖徳太子が、叔父に当たる第３２代崇峻天皇の徳を偲んで、四天王寺建立と同時に当社を創建したものである。古くより明治の中期まで、境内の南沿いに美しい堀があり、この堀を越えて参詣したので、堀越という名が付けられたといわれている。境内にかえる石が蹲（つくばい）のすぐ横に高さ50㎝ほど、三角錐の形で鎮座しており、無事帰る、福返ると伝えられている。,,,,,,文化・観光,都市景観資源,文化・観光/都市景観資源,167,95198
135.514389,34.653655,四天王寺西門前の参道,してんのうじさいもんまえのさんどう,四天王寺西門前の参道（してんのうじさいもんまえのさんどう）,天王寺区四天王寺１丁目１１,天王寺区,,,四天王寺西門前の石畳の道であり、参道上に立つ西門前の石鳥居は国の重要文化財に指定されている。石鳥居から西門までの沿道には店舗や露店等が並んでいる。四天王寺西門は、浄土信仰のうえで日想観の聖地として位置付けられる特別な土地であり、平安時代以降、様々な階層の人々から厚い信仰を集めてきた。石鳥居はその象徴的な存在で、現世から西方浄土への入口としての役割を負う建造物である。なお、参道については、四天王寺の参道にふさわしい、にぎわいと雰囲気づくりを目的に大阪市の修景事業により整備が行われている。,,,,,,文化・観光,都市景観資源,文化・観光/都市景観資源,167,95180
135.515971,34.650279,四天王寺庚申堂,してんのうじこうしんどう,四天王寺庚申堂（してんのうじこうしんどう）,天王寺区堀越町２－１５,天王寺区,,,四天王寺の数百メートル南にある庚申堂の縁起は、今から1300余年前（飛鳥時代）、我が国に色々の疫病がはやり、四天王寺の民部（みんぶ）の郷僧都毫範（そうずごうはん）が、霊験を得て祈願をしたとき、庚申堂の本尊である青面金剛童子（しょうめんこんごうどうじ）が、16歳くらいの童子の姿で現れ、毫範に除災無病の力を与え、それによって病は去っていったという言い伝えがあり、時は大宝元年（701年）正月7日、庚申の日とされる。以来、毫範の感得した青面金剛童子をこの地で祀られたのを開基とする。我が国の庚申信仰の始まりであり、以来庚申本尊を祀ろうとするものは、皆当寺に来て、免許を得、尊天の分身を勧請（かんじょう）するのを例としている。本堂は元和４年（1618年）建立されたお堂であったが、昭和20年(1945年)の空襲で焼失し、現在の建物は、昭和45年（1970年）大阪万博に造られた休憩所・法輪閣を移築したものである。,,,,,,文化・観光,都市景観資源,文化・観光/都市景観資源,167,95200
135.514925,34.660314,吉祥寺（赤穂義士の寺）,きっしょうじ（あこうぎじのてら）,吉祥寺（赤穂義士の寺）（きっしょうじ（あこうぎじのてら））,天王寺区六万体町１－２０,天王寺区,,,寛永7年（1630年）創建の曹洞宗の寺院であり、創建当時の住職縦鎌師が赤穂藩主浅野主匠頭長矩（あさの たくみのかみ ながのり）と親しい間柄で、この寺は大坂における浅野家の菩提寺であった。義士討ち入りの翌年2月、大石内蔵助をはじめとする46士は切腹したが、足軽の寺坂吉右衛門が46士の遺髪、遺爪、鎖かたびら等に銀10両を添えて義士の冥福を祈る碑を建ててくれるよう吉祥寺に依頼したもので、江戸や赤穂よりも先がけ、元文4年（1739年）建立されたという。しかし、昭和20年（1945年）３月の大阪大空襲で義士の遺品など全て灰燼（かいじん）に帰し、残るのは墓石のみであった。この寺の山門は元は中之島常安橋北詰にあった赤穂藩蔵屋敷門を移築したものであったが、戦災で焼失したため再建された。,,,,,,文化・観光,都市景観資源,文化・観光/都市景観資源,167,95206
135.511749,34.660962,お寺のまち・下寺町と斜面緑地,おてらのまち・したでらまちとしゃめんりょくち,お寺のまち・下寺町と斜面緑地（おてらのまち・したでらまちとしゃめんりょくち）,天王寺区下寺町１丁目・2丁目付近,天王寺区,,,坂道や眺望点など、上町台地は大阪市内では珍しく地形変化を楽しめる場所であるが、なかでも延長2キロ近くの樹林帯が南北方向に連なっている「夕陽丘」は貴重である。下寺町には、昭和4年（1929年）に建設され、国の登録有形文化財に指定されている心光寺の本堂や、天正19年（1550年）開基足利尊氏で、足利家の祈願所で近畿の名刹であったと言われている大蓮寺などがある。,,,,,,文化・観光,都市景観資源,文化・観光/都市景観資源,167,95178
135.512527,34.658134,伝藤原家隆墓,でんふじわらいえたかはか,伝藤原家隆墓（でんふじわらいえたかはか）,天王寺区夕陽丘町５,天王寺区,,,藤原家隆（1158年～1237年）は、藤原時代末期の五代の天皇に仕えた有名な歌人で、79歳の時に官を辞して浄春寺の地に隠棲（いんせい）した。その翌年の春の彼岸に高台から西の海に落ちる夕日を見て、その荘厳さに心を打たれ直ぐに落髪して仏性と号し、その4月9日に消えるように一生を終えた。伝藤原家隆墓は、家隆の墓といわれ、その傍らには、御影石にこの歌が夕日とともに刻まれた歌碑がある。夕陽丘の地名は、この歌の「波の入日」からきている。,,,,,,文化・観光,都市景観資源,文化・観光/都市景観資源,167,95202
135.5197316,34.6648097,上本町YUFURA（上本町新歌舞伎座ビル）,うえほんまちゆふら（うえほんまちしんかぶきざびる）,上本町YUFURA（上本町新歌舞伎座ビル）（うえほんまちゆふら（うえほんまちしんかぶきざびる））,天王寺区上本町６丁目５－１３,天王寺区,,,平成22年（2010年）8月、大阪上本町駅南の近鉄劇場跡地に、近鉄創業百周年記念事業として建築されたショッピング･ゾーン。同年9月には、この6階に、大阪新歌舞伎座が半世紀ぶりに新開場した。広場に面した西面ファサードのアルミキャストルーバーは旧大阪新歌舞伎座の連続唐破風をモチーフにしており、隣接する駅・ホテル・百貨店と立体的に接続した広場をつくっている。,,,,,,文化・観光,都市景観資源,文化・観光/都市景観資源,167,95161
135.511803,34.652671,一心寺三千佛堂,いっしんじさんぜんぶつどう,一心寺三千佛堂（いっしんじさんぜんぶつどう）,天王寺区逢阪２丁目６－１３,天王寺区,,,一心寺に参詣される善男善女のために開かれた講堂として、平成14年（2002年）5月に建立された。この内部、大回廊に、千躰の佛様―「千躰佛」を21世紀中かけて順次造立奉安されていく予定である。,,,,,,文化・観光,都市景観資源,文化・観光/都市景観資源,167,95163
135.518436,34.665547,うえほんまちハイハイタウン,うえほんまちはいはいたうん,うえほんまちハイハイタウン（うえほんまちはいはいたうん）,天王寺区上本町６丁目３－３１,天王寺区,,,上本町駅前の商業施設は、第二次世界大戦で廃墟と化したが、商業閉鎖の危機を乗り切り、これを機に住民が「復興速進会」を発足し、昭和23年（1948年）「国際商店会」に発展していった。昭和52年（1977年）に再開発事業の認可を受け、昭和55年（1980年）に完成した。,,,,,,文化・観光,都市景観資源,文化・観光/都市景観資源,167,95160
135.521561,34.674353,U氏邸,ゆうしてい,U氏邸（ゆうしてい）,天王寺区清水谷町７－９,天王寺区,,,打ち放しの外観に、豊富な植栽が良く映える。昭和43年（1968年）に職住一体都市住宅のさきがけとして建築された。緑に被われたファサードは年月を重ねるごとに豊さを増している。日本の現代建築に大きな影響を与えた建築家・西澤文隆による設計。平成19年（2007年）には、NPO法人屋上開発研究会大阪支部が主催する「第1回屋上開発・関西さきがけ賞」の大賞を受賞した。,,,,,,文化・観光,都市景観資源,文化・観光/都市景観資源,167,95183
135.4006728,34.6352264,野鳥園南港緑地,やちょうえん南港緑地,野鳥園南港緑地（やちょうえん南港緑地）,住之江区南港北3丁目5番30号,住之江区,,,日本における渡り鳥の重要な生息地であった大阪湾岸一帯に生息する野鳥の保護を目的に設置された。総面積は19.3haで、園内には、海が展望できる丘や林、干潮時に人工干潟になる西池のほか、八角形の屋根を持つ展望塔が整備されている。,,,,,,文化・観光,都市景観資源,文化・観光/都市景観資源,167,37744
135.4091531,34.6741649,大阪北港マリーナ,おおさかほっこうまりーな,大阪北港マリーナ（おおさかほっこうまりーな）,此花区常吉2丁目13番,此花区,,,ヨット・ボートを中心とするマリンスポーツやレクリエーション活動を通じて、海に親しめる施設である。テニスコートもあるほか、隣接する緑地では海を眺めながらスポーツやピクニックを楽しむことができる。,,,,,,文化・観光,都市景観資源,文化・観光/都市景観資源,167,19457
135.5736102,34.70986,咲くやこの花館,さくやこのはなかん,咲くやこの花館（さくやこのはなかん）,鶴見区鶴見緑地内,鶴見区,,,地球上の様々な気候帯に生育する植物を栽培展示する総合植物館。平成2年（1990年）に開催されたEXPO'90「国際花と緑の博覧会」で大阪市のパビリオンとして建設された。水面に浮かぶスイレンの花をイメージし、約5000枚のガラスを使ってデザインされている。,,,,,,文化・観光,都市景観資源,文化・観光/都市景観資源,167,37741
135.5787373,34.7118339,花博記念公園鶴見緑地,はなはくきねんこうえんつるみりょくち,花博記念公園鶴見緑地（はなはくきねんこうえんつるみりょくち）,鶴見区緑地公園他,鶴見区,,,登録年月日：平成16年10月8日　概要：戦前に過密都市対策の一環として計画された大阪を代表する四大緑地のひとつ。平成2年（1990年）に国際花と緑の博覧会の開催後、再整備された都市公園。面積約120haという広大な敷地は造成によって変化のある自然景観を形成。博覧会の開催に合わせて地下鉄が整備され、また、公園に隣接してUNEP国際環境技術センターなどの施設も整備された。,,,,,,文化・観光,都市景観資源,文化・観光/都市景観資源,167,13067
135.4856182,34.5963428,大和橋,やまとばし,大和橋（やまとばし）,住之江区安立4丁目～堺市,住之江区,,,大阪市と堺市を結ぶ大和橋は、大和川の開削と共に宝永元年（1704年）、紀州街道が川を渡るところに架けられた公儀橋であり、当時、大和川にはこの橋しかありませんでした。大和橋は洪水のたびに修復が繰り返され、明治18年の大洪水によって大きな被害を受けたため、大正5年に大阪府の手によってはじめて鉄橋に架替えられました。現在の橋は昭和49年（1974年）に架替えられ、橋長192．00ｍ、幅員9.50ｍの斜張橋である。,,,,,,文化・観光,都市景観資源,文化・観光/都市景観資源,167,37742
135.4752777,34.6023448,加賀屋新田会所跡,かがやしんでんかいしょあと,加賀屋新田会所跡（かがやしんでんかいしょあと）,住之江区南加賀屋4丁目8番,住之江区,,,加賀屋甚兵衛が開発した加賀屋新田の管理のために、会所兼別邸として約250年前に建てた建物と庭園を修復・整備したもの。敷地内にある数寄屋風（すきやふう）茶室（鳳鳴亭（ほうめいてい））、書院、居宅は平成13年（2001年）に市の有形文化財・建造物に、会所跡は史跡に指定されている。,,,,,,文化・観光,都市景観資源,文化・観光/都市景観資源,167,37747
135.4752858,34.6110107,住之江公園,すみのえこうえん,住之江公園（すみのえこうえん）,住之江区南加賀屋1丁目1番,住之江区,,,昭和5年（1930年）に開設された府営公園。花と緑に満ちた都会のなかのオアシスとして親しまれている。「花や緑とふれあう」「緑の中で憩う」「スポーツを楽しむ」をテーマに、自然と親しめる花と緑のスクエア、児童遊戯場、プールや球技広場が整備されている。,,,,,,文化・観光,都市景観資源,文化・観光/都市景観資源,167,37745
135.473875,34.6098832,大阪護國神社と杜,おおさかごこくじんじゃともり,大阪護國神社と杜（おおさかごこくじんじゃともり）,住之江区南加賀屋1丁目1番77号,住之江区,,,昭和5年（1930年）に開設された府営公園。花と緑に満ちた都会のなかのオアシスとして親しまれている。「花や緑とふれあう」「緑の中で憩う」「スポーツを楽しむ」をテーマに、自然と親しめる花と緑のスクエア、児童遊戯場、プールや球技広場が整備されている。,,,,,,文化・観光,都市景観資源,文化・観光/都市景観資源,167,37746
135.4884634,34.6119981,住吉公園,すみよしこうえん,住吉公園（すみよしこうえん）,住之江区浜口東1丁目1番,住之江区,,,明治6年（1873年）の太政官布告に基づき住吉大社境内の一部に開設された歴史を有する公園である。遊戯広場や池を巡る遊歩道の周囲には運動場や野球場、体育館などのスポーツ施設が整備されているほか、四季を彩る草花の多さが特徴となっている。,,,,,,文化・観光,都市景観資源,文化・観光/都市景観資源,167,37749
135.4137238,34.6362782,南港オズ岸壁と大阪南港コスモフェリーターミナル,なんこうおずがんぺきとおおさかなんこうこすもふぇりーたーみなる,南港オズ岸壁と大阪南港コスモフェリーターミナル（なんこうおずがんぺきとおおさかなんこうこすもふぇりーたーみなる）,住之江区南港北2丁目,住之江区,,,アジア太平洋トレードセンターの一部であるオズの岸壁は大阪市の帆船「あこがれ」の乗船場所となっている。その西北側の大阪南港フェリーターミナルは愛媛や北九州を結ぶ大型フェリーが就航しており、多くの船を眺めることができる。,,,,,,文化・観光,都市景観資源,文化・観光/都市景観資源,167,37751
135.486868,34.6131858,住吉高燈籠,すみよしたかどうろう,住吉高燈籠（すみよしたかどうろう）,住之江区浜口西1丁目,住之江区,,,住吉高燈籠は美しい景観を誇ったすみのえの浜を実証するもので、建設は江戸時代中頃と考えられる。付近の浜辺の埋立てに伴い海から遠ざかり、大正末期には灯台の役目を終えた。昭和49年（1974年）、現在の地に、昔の形状で鉄筋コンクリート造により再建された。,,,,,,文化・観光,都市景観資源,文化・観光/都市景観資源,167,37748
135.461873,34.6254539,大正区の渡船場の景観,たいしょうくのとせんじょうのけいかん,大正区の渡船場の景観（たいしょうくのとせんじょうのけいかん）,大正区船町1丁目1番、住之江区平林北1丁目1番,大正区,,,大正区は四方を川と海に囲まれた地域であり、橋梁が整備された現在も、渡船は、区民の生活に欠かせない貴重な足としての役割を担っている。市内に8ヶ所ある渡船場のうち7ヶ所は大正区にあり、その景観には、水の都に思いを馳せさせるとともに、深く歴史を感じさせる力がある。■木津川渡船場：大正区船町１丁目と住之江区平林北１丁目を結ぶ（岸壁間238メートル）。,,,,,,文化・観光,都市景観資源,文化・観光/都市景観資源,167,19514
135.4738884,34.6256897,名村造船所大阪工場跡地,なむらぞうせんじょおおさかこうじょうあとち,名村造船所大阪工場跡地（なむらぞうせんじょおおさかこうじょうあとち）,住之江区北加賀屋4丁目1番55号,住之江区,,,昭和6年（1931年）に稼働した名村造船所大阪工場の跡地が、当時の面影を残したまま、平成16年（2004年）、クリエイティブな活動をサポートする複合アートスペース「CCO（クリエイティブセンター大阪）」として整備されている。名村造船所大阪工場跡地は、「ものづくり大国・日本」の礎（いしずえ）として、また基幹産業のルーツとして大きな意義を持つものとして、平成19年（2007年）に経済産業省によって「近代化産業遺産」に認定されている。,,,,,,文化・観光,都市景観資源,文化・観光/都市景観資源,167,37750
135.4579283,34.6329447,大正区の渡船場の景観,たいしょうくのとせんじょうのけいかん,大正区の渡船場の景観（たいしょうくのとせんじょうのけいかん）,大正区鶴町1丁目16番、船町1丁目3番,大正区,,,大正区は四方を川と海に囲まれた地域であり、橋梁が整備された現在も、渡船は、区民の生活に欠かせない貴重な足としての役割を担っている。市内に8ヶ所ある渡船場のうち7ヶ所は大正区にあり、その景観には、水の都に思いを馳せさせるとともに、深く歴史を感じさせる力がある。■船町渡船場：大正区鶴町１丁目と同区船町１丁目を結ぶ（岸壁間75メートル）。,,,,,,文化・観光,都市景観資源,文化・観光/都市景観資源,167,19513
135.4751894,34.6329173,千本松大橋と千本松渡船場,せんぼんまつおおはしとせんぼんまつとせんじょう,千本松大橋と千本松渡船場（せんぼんまつおおはしとせんぼんまつとせんじょう）,大正区南恩加島1丁目11番、西成区南津守5丁目4番,大正区,,,"千本松渡船は大正区南恩加島1丁目と西成区南津守5丁目を結ぶ（岸壁間230メートル）。千本松の渡しが設けられた年代ははっきりしないが、大正時代の中頃に初めて設けられたものと思われる。現在も通勤通学の貴重な交通手段として利用されている。昭和48年（1973年）、この岸壁間に千本松大橋が完成した。地元では「めがね橋」の愛称で呼ばれている。橋下を大型船舶が航行できるよう桁下高を33m確保し、両端部の2階式ラセン状ランプウェーを含めた橋長は1,228mにおよぶ。",,,,,,文化・観光,都市景観資源,文化・観光/都市景観資源,167,19454
135.4756199,34.6327784,大正区の渡船場の景観,たいしょうくのとせんじょうのけいかん,大正区の渡船場の景観（たいしょうくのとせんじょうのけいかん）,大正区南恩加島1丁目11番、西成区南津守5丁目6番,大正区,,,大正区は四方を川と海に囲まれた地域であり、橋梁が整備された現在も、渡船は、区民の生活に欠かせない貴重な足としての役割を担っている。市内に8ヶ所ある渡船場のうち7ヶ所は大正区にあり、その景観には、水の都に思いを馳せさせるとともに、深く歴史を感じさせる力がある。■千本松渡船場：大正区南恩加島１丁目と西成区南津守５丁目を結ぶ（岸壁間230メートル）。,,,,,,文化・観光,都市景観資源,文化・観光/都市景観資源,167,19511
135.5180768,34.5949389,大依羅神社,おおよさみじんじゃ,大依羅神社（おおよさみじんじゃ）,住吉区庭井2丁目18番16号,住吉区,,,この神社は、当時の豪族依綱吾彦氏の祖神、建豊波豆羅和気王（たけとよはづらわけのきみ）、住吉三神を祭神としている。式内社で、古くは朝廷から住吉大社に次ぐ扱いを受けていた。神社の南側参道前には6世紀から７世紀に造成された日本で最も古いとされる依綱池跡碑があり、このあたりに古代朝廷直轄の耕作地「屯倉（みやけ）」が置かれていた。,,,,,,文化・観光,都市景観資源,文化・観光/都市景観資源,167,19501
135.4952257,34.6004889,極楽寺,ごくらくじ,極楽寺（ごくらくじ）,住吉区遠里小野5丁目11番2号,住吉区,,,榎津寺（えなつでら）の極楽院が、この寺の前身とされているが創建は不明で、本尊の毘沙門天は信貴山の毘沙門天と同じ材といわれる。楠木正成の両親が本尊に子宝を祈願し正成が誕生し、そのお礼に正成が寄進したとされる、石灯籠（重要文化財）が境内に、また正成お手植えといわれる楠もある。,,,,,,文化・観光,都市景観資源,文化・観光/都市景観資源,167,19478
135.4975069,34.604874,止止呂支比売命神社,とどろきひめのみことじんじゃ,止止呂支比売命神社（とどろきひめのみことじんじゃ）,住吉区沢之町１丁目10番４号,住吉区,,,祭神は素戔鳴命（すさのおのみこと）・稲田姫命（いなだひめのみこと）。創建年代は不明だが神功皇后の創建とも伝えられている。若松神社は地元の愛称で、承久3年（1221年）後鳥羽上皇が行幸、造られた行宮を若松御所と名付けたことに由来。かつては住吉大社の摂社であったが、明治5年（1872年）分離し村社となる。,,,,,,文化・観光,都市景観資源,文化・観光/都市景観資源,167,19481
135.510159,34.599647,吾彦山大聖観音寺（通称あびこ観音）,あびこやまたいしょうかんのんじ（つうしょうあびこかんのん）,吾彦山大聖観音寺（通称あびこ観音）（あびこやまたいしょうかんのんじ（つうしょうあびこかんのん））,住吉区我孫子4丁目1番20号,住吉区,,,正式には「吾彦山」、寺号を「大聖観音寺」と称し、日本最古の観音信仰道場・厄除けの寺として有名。昔、この地に住んでいた依羅吾彦（よさみのあびこ）という勢力のある一族が、百済の聖明王から身の丈約5cmの小さな観音像を贈られた。人々は御堂を建てて信心したが、今から約1400年前、聖徳太子がこの地を訪ねられた際、観世音菩薩のお告げを受け、当寺を創建されたと伝えられている。,,,,,,文化・観光,都市景観資源,文化・観光/都市景観資源,167,19475
135.4894167,34.6059487,地蔵尊のある風景（安立連合町会のなかの紀州街道沿いのお地蔵様）,じぞうそんのあるふうけい（あんりゅうれんごうちょうかいのなかのきしゅうかいどうぞいのおじぞうさま）,地蔵尊のある風景（安立連合町会のなかの紀州街道沿いのお地蔵様）（じぞうそんのあるふうけい（あんりゅうれんごうちょうかいのなかのきしゅうかいどうぞいのおじぞうさま））,住之江区住之江1丁目近辺（紀州街道沿い）,住之江区,,,古い町並みが残る地蔵尊の風景は住之江区の大切な景観となっている。当地の「安立」という地名は、元和年間（1615年～1623年）に、名医として名を馳せた半井安立がここに居を構えたことにちなむ。多くの人がその治療を求めて集まり、いつしか町が形成されたといわれている。,,,,,,文化・観光,都市景観資源,文化・観光/都市景観資源,167,37743
135.494401,34.6102473,蔵のある住宅,くらのあるじゅうたく,蔵のある住宅（くらのあるじゅうたく）,住吉区墨江1丁目5番14号,住吉区,,,大歳神社から国道479号線に向かうとすぐ左手に見られ、白壁と板壁の珍しい造りをしている。白壁と板壁の蔵、カイヅカイブキの古木、和風とモダンの住宅が美しく調和している。,,,,,,文化・観光,都市景観資源,文化・観光/都市景観資源,167,19484
135.4944064,34.6104688,大歳社,おおとししゃ,大歳社（おおとししゃ）,住吉区墨江1丁目5番,住吉区,,,住吉大社の境外末社で、祭神は大歳神 (おおとしのかみ) 。収穫の神であるところから、集金・商売繁盛・家内安全・願望成就に神徳があり、毎月最初の辰の日に参る「初辰まいり」では、種貸社、楠?社、浅沢神社と参り、ここで集金・収穫に感謝してしめくくる。拝殿右横の石柱の上にある丸い石を「おもかる石」と呼んでいる。,,,,,,文化・観光,都市景観資源,文化・観光/都市景観資源,167,19485
135.4941982,34.6098473,住吉子安地藏寺（すみよしのこやっさん）,すみよしこやすじぞうでら,住吉子安地藏寺（すみよしのこやっさん）（すみよしこやすじぞうでら）,住吉区墨江1丁目6番7号,住吉区,,,地蔵寺は承応3年（1654年）に僧承圓(しょうえん)が建立したという天台宗の寺院である。本尊の地蔵菩薩は、伝教大師作と伝えられ、地元では子安さんと親しまれている。平安時代の木造地蔵菩薩立像の優品で、大阪市指定有形文化財に指定されている。門前に百度石、門内に五大力尊像がある。,,,,,,文化・観光,都市景観資源,文化・観光/都市景観資源,167,19486
135.4983053,34.6116987,木下家住宅,きのしたけじゅうたく,木下家住宅（きのしたけじゅうたく）,住吉区上住吉1丁目8番28号,住吉区,,,　「住吉街道」沿いに建つ大壁造りの漆喰壁の町家建築で、二階部分に虫籠窓が見られる。虫籠窓は角材に荒縄を巻いて土で塗り込んだもの。虫籠窓にはさまざまな説があり、防火目的と心理的な効果が狙いといわれている。また、二階造りの表を美しくみせるために生み出されたとも言われている。,,,,,,文化・観光,都市景観資源,文化・観光/都市景観資源,167,19476
135.4957438,34.6113756,熊野街道（ＨＯＰＥゾーン内）,くまのかいどう（ＨＯＰＥぞーんない）,熊野街道（ＨＯＰＥゾーン内）（くまのかいどう（ＨＯＰＥぞーんない））,住吉区住吉1丁目～上住吉2丁目,住吉区,,,熊野街道は、和歌山県熊野本宮への参詣道で、平安時代から鎌倉時代にかけて「蟻の熊野詣」といわれる程、多くの人々の往来で賑わった。京都から淀川を舟で下り、八軒家(中央区天満橋京町)に上陸した人々は上町台地を縦断、途中所在する「熊野九十九王子」(住吉区では津守王子)と呼ぶ遥拝所をたどりながら熊野三山に至った。,,,,,,文化・観光,都市景観資源,文化・観光/都市景観資源,167,19488
135.4965502,34.6121423,すみよし村ぎゃらりー,すみよしむらぎゃらりー,すみよし村ぎゃらりー（すみよしむらぎゃらりー）,住吉区住吉1丁目9番16号,住吉区,,,住吉の歴史が体感できる「すみよし村ぎゃらりー」は、住吉街道沿いの古い民家をリニューアルした建物。住吉にちなんだ住吉踊りの傘や昔の油屋の状況を展示している。明治初めの建築で大和棟町家。また、馬つなぎのある珍しい町家である。,,,,,,文化・観光,都市景観資源,文化・観光/都市景観資源,167,19489
135.4960119,34.6121896,池田家住宅,いけだけじゅうたく,池田家住宅（いけだけじゅうたく）,住吉区住吉1丁目9番22号,住吉区,,,住吉大社の東参道4つ辻角にあり、表の屋根には高灯籠が置かれている。白壁の虫篭窓、防火防炎のため土壁のように柱を壁で厚く覆っている。老舗味噌屋の池田屋本舗として、今でも昔ながらの製法を伝えている。屋根に設置された高灯籠、白壁の虫篭窓等外観だけでも歴史を感じる。現在も昔ながらの製法で味噌作りをしているだけでなく、建屋の保存状態も良く、熊野街道沿いにあるので、江戸期が偲ばれる。国の登録有形文化財に登録されている。,,,,,,文化・観光,都市景観資源,文化・観光/都市景観資源,167,19490
135.4990518,34.6122177,荘厳浄土寺,しょうごんじょうどじ,荘厳浄土寺（しょうごんじょうどじ）,住吉区帝塚山東5丁目11番14号,住吉区,,,住吉の三大寺のひとつで、真言律宗の寺院。本尊は不動明王。創建は天慶年間の頃(930～946年)と推定される。応得元年（1084年）白河天皇の勅願寺として再建され名を賜る。四天王寺と並ぶ壮麗な寺院だったが、戦火などにあって、現在に至る。現在の堂は天和2年(1682年) に再建されたもの。不動明王立像・愛染明王坐像は大阪府の有形文化財、境内は大阪府の史跡に指定されている。,,,,,,文化・観光,都市景観資源,文化・観光/都市景観資源,167,19498
135.5096261,34.6116232,神須牟地神社,かみすむちじんじゃ,神須牟地神社（かみすむちじんじゃ）,住吉区長居西2丁目1番4号,住吉区,,,延喜式内の古社であって、遠く二千年昔の創建と伝えられる。祭神は神産霊大神・天日鷲命・少名彦命とされる。古来、酒造、医薬の祖神として信仰された。本社殿は、慶長年間、兵火にあったが、豊臣の浪人、多賀谷氏他４名の協力により、元和4年（1618年）再建された。元文元年（1736年）、徳川幕府は本社および多米神社の荒廃を憂い、幕吏菅廣房に命じ『神須牟地社』『多米社』と刻する石碑二基を双方の地に建立し、今も現存している。「神須牟地社社号標石」及び「多米社社号標石」は、大阪市指定文化財に指定されている。,,,,,,文化・観光,都市景観資源,文化・観光/都市景観資源,167,19499
135.5206666,34.5983064,真宗大谷派西光寺,しんしゅうおおたにはさいこうじ,真宗大谷派西光寺（しんしゅうおおたにはさいこうじ）,住吉区苅田6丁目10番5号,住吉区,,,真宗東本願寺派の末寺で、的場山と号す。阿弥陀仏を本尊とする。的場才門太郎というものが、正安年間（1299－1301）浄土真宗に帰依し本寺を草創したと伝えられる。弘冶年間（1555-1557）にいたって西光寺という寺号を称した。当時の住職浄円が中興の祖とされている。,,,,,,文化・観光,都市景観資源,文化・観光/都市景観資源,167,19479
135.5205844,34.598515,苅田の大楠,かりたのおおくす,苅田の大楠（かりたのおおくす）,住吉区苅田6丁目10番12号,住吉区,,,苅田の鎮守様は、草津大歳神社といい、現在の苅田福祉会館のある場所に鎮座していた。大阪市の保存樹に指定されている「苅田の大楠」はご神木。,,,,,,文化・観光,都市景観資源,文化・観光/都市景観資源,167,19480
135.5224493,34.6074319,保利神社,ほりじんじゃ,保利神社（ほりじんじゃ）,住吉区長居東１丁目14番17号,住吉区,,,神社創建の年代は不詳である。里伝によれば、足利時代に周防守（すおうのかみ）某なるものが本地に城を築いたとき、城の守護神として勧請されたといわれている。祭神は素盞嗚尊（すさのおのみこと）、大国主命（おおくにぬしのみこと）。境内に６基の力石がある。これは、力試し、力競べをするために使われた石で、村のあちこちに置かれていた力石が神社に集められて奉納されたもの。また、境内には、クスノキ、エノキ、ムクノキ、ウバメガシの古木があり、大阪市の保存樹林に指定されている。,,,,,,文化・観光,都市景観資源,文化・観光/都市景観資源,167,19500
135.5551997,34.6116517,喜連環濠地区の6つの地蔵尊（北口、尻矢口、西口、馬倉、東口、南口）,きれかんごうちくの６つのじぞうそん（きたぐち、しりやぐち、にしぐち、ばくら、ひがしぐち、みなみぐち）,喜連環濠地区の6つの地蔵尊（北口、尻矢口、西口、馬倉、東口、南口）（きれかんごうちくの６つのじぞうそん（きたぐち、しりやぐち、にしぐち、ばくら、ひがしぐち、みなみぐち））,平野区喜連3丁目7番、4丁目5-7番、6丁目1-5番,平野区,,,古くから喜連環濠集落の6か所の出入口には地蔵尊が祀られている。中高野（なかこうや）街道の環濠南入口の大手前を意味する「馬倉（ばくら）地蔵尊」から反時計まわりに、「安政」の石碑が傍らに残っている立派な体格の「東口地蔵尊」、地蔵盆には「寛政」の膳が供えられる「尻矢口（しりやぐち）地蔵尊」（背後の防備を固めたと思われる名称である）、中高野街道の北の玄関口として立派な地蔵堂を備え、環濠を跨いでいた松山橋跡も残る「北口地蔵尊」、本尊の左に謂われ有りげな首地蔵が祀られている「西口地蔵尊」、中世からの歴史を感じさせる線刻（せんこく）の地蔵が脇に控える「南口地蔵尊」である。,,,,,,文化・観光,都市景観資源,文化・観光/都市景観資源,167,37778
135.5539438,34.6115759,喜連環濠地区の6つの地蔵尊（北口、尻矢口、西口、馬倉、東口、南口）,きれかんごうちくの６つのじぞうそん（きたぐち、しりやぐち、にしぐち、ばくら、ひがしぐち、みなみぐち）,喜連環濠地区の6つの地蔵尊（北口、尻矢口、西口、馬倉、東口、南口）（きれかんごうちくの６つのじぞうそん（きたぐち、しりやぐち、にしぐち、ばくら、ひがしぐち、みなみぐち））,平野区喜連3丁目7番、4丁目5-7番、6丁目1-5番,平野区,,,古くから喜連環濠集落の6か所の出入口には地蔵尊が祀られている。中高野（なかこうや）街道の環濠南入口の大手前を意味する「馬倉（ばくら）地蔵尊」から反時計まわりに、「安政」の石碑が傍らに残っている立派な体格の「東口地蔵尊」、地蔵盆には「寛政」の膳が供えられる「尻矢口（しりやぐち）地蔵尊」（背後の防備を固めたと思われる名称である）、中高野街道の北の玄関口として立派な地蔵堂を備え、環濠を跨いでいた松山橋跡も残る「北口地蔵尊」、本尊の左に謂われ有りげな首地蔵が祀られている「西口地蔵尊」、中世からの歴史を感じさせる線刻（せんこく）の地蔵が脇に控える「南口地蔵尊」である。6つの地蔵尊の位置と名称から中世の喜連城の惣構（そうがまえ）が浮かび上がる。また、地蔵尊は戦乱の時代に一揆も戦った村の関所跡でもある。戦が止んでからは集落の出入口で田畑に通う人々を見守り、喜連環濠集落を守護する存在として、人々の生活に溶け込んできた。次第にこどもたちを守る仏様に転じ、夏の風物詩「地蔵盆」（毎年8月23、24日）の舞台となって、今もこどもたちに親しまれている。地蔵尊は隣近所の人々の温かい善意の気持ちによって何百年と護り続けられている。　,,,,,,文化・観光,都市景観資源,文化・観光/都市景観資源,167,37783
135.5547206,34.6124469,旧屋敷小路（喜連環濠地区内）,きゅうやしきこみち（きれかんごうちくない）,旧屋敷小路（喜連環濠地区内）（きゅうやしきこみち（きれかんごうちくない））,平野区喜連4丁目4番付近,平野区,,,喜連環濠地区の旧中高野街道沿いには、江戸期から明治期にかけて建てられた旧家の建物など、歴史的まち並みが残されている。古代の村が中世の環濠集落、近世の惣村へと発展していったことを裏付ける遺跡群が再発見され、その歴史が明らかになりつつある。,,,,,,文化・観光,都市景観資源,文化・観光/都市景観資源,167,37753
135.5569372,34.6121559,喜連環濠地区の6つの地蔵尊（北口、尻矢口、西口、馬倉、東口、南口）,きれかんごうちくの６つのじぞうそん（きたぐち、しりやぐち、にしぐち、ばくら、ひがしぐち、みなみぐち）,喜連環濠地区の6つの地蔵尊（北口、尻矢口、西口、馬倉、東口、南口）（きれかんごうちくの６つのじぞうそん（きたぐち、しりやぐち、にしぐち、ばくら、ひがしぐち、みなみぐち））,平野区喜連3丁目7番、4丁目5-7番、6丁目1-5番,平野区,,,古くから喜連環濠集落の6か所の出入口には地蔵尊が祀られている。中高野（なかこうや）街道の環濠南入口の大手前を意味する「馬倉（ばくら）地蔵尊」から反時計まわりに、「安政」の石碑が傍らに残っている立派な体格の「東口地蔵尊」、地蔵盆には「寛政」の膳が供えられる「尻矢口（しりやぐち）地蔵尊」（背後の防備を固めたと思われる名称である）、中高野街道の北の玄関口として立派な地蔵堂を備え、環濠を跨いでいた松山橋跡も残る「北口地蔵尊」、本尊の左に謂われ有りげな首地蔵が祀られている「西口地蔵尊」、中世からの歴史を感じさせる線刻（せんこく）の地蔵が脇に控える「南口地蔵尊」である。6つの地蔵尊の位置と名称から中世の喜連城の惣構（そうがまえ）が浮かび上がる。また、地蔵尊は戦乱の時代に一揆も戦った村の関所跡でもある。戦が止んでからは集落の出入口で田畑に通う人々を見守り、喜連環濠集落を守護する存在として、人々の生活に溶け込んできた。次第にこどもたちを守る仏様に転じ、夏の風物詩「地蔵盆」（毎年8月23、24日）の舞台となって、今もこどもたちに親しまれている。地蔵尊は隣近所の人々の温かい善意の気持ちによって何百年と護り続けられている。,,,,,,文化・観光,都市景観資源,文化・観光/都市景観資源,167,37779
135.5592535,34.6122546,教西寺,きょうさいじ,教西寺（きょうさいじ）,平野区喜連東2丁目1番22号,平野区,,,焼杉板の塀で囲われている浄土真宗本願寺派の寺院。推古2年（594年）に聖徳太子が阿弥陀仏を本尊として創建された。現本堂は江戸時代に建立したもので、形式は「道場」形式を基本にした小規模かつ奥行きのある「妻入」形式の建物である。,,,,,,文化・観光,都市景観資源,文化・観光/都市景観資源,167,37757
135.4930306,34.6129193,宗教法人住吉大社,しゅうきょうほうじんすみよしたいしゃ,宗教法人住吉大社（しゅうきょうほうじんすみよしたいしゃ）,住吉区住吉2丁目9番89号,住吉区,,,登録年月日：平成15年4月11日　概要：草創は神功皇后の海外渡航時の安全祈願の故事に由来すると伝えられるが、現在の本殿4棟は、文化5年（1808年）造営されたもので、桧皮葺き・切妻造り妻入りの住吉造りと称され、市内唯一の国宝建造物である。境内には、慶長11年（1606年）に架設され住吉大社の象徴ともいえる朱塗りの太鼓橋（反橋）をはじめ、重要文化財の石舞台や南門・東西楽所などや、全国から献灯された石灯ろう600余基などもある。,,,,,,文化・観光,都市景観資源,文化・観光/都市景観資源,167,13068
135.4954311,34.6141014,上田家住宅,うえだけじゅうたく,上田家住宅（うえだけじゅうたく）,住吉区住吉1丁目5番20号,住吉区,,,明治43年（1910年）の建築、瓦葺き切妻屋根、出格子や駒寄せなどの伝統的な町屋の形態を持っている。HOPEゾーン事業のまちなみ修景補助制度により、改修された。昔の住吉らしいまちなみの面影が感じられる。,,,,,,文化・観光,都市景観資源,文化・観光/都市景観資源,167,19487
135.4938923,34.6155575,生根神社,いくねじんじゃ,生根神社（いくねじんじゃ）,住吉区住吉2丁目3番15号,住吉区,,,創立は不詳であるが延喜式神明帳（927年）に記載されている。桧皮葺・壱間社流（いっけんしゃながれ）造りの建物で、正面千鳥破風や扉の装飾などに、桃山時代の華麗な様式を残す。江戸時代は住吉大社の摂社であった。生根神社本殿は大阪府有形文化財に指定されている。,,,,,,文化・観光,都市景観資源,文化・観光/都市景観資源,167,19491
135.491768,34.6141902,阪堺電気軌道住吉交差点,はんかいでんききどうすみよしこうさてん,阪堺電気軌道住吉交差点（はんかいでんききどうすみよしこうさてん）,住吉区住吉2丁目9番,住吉区,,,阪堺電気軌道の上町線と阪堺線、2つの路線が道路上で交差する。阪堺電車は現在大阪市内を走る唯一の路面電車で、通称「ちん電」と呼ばれている。上町線の前身は明治33年（1900年）開業の軌道に乗った客車を馬が引く馬車鉄道だった。明治43年（1910年）には電化工事が完成し天王寺西門前～住吉神社前間で運行を開始した。日本では高知市の「はりまや橋交差点」と、ここ住吉にしか残っていない路面電車同士の交差点である。,,,,,,文化・観光,都市景観資源,文化・観光/都市景観資源,167,19492
135.496877,34.6136837,天王山東福寺,てんのうざんとうふくじ,天王山東福寺（てんのうざんとうふくじ）,住吉区住吉1丁目7番15号,住吉区,,,弘法大師が開祖した当時は熊野街道沿いに位置した。本尊の毘沙門天は、楠木正成の千早城における、念持仏といわれている。秘仏のため正月3日間にかぎっての御開帳が行われている。他にも、室町期の作の四天王が文化財として貴重である。,,,,,,文化・観光,都市景観資源,文化・観光/都市景観資源,167,19504
135.4935211,34.6164177,閻魔地蔵尊,えんまじぞうそん,閻魔地蔵尊（えんまじぞうそん）,住吉区東粉浜3丁目5番11号,住吉区,,,地蔵が閻魔大王に化身したもので、難波の浜から背負って運んで来たが、この地で急に重くなり一歩も進めなくなったという。冥土の苦界六道の辻が、今では1本増えて七道の辻となっている。,,,,,,文化・観光,都市景観資源,文化・観光/都市景観資源,167,19502
135.4984569,34.6183391,ＷＩＬＬ帝塚山,ＷＩＬＬてづかやま,ＷＩＬＬ帝塚山（ＷＩＬＬてづかやま）,住吉区帝塚山中4丁目10番14号,住吉区,,,第22回（2002年）大阪まちなみ賞（大阪都市景観建築賞） 奨励賞受賞。小さい限られた敷地の中で、外には近隣に開かれたギャラリーを角地に持ち、住人には中庭の古い立木を囲んだ共有空間を提供している。先代からの既存の土蔵や庭石を生かした試みは、ともすれば崩れゆく風致地区周辺の住宅地の中で、美しく心地良い凛とした存在になっている。,,,,,,文化・観光,都市景観資源,文化・観光/都市景観資源,167,19495
135.4957289,34.6171666,帝塚山スタジオ（市川家住宅）,てづかやますたじお（いちかわけじゅうたく）,帝塚山スタジオ（市川家住宅）（てづかやますたじお（いちかわけじゅうたく））,住吉区帝塚山西4丁目4番39号,住吉区,,,「帝塚山スタジオ・市川恵子フラメンコ舞踊研究所」として知られる。漆喰の壁と木がフラメンコに最適なことから、土蔵を本格的なフラメンコスタジオに再生使用している。母屋の2階部分が洋館で和洋折衷を採り入れた造りは帝塚山地域でも非常に珍しい。土蔵や和洋折衷を取り入れた建物の造りから歴史や文化を感じる。,,,,,,文化・観光,都市景観資源,文化・観光/都市景観資源,167,19497
135.5024468,34.6193493,万代池公園,まんだいいけこうえん,万代池公園（まんだいいけこうえん）,住吉区万代3丁目7番,住吉区,,,万代池公園は、昭和15年（1940年）6月に開園された約４．４ｈａの地区公園である。池の周囲にはサクラが植えられており、春の花の時期には池に浮かぶ小島から絶景を眺めることができる。,,,,,,文化・観光,都市景観資源,文化・観光/都市景観資源,167,19503
135.5004357,34.623166,蔵のある屋敷町,くらのあるやしきまち,蔵のある屋敷町（くらのあるやしきまち）,住吉区帝塚山中1丁目、2丁目,住吉区,,,帝塚山地区には屋敷町があり、近年の建物が建ち並ぶ中で和の懐かしい文化を今に伝える家が残っている。帝塚山の住宅開発の100年とともにある蔵。よく手入れされた屋敷に屹立する白壁の蔵がとても美しい。,,,,,,文化・観光,都市景観資源,文化・観光/都市景観資源,167,19493
135.4995874,34.6206729,高谷家住宅,たかたにけじゅうたく,高谷家住宅（たかたにけじゅうたく）,住吉区帝塚山中3丁目8番18号,住吉区,,,国の登録有形文化財及び市登録文化財（建造物）に登録されている。関東大震災を教訓にした大正13年（1924年）頃の建築。耐震・防火を強く意識して鉄骨造り、外壁はレンガとコンクリートブロック積みで、堅固な構造。切妻屋根のてっぺんには風見鶏、二つの屋根窓と煙突が童話のような雰囲気を見せる。,,,,,,文化・観光,都市景観資源,文化・観光/都市景観資源,167,19494
135.4965502,34.6211294,帝塚山古墳,てづがやまこふん,帝塚山古墳（てづがやまこふん）,住吉区帝塚山西2丁目31番,住吉区,,,市内に残る4古墳のひとつで、5世紀頃の前方後円墳がほぼ原型をとどめているとされる。国の史跡に指定されている。埋葬者は不明だが、この付近に居宅があった豪族大伴金村の墓という説もある。万葉集第9巻1740番に「水江の浦島の子」が載っていることから、地元では浦島太郎の墓として伝承されている。古墳内にはフキ・ワラビ・ゼンマイ・ヤマノイモなどのほか、珍しいカンサイタンポポが群生している。,,,,,,文化・観光,都市景観資源,文化・観光/都市景観資源,167,19496
135.5529959,34.6128106,喜連環濠地区の6つの地蔵尊（北口、尻矢口、西口、馬倉、東口、南口）,きれかんごうちくの６つのじぞうそん（きたぐち、しりやぐち、にしぐち、ばくら、ひがしぐち、みなみぐち）,喜連環濠地区の6つの地蔵尊（北口、尻矢口、西口、馬倉、東口、南口）（きれかんごうちくの６つのじぞうそん（きたぐち、しりやぐち、にしぐち、ばくら、ひがしぐち、みなみぐち））,平野区喜連3丁目7番、4丁目5-7番、6丁目1-5番,平野区,,,古くから喜連環濠集落の6か所の出入口には地蔵尊が祀られている。中高野（なかこうや）街道の環濠南入口の大手前を意味する「馬倉（ばくら）地蔵尊」から反時計まわりに、「安政」の石碑が傍らに残っている立派な体格の「東口地蔵尊」、地蔵盆には「寛政」の膳が供えられる「尻矢口（しりやぐち）地蔵尊」（背後の防備を固めたと思われる名称である）、中高野街道の北の玄関口として立派な地蔵堂を備え、環濠を跨いでいた松山橋跡も残る「北口地蔵尊」、本尊の左に謂われ有りげな首地蔵が祀られている「西口地蔵尊」、中世からの歴史を感じさせる線刻（せんこく）の地蔵が脇に控える「南口地蔵尊」である。6つの地蔵尊の位置と名称から中世の喜連城の惣構（そうがまえ）が浮かび上がる。また、地蔵尊は戦乱の時代に一揆も戦った村の関所跡でもある。戦が止んでからは集落の出入口で田畑に通う人々を見守り、喜連環濠集落を守護する存在として、人々の生活に溶け込んできた。次第にこどもたちを守る仏様に転じ、夏の風物詩「地蔵盆」（毎年8月23、24日）の舞台となって、今もこどもたちに親しまれている。地蔵尊は隣近所の人々の温かい善意の気持ちによって何百年と護り続けられている。,,,,,,文化・観光,都市景観資源,文化・観光/都市景観資源,167,37782
135.5545151,34.6136464,喜連環濠地区の6つの地蔵尊（北口、尻矢口、西口、馬倉、東口、南口）,きれかんごうちくの６つのじぞうそん（きたぐち、しりやぐち、にしぐち、ばくら、ひがしぐち、みなみぐち）,喜連環濠地区の6つの地蔵尊（北口、尻矢口、西口、馬倉、東口、南口）（きれかんごうちくの６つのじぞうそん（きたぐち、しりやぐち、にしぐち、ばくら、ひがしぐち、みなみぐち））,平野区喜連3丁目7番、4丁目5-7番、6丁目1-5番,平野区,,,古くから喜連環濠集落の6か所の出入口には地蔵尊が祀られている。中高野（なかこうや）街道の環濠南入口の大手前を意味する「馬倉（ばくら）地蔵尊」から反時計まわりに、「安政」の石碑が傍らに残っている立派な体格の「東口地蔵尊」、地蔵盆には「寛政」の膳が供えられる「尻矢口（しりやぐち）地蔵尊」（背後の防備を固めたと思われる名称である）、中高野街道の北の玄関口として立派な地蔵堂を備え、環濠を跨いでいた松山橋跡も残る「北口地蔵尊」、本尊の左に謂われ有りげな首地蔵が祀られている「西口地蔵尊」、中世からの歴史を感じさせる線刻（せんこく）の地蔵が脇に控える「南口地蔵尊」である。6つの地蔵尊の位置と名称から中世の喜連城の惣構（そうがまえ）が浮かび上がる。また、地蔵尊は戦乱の時代に一揆も戦った村の関所跡でもある。戦が止んでからは集落の出入口で田畑に通う人々を見守り、喜連環濠集落を守護する存在として、人々の生活に溶け込んできた。次第にこどもたちを守る仏様に転じ、夏の風物詩「地蔵盆」（毎年8月23、24日）の舞台となって、今もこどもたちに親しまれている。地蔵尊は隣近所の人々の温かい善意の気持ちによって何百年と護り続けられている。,,,,,,文化・観光,都市景観資源,文化・観光/都市景観資源,167,37781
135.5553492,34.6134801,如願寺,にょがんじ,如願寺（にょがんじ）,平野区喜連6丁目1番38号,平野区,,,崇峻天皇（すしゅん）元年（588年）、聖徳太子により「喜連寺（きれでら）」として創建され、後に弘法大師により再建され、弘仁8年（817年）「如願寺」と改号。木造彩色聖観音立像（もくぞうさいしきせいかんのんりゅうぞう）は平安期作の府指定文化財に指定されているほか、奈良時代の乾漆像（かんしつぞう）である弁財天、平安期の木造地蔵尊（もくぞうじぞうそん）などがある。境内には「灌漑長閘紀功之碑（かんがいちょうこうきこうのひ）」がひっそりと建つ。,,,,,,文化・観光,都市景観資源,文化・観光/都市景観資源,167,37755
135.5562487,34.6130043,喜連環濠地区の6つの地蔵尊（北口、尻矢口、西口、馬倉、東口、南口）,きれかんごうちくの６つのじぞうそん（きたぐち、しりやぐち、にしぐち、ばくら、ひがしぐち、みなみぐち）,喜連環濠地区の6つの地蔵尊（北口、尻矢口、西口、馬倉、東口、南口）（きれかんごうちくの６つのじぞうそん（きたぐち、しりやぐち、にしぐち、ばくら、ひがしぐち、みなみぐち））,平野区喜連3丁目7番、4丁目5-7番、6丁目1-5番,平野区,,,古くから喜連環濠集落の6か所の出入口には地蔵尊が祀られている。中高野（なかこうや）街道の環濠南入口の大手前を意味する「馬倉（ばくら）地蔵尊」から反時計まわりに、「安政」の石碑が傍らに残っている立派な体格の「東口地蔵尊」、地蔵盆には「寛政」の膳が供えられる「尻矢口（しりやぐち）地蔵尊」（背後の防備を固めたと思われる名称である）、中高野街道の北の玄関口として立派な地蔵堂を備え、環濠を跨いでいた松山橋跡も残る「北口地蔵尊」、本尊の左に謂われ有りげな首地蔵が祀られている「西口地蔵尊」、中世からの歴史を感じさせる線刻（せんこく）の地蔵が脇に控える「南口地蔵尊」である。6つの地蔵尊の位置と名称から中世の喜連城の惣構（そうがまえ）が浮かび上がる。また、地蔵尊は戦乱の時代に一揆も戦った村の関所跡でもある。戦が止んでからは集落の出入口で田畑に通う人々を見守り、喜連環濠集落を守護する存在として、人々の生活に溶け込んできた。次第にこどもたちを守る仏様に転じ、夏の風物詩「地蔵盆」（毎年8月23、24日）の舞台となって、今もこどもたちに親しまれている。地蔵尊は隣近所の人々の温かい善意の気持ちによって何百年と護り続けられている。,,,,,,文化・観光,都市景観資源,文化・観光/都市景観資源,167,37780
135.5513075,34.6232754,旧南海電鉄平野線平野駅跡プロムナード,きゅうなんかいでんてつひらのせんひらのえきあとぷろむなーど,旧南海電鉄平野線平野駅跡プロムナード（きゅうなんかいでんてつひらのせんひらのえきあとぷろむなーど）,平野区平野本町2丁目3番,平野区,,,チンチン電車の愛称で親しまれた南海電鉄平野線の軌道跡地に、昭和58年（1983年）に設置された遊歩道。南海電鉄平野線は、大正3年（1914年）開通以来、多くの人々の交通手段として活躍したが、地下鉄谷町線の開通に伴い、昭和55年（1980年）に廃止された。,,,,,,文化・観光,都市景観資源,文化・観光/都市景観資源,167,37760
135.5551842,34.6235936,小林新聞舗店舗,こばやししんぶんほてんぽ,小林新聞舗店舗（こばやししんぶんほてんぽ）,平野区平野本町4丁目12番3号,平野区,,,2つずつ配したアーチ形の窓枠が特徴のレトロな建物で、「新聞屋さん博物館」にもなっている。明治22年（1889年）創業の、市内でもっとも古い新聞販売店で、建物は昭和4年（1929年）に建てられた。平成19年（2007年）国の登録文化財となった。,,,,,,文化・観光,都市景観資源,文化・観光/都市景観資源,167,37761
135.5553088,34.6232617,野中山　全興寺（やっちゅうざん　せんこうじ）,やっちゅうざん　せんこうじ,野中山　全興寺（やっちゅうざん　せんこうじ）（やっちゅうざん　せんこうじ）,平野区平野本町4丁目12番21号,平野区,,,1300年前、聖徳太子が建立し、薬師如来像を安置したのが草創と伝えられる。焼失により寛文元年（1661年）に再建された本堂は、府下でもっとも古い木造建築の一つ。境内には「地獄堂」や「小さな駄菓子屋さん博物館」等があり、来訪者を楽しませている。,,,,,,文化・観光,都市景観資源,文化・観光/都市景観資源,167,37762
135.5505138,34.6272745,大念佛寺,だいねんぶつじ,大念佛寺（だいねんぶつじ）,平野区平野上町1丁目7番26号,平野区,,,登録年月日：平成16年10月8日　概要：融通念仏宗の総本山で、大治2年（1127年）に聖応大師（良忍上人）が開基したと伝えられている。明治31年（1898年）に火災があり本堂以下多数の堂宇を失った。現在の本堂は昭和13年（1938年）に竣工した大阪府内最大の木造建築物で、国の登録有形文化財に登録されている。また、境内のクスノキとイチョウが市の保存樹に指定されている。,,,,,,文化・観光,都市景観資源,文化・観光/都市景観資源,167,13070
135.552471,34.6262604,末吉家住宅,すえよしけじゅうたく,末吉家住宅（すえよしけじゅうたく）,平野区平野上町2丁目3番5号,平野区,,,末吉家は平野七名家の一家で、東横堀川に今も残る末吉橋を架橋した。平野郷町誌によると、屋敷の竣工は宝永4年（1707年）頃で、築300年を超した現在もその壮麗な屋敷構えを見ることができる。江戸中期に建設された住宅、門、塀、西蔵は、国の登録有形文化財に登録されている。,,,,,,文化・観光,都市景観資源,文化・観光/都市景観資源,167,37758
135.5586323,34.6224286,赤留比売命神社（三十歩神社）,あかるひめのみことじんじゃ（さんじゅうぶじんじゃ）,赤留比売命神社（三十歩神社）（あかるひめのみことじんじゃ（さんじゅうぶじんじゃ））,平野区平野東2丁目11番,平野区,,,杭全（くまた）神社の摂社で、新羅より渡来した女神、赤留比売命を祀る。俗称の三十歩神社は、応永年間(1394～1428年)の干ばつ時に法華経三十部を読誦したところ霊験あらたかであったためと言われる。社殿背後の土塁と松山池に、かつての環濠集落の名残が見られる。,,,,,,文化・観光,都市景観資源,文化・観光/都市景観資源,167,37759
135.5660327,34.625384,奥田邸とその裏の道,おくだていとそのうらのみち,奥田邸とその裏の道（おくだていとそのうらのみち）,平野区加美鞍作1丁目8番5号,平野区,,,代々鞍作の庄屋をつとめた奥田家の邸宅。現在の屋敷の建築年代は明らかではないが、手法から江戸時代初期の豪農の家と考えられる。市内に残る数少ない民家である。敷地をはじめ主屋・座敷・長屋門・納屋などが国の重要文化財に指定されている。,,,,,,文化・観光,都市景観資源,文化・観光/都市景観資源,167,37752
135.5548136,34.6282318,杭全神社,くまたじんじゃ,杭全神社（くまたじんじゃ）,平野区平野宮町2丁目1番67号,平野区,,,登録年月日：平成16年10月8日　概要：平安時代の初め、貞観4年（862年）に坂上廣野麿の子當道が、氏神を祭ったのが始まりとされる神社である。社殿のうち第二殿・第三殿は、永正10年（1513年）造営の記録があり、第一殿とあわせて国の重要文化財に、全国で唯一の連歌所は市の指定文化財に、また、境内のクスノキとイチョウが市の保存樹にそれぞれ指定されている。,,,,,,文化・観光,都市景観資源,文化・観光/都市景観資源,167,13069
135.5553398,34.6290316,平野環濠跡,ひらのかんごうあと,平野環濠跡（ひらのかんごうあと）,平野区平野宮町2丁目1番,平野区,,,平野環濠のつくられた時期は不明であるが、戦国時代の動乱の時代に自衛と灌漑、排水あるいは洪水の調節池としての役割を担ったと考えられる。まちの周囲にめぐらされた濠は平野川ともつながっていたことから、舟運もひらけ、繁栄の基礎ともなった。,,,,,,文化・観光,都市景観資源,文化・観光/都市景観資源,167,37763
135.3916501,34.666011,新夕陽ヶ丘,しんゆうひがおか,新夕陽ヶ丘（しんゆうひがおか）,此花区北港緑地2丁目,此花区,,,舞洲スポーツアイランドにある新夕陽ヶ丘には白い屋根の展望台があり、小高い丘の上からは舞洲や大阪港ベイエリアが見渡せる。空気の澄んだ日は、遠く淡路島や明石海峡大橋も見える。また、丘からは日本夕陽百選にも選定されたすばらしい夕日を見ることができる。,,,,,,文化・観光,都市景観資源,文化・観光/都市景観資源,167,19463
135.4066111,34.6662774,舞洲工場・舞洲スラッジセンター,まいしまこうじょう・まいしますらっじせんたー,舞洲工場・舞洲スラッジセンター（まいしまこうじょう・まいしますらっじせんたー）,此花区北港白津1丁目2番28号,此花区,,,港から舞洲へ此花大橋を渡ると、一際目立つ建物が２つ見える。左側に見えるのが舞洲工場である。舞洲工場は、焼却設備と粗大ごみ処理設備が併設され、最新の公害防止施設の採用や最大限の余熱利用を行っている。右側に見える舞洲スラッジセンターは、下水汚泥を効率的に集中処理する施設である。この建物や煙突などの外観デザインは、環境保護芸術家として世界的に著名なフリーデンスライヒ・フンデルトヴァッサー氏が担当し、外壁や屋上に木々を取り入れ自然との調和を図り、全体として｢技術とエコロジーと芸術の調和｣を表している。,,,,,,文化・観光,都市景観資源,文化・観光/都市景観資源,167,19462
135.406283,34.6692268,舞洲工場・舞洲スラッジセンター,まいしまこうじょう・まいしますらっじせんたー,舞洲工場・舞洲スラッジセンター（まいしまこうじょう・まいしますらっじせんたー）,此花区北港白津2丁目2番7号,此花区,,,港から舞洲へ此花大橋を渡ると、一際目立つ建物が２つ見える。左側に見えるのが舞洲工場である。舞洲工場は、焼却設備と粗大ごみ処理設備が併設され、最新の公害防止施設の採用や最大限の余熱利用を行っている。右側に見える舞洲スラッジセンターは、下水汚泥を効率的に集中処理する施設である。この建物や煙突などの外観デザインは、環境保護芸術家として世界的に著名なフリーデンスライヒ・フンデルトヴァッサー氏が担当し、外壁や屋上に木々を取り入れ自然との調和を図り、全体として｢技術とエコロジーと芸術の調和｣を表している。,,,,,,文化・観光,都市景観資源,文化・観光/都市景観資源,167,19508
135.4139191,34.6665105,此花大橋,このはなおおはし,此花大橋（このはなおおはし）,此花区北港2丁目、北港白津1丁目,此花区,,,此花大橋は、此花区北港(既成市街地）と、舞州（人工島）を結ぶ橋として平成2年（1990年）に完成した、全長1.7ｋｍの長大橋である。主橋部は、世界でも珍しいモノケーブル自碇式吊橋（主径間300ｍ）と呼ばれる形式で、１本のメインケーブルによって橋桁を吊り下げている構造となっている。此花大橋の名前は、此花区のシンボルとなる橋として、市民に親しまれるように命名された橋で、橋上からの眺望はすばらしく、大阪港を代表する橋の一つである。,,,,,,文化・観光,都市景観資源,文化・観光/都市景観資源,167,19458
135.4379345,34.6444272,港大橋,みなとおおはし,港大橋（みなとおおはし）,港区海岸通3丁目・住之江区南港東9丁目間,港区,,,登録年月日：平成15年4月11日　概要：昭和49年（1974年）に完成した最大支間長510ｍのダブルデッキ形式のゲルバートラス橋で、阪神高速道路に架けられた橋の中で最も長い支間長を持ち、トラス橋としては世界第3位の規模を誇っている。また、橋下を4万トン級の大型コンテナ船が航行できるよう、海面から桁下までは50ｍ以上の空間が確保されている。そのスケールや色彩、重量感から、大阪港のランドマークになっている。,,,,,,文化・観光,都市景観資源,文化・観光/都市景観資源,167,13061
135.4592933,34.6473944,千歳橋と千歳渡船場,ちとせばしとちとせとせんじょう,千歳橋と千歳渡船場（ちとせばしとちとせとせんじょう）,大正区北恩加島2丁目5番、鶴町4丁目1番,大正区,,,千歳渡船は大正区鶴町4 丁目と同区北恩加島2 丁目を結んでいる(岸壁間371m)。鶴町側からは、多くの船が浮かぶ大正内港のかなたに、昭和山(標高33m)や千島団地等が眺められ、尻無川の広々とした河口風景ともあいまって、ウォーターフロントの美しい景観となっている。平成15年4月には、この渡しの上に橋長365m、海面からの高さ28m の千歳橋が完成し大正区の新たなランドマークとなっている。,,,,,,文化・観光,都市景観資源,文化・観光/都市景観資源,167,19455
135.4586862,34.646372,大正区の渡船場の景観,たいしょうくのとせんじょうのけいかん,大正区の渡船場の景観（たいしょうくのとせんじょうのけいかん）,大正区北恩加島2丁目5番、鶴町4丁目1番,大正区,,,大正区は四方を川と海に囲まれた地域であり、橋梁が整備された現在も、渡船は、区民の生活に欠かせない貴重な足としての役割を担っている。市内に8ヶ所ある渡船場のうち7ヶ所は大正区にあり、その景観には、水の都に思いを馳せさせるとともに、深く歴史を感じさせる力がある。■千歳渡船場：大正区鶴町３丁目と同区北恩加島２丁目を結ぶ（岸壁間371メートル）。,,,,,,文化・観光,都市景観資源,文化・観光/都市景観資源,167,19512
135.4368349,34.6514545,大阪市築港赤レンガ倉庫,おおさかしちっこうあかれんがそうこ,大阪市築港赤レンガ倉庫（おおさかしちっこうあかれんがそうこ）,港区海岸通2丁目6番1号,港区,,,大正12年（1923年）、住友倉庫により港湾倉庫として建設。港区では空襲にも焼け残った数少ない建造物。現在は大阪市が管理している。耐震上の問題から閉鎖しているが、広く市民に親しんでいただけるよう隣接する広場を開放するなど、今後とも倉庫の活用に向けた検討を行うこととしている。,,,,,,文化・観光,都市景観資源,文化・観光/都市景観資源,167,19285
135.4684237,34.6477728,大正内港のはしけ桟橋,たいしょうないこうのはしけさんばし,大正内港のはしけ桟橋（たいしょうないこうのはしけさんばし）,大正区千島3丁目24番,大正区,,,大正中期から昭和初期、千島新田と泉尾新田一帯に、運河・貯木場・水路の開削と道路・橋梁・宅地盛土などの開発工事が実施され、材木業者が誘致された。昭和7、8年（1932､1933年）頃には業者数約600戸の木材街が出現し､その木材市場は業界の一大中心地となった。昭和50年（1975年）に現在の原型となる「大正内港はしけ桟橋」が整備され、わずかにその面影をとどめている。貯木場の移転後に整備され多くの船舶が係留されている桟橋の姿は、港らしい景観を作り出している。,,,,,,文化・観光,都市景観資源,文化・観光/都市景観資源,167,19453
135.4740562,34.6491684,千島公園（昭和山）,ちしまこうえん（しょうわやま）,千島公園（昭和山）（ちしまこうえん（しょうわやま））,大正区千島2丁目7番,大正区,,,千島公園は、昭和51年(1976年）4月に開園された約11.2haの区を代表する総合公園である。千島公園内にある昭和山は、江戸時代に造られた天保山を模して昭和に造られた人工の山である。クスノキやケヤキなどが茂り、ツツジ、ヤマブキ、クチナシ、アセビが花を咲かせる大正区のシンボルとなっている。,,,,,,文化・観光,都市景観資源,文化・観光/都市景観資源,167,19452
135.4790674,34.6432484,大正区の渡船場の景観,たいしょうくのとせんじょうのけいかん,大正区の渡船場の景観（たいしょうくのとせんじょうのけいかん）,大正区平尾1丁目1番、西成区津守2丁目8番,大正区,,,大正区は四方を川と海に囲まれた地域であり、橋梁が整備された現在も、渡船は、区民の生活に欠かせない貴重な足としての役割を担っている。市内に8ヶ所ある渡船場のうち7ヶ所は大正区にあり、その景観には、水の都に思いを馳せさせるとともに、深く歴史を感じさせる力がある。■落合下渡船場：大正区平尾１丁目と西成区津守２丁目を結ぶ（岸壁間138メートル）。,,,,,,文化・観光,都市景観資源,文化・観光/都市景観資源,167,19510
135.4625003,34.6565185,大正区の渡船場の景観,たいしょうくのとせんじょうのけいかん,大正区の渡船場の景観（たいしょうくのとせんじょうのけいかん）,大正区泉尾7丁目13番、港区福崎1丁目3番,大正区,,,大正区は四方を川と海に囲まれた地域であり、橋梁が整備された現在も、渡船は、区民の生活に欠かせない貴重な足としての役割を担っている。市内に8ヶ所ある渡船場のうち7ヶ所は大正区にあり、その景観には、水の都に思いを馳せさせるとともに、深く歴史を感じさせる力がある。■甚兵衛渡船場：大正区泉尾７丁目と港区福崎１丁目を結ぶ（岸壁間94メートル,,,,,,文化・観光,都市景観資源,文化・観光/都市景観資源,167,19450
135.479341,34.6511441,木津川水門,きづがわすいもん,木津川水門（きづがわすいもん）,大正区三軒家東3丁目6番,大正区,,,木津川水門は、造船所などがならぶ木津川にあるアーチ型水門である。台風などで押し寄せてくる大阪湾からの高潮をせき止めることを目的に、昭和45年（1970年）11月に整備された。アーチ型ゲートの主水門とスイング式ゲートの副水門からなっており、主水門の径間は57ｍ、副水門の径間は15ｍである。ともに緑色で彩られ象徴的な景観を呈している。,,,,,,文化・観光,都市景観資源,文化・観光/都市景観資源,167,19451
135.4788114,34.6497493,大正区の渡船場の景観,たいしょうくのとせんじょうのけいかん,大正区の渡船場の景観（たいしょうくのとせんじょうのけいかん）,大正区千島1丁目29番、西成区北津守4丁目15番,大正区,,,大正区は四方を川と海に囲まれた地域であり、橋梁が整備された現在も、渡船は、区民の生活に欠かせない貴重な足としての役割を担っている。市内に8ヶ所ある渡船場のうち7ヶ所は大正区にあり、その景観には、水の都に思いを馳せさせるとともに、深く歴史を感じさせる力がある。■落合上渡船場：大正区千島１丁目と西成区北津守４丁目を結ぶ（岸壁間100メートル）。,,,,,,文化・観光,都市景観資源,文化・観光/都市景観資源,167,19509
135.4571387,34.6642825,桜通り,さくらどおり,桜通り（さくらどおり）,港区磯路3丁目～弁天3丁目,港区,,,桜通りには、南北800ｍに渡ってソメイヨシノとサトザクラが植えられている。桜並木は、地域住民により植えられ、管理されているもので、港区の桜の名所となっている。桜の開花時期には地元愛護会によりぼんぼりが飾られる。,,,,,,文化・観光,都市景観資源,文化・観光/都市景観資源,167,19286
135.4742671,34.6673051,旧岩崎運河,きゅういわさきうんが,旧岩崎運河（きゅういわさきうんが）,西区千代崎3丁目、大正区三軒家西1丁目、2丁目地先,西区,,,木津川と尻無川を結ぶ長さ560ｍの運河。尻無川が大型船の航行に不向きであったため、尻無川と木津川を結ぶために大正9年（1920年）に開削された。下流には、昭和3年（1928年）に岩崎運河橋梁が架けられ、ＪＲ環状線の一部となっている。右岸には、岩崎橋地区の開発に合わせて親水性の高い空間が整備されている。なお、現在は木津川分派点から旧岩崎運河を含む河口までが尻無川である。,,,,,,文化・観光,都市景観資源,文化・観光/都市景観資源,167,19277
135.4799332,34.6715526,大阪アドプト・リバー・千代崎（木津川右岸）,おおさかあどぷと・りばー・ちよざき（きづがわうがん））,大阪アドプト・リバー・千代崎（木津川右岸）（おおさかあどぷと・りばー・ちよざき（きづがわうがん）））,西区千代崎2丁目、3丁目地先,西区,,,水の都大阪再生構想の一環として大阪府により木津川右岸に船着場と遊歩道が整備された。それに伴い、平成17年（2005年）、千代崎連合振興町会と大阪府との間でアドプトリバー・プログラム協定が締結され、本区間は美化・清掃活動により美しい景観が保たれている。,,,,,,文化・観光,都市景観資源,文化・観光/都市景観資源,167,19276
135.476138,34.6690373,京セラドーム大阪,きょうせらどーむおおさか,京セラドーム大阪（きょうせらどーむおおさか）,西区千代崎3丁目,西区,,,平成9年（1997年）にオープンした全天候型の多目的ドーム。アリーナ上部の大屋根の外周に、さらに小型の屋根が取り囲むようにうねりながら続いている点が特徴的。プロ野球やスポーツイベント、文化イベントなど、年間を通じて各種イベント等に活用されている。,,,,,,文化・観光,都市景観資源,文化・観光/都市景観資源,167,19278
135.4813864,34.6689398,道頓堀川水門,どうとんぼりがわすいもん,道頓堀川水門（どうとんぼりがわすいもん）,西区南堀江4丁目、浪速区幸町3丁目,西区,,,平成12年度（2001年3月）完成。東横堀川水門とあわせ、高潮防御機能、水質浄化機能、舟運活性化機能などの役割を果たしている。木津川の対岸にある岩崎橋地区の景観に配慮した設計となっており、近未来的な外観デザインが特徴的である。,,,,,,文化・観光,都市景観資源,文化・観光/都市景観資源,167,19281
135.4561375,34.6756399,安治川水門,あじがわすいもん,安治川水門（あじがわすいもん）,港区弁天6丁目,港区,,,大阪ではジェーン台風や第2室戸台風など高潮による大きな被害を受けてきたことから、その対策として、昭和45年（1970年）に建設された。耐震、耐風の安全性や、船舶航行時の必要上部空間を確保出来ることからアーチ型水門（幅57ｍ）が採用された。,,,,,,文化・観光,都市景観資源,文化・観光/都市景観資源,167,19284
135.4721785,34.6787866,島谷家住宅,しまたにけじゅうたく,島谷家住宅（しまたにけじゅうたく）,西区本田4丁目9番3号,西区,,,本田4丁目には戦災を逃れた長屋の街並みが残っている。その一角にある長屋住宅では、１階に格子の玄関や出格子の窓が見られ、１階屋根と2階屋根の間にうだつが上がっている。,,,,,,文化・観光,都市景観資源,文化・観光/都市景観資源,167,19279
135.4746538,34.6853075,トンネルの路地,とんねるのろじ,トンネルの路地（とんねるのろじ）,福島区野田2丁目17番12号,福島区,,,野田商店街を北から南へと安治川の方へ抜ける途中の大野町公園を少し通りすぎた所にトンネルの路地がある。この路地は古い民家と薬屋さんの間の長さが10ｍにも満たない狭い通路であるが、民家の屋根が路地の上を覆いトンネルになっている。,,,,,,文化・観光,都市景観資源,文化・観光/都市景観資源,167,19441
135.4725504,34.6842833,野田緑道,のだりょくどう,野田緑道（のだりょくどう）,福島区野田4～5丁目,福島区,,,野田緑道は、昭和60年3月に廃線となった中央卸売市場への引き込み線跡地を公園として、整備したものである。地域の環境にうるおいを与える公園として整備され、現在では住民の憩いの空間として親しまれている。,,,,,,文化・観光,都市景観資源,文化・観光/都市景観資源,167,19443
135.4821821,34.6821585,日本聖公会川口基督教会,にほんせいこうかいかわぐちきりすときょうかい,日本聖公会川口基督教会（にほんせいこうかいかわぐちきりすときょうかい）,西区川口1丁目3番8号,西区,,,煉瓦造の聖堂は大正9年（1920年）に竣工。設計者は建築家ウィリアム・ウィルソン。東側に玄関ホールを設け、東南角に高さ19mの搭屋を構える。平成7年（1995年）の阪神・淡路大震災で大きな被害を受けたが、関係者の熱意により修復された。,,,,,,文化・観光,都市景観資源,文化・観光/都市景観資源,167,19283
135.4801218,34.6835287,安治川,あじがわ,安治川（あじがわ）,西区川口2丁目、福島区野田1丁目～港区弁天6丁目、此花区西九条7丁目地先,西区,,,貞享元年（1684年）、幕府の命を受けた河村瑞賢によって開削された。その結果、大阪の街の中心へ船の出入りが容易になり大阪の発展に寄与した。河川の両岸には、舟運が盛んだったころを偲ばせる工場や倉庫などが建ち並び、「大阪港開港の地」の碑をはじめ、多くの石碑が存在している。,,,,,,文化・観光,都市景観資源,文化・観光/都市景観資源,167,19273
135.477592,34.6842826,大阪市中央卸売市場本場,おおさかしちゅうおうおろしうりしじょうほんじょう,大阪市中央卸売市場本場（おおさかしちゅうおうおろしうりしじょうほんじょう）,福島区野田1丁目1番86号,福島区,,,大阪市中央卸売市場本場は、青果・水産物とその加工品や加工食料品を扱う卸売市場。西日本一の取扱高を誇る大規模集散市場である。近年は食品流通の基幹的役割を果たす機能や耐震構造の施設への建替を行い、安治川沿いには船着場や緑道が整備され区民の憩の場になっている。,,,,,,文化・観光,都市景観資源,文化・観光/都市景観資源,167,19439
135.4542477,34.689499,澪標住吉神社,みおつくしすみよしじんじゃ,澪標住吉神社（みおつくしすみよしじんじゃ）,此花区伝法3丁目1番6号,此花区,,,延暦23年（804年）、遣唐使の航路安全を祈願してほこらを造り、一行の帰路を迎えるため、澪標（みおつくし）を立てたのがはじまりといわれている。後に、土地の守護神・海上交通の神として神殿境内が整えられた。澪標は、大阪市の市章のデザインになっている。,,,,,,文化・観光,都市景観資源,文化・観光/都市景観資源,167,19460
135.4546108,34.6887585,旧鴻池本店・本宅,きゅうこうのいけほんてん・ほんたく,旧鴻池本店・本宅（きゅうこうのいけほんてん・ほんたく）,此花区伝法4丁目3番55号,此花区,,,旧本店は、明治43年（1910年）に建てられた、クラシック・モダンな木造洋館である。内部は流れるような美しい曲線と曲面、平滑な壁面などを特徴とするアールヌーボー様式を取り入れており、全国的にみても貴重な建物といえる。日本建築学会から｢特に重要なもので注目すべき建築物｣に選定された。旧本宅は旧本店と前後して建てられた町屋風の建物で、2階内部の装飾は、著名な彫刻家、相原雲楽の作品である。,,,,,,文化・観光,都市景観資源,文化・観光/都市景観資源,167,19461
135.4798416,34.6897882,春日神社（野田藤発祥の地）,かすがじんじゃ（のだふじはっしょうのち）,春日神社（野田藤発祥の地）（かすがじんじゃ（のだふじはっしょうのち））,福島区玉川2丁目2番7号,福島区,,,春日神社は、新なにわ筋、玉川南公園の東、緑の玉垣に囲まれた小さな祠。野田村の庄屋であった藤家の氏神として祭られ、往時は広大な境内に大木に絡まりフジが一面に咲いていた。室町幕府二代将軍・足利義詮や豊臣秀吉もフジ見物に訪れたと伝わる。江戸時代は「藤之宮」とよばれ、この地のフジは「野田藤」の名で全国的に知られるようになった。祭神は天児屋根命・天照大神・宇賀御魂神である。その創建は藤原氏の分流、藤原藤足が、この地に移住して、その祖神春日明神を勧請したと、藤家に伝わる『藤伝記』にある。,,,,,,文化・観光,都市景観資源,文化・観光/都市景観資源,167,19438
135.4791752,34.6883718,野田恵美須神社,のだえびすじんじゃ,野田恵美須神社（のだえびすじんじゃ）,福島区玉川4丁目1番1号,福島区,,,野田恵美須神社は「野田のえべっさん」で親しまれている。いつごろ創建されたのかは不明であるが、境内にある御影石に永久3年（1115年）と刻まれていることから、その頃と推測される。古来から「恵美須の大神」は漁業の神として祀られており、当時このあたりは難波八十島と呼ばれ、漁業中心の地域だった。毎年1月の十日戎には多くの参拝者で賑わい、夏祭りには地車・太鼓・鯛鉾の巡行が行われるなど、地元の氏神として信仰を集めている。,,,,,,文化・観光,都市景観資源,文化・観光/都市景観資源,167,19440
135.4753834,34.688654,野田の長屋,のだのながや,野田の長屋（のだのながや）,福島区野田3丁目13番38号～41号,福島区,,,福島区は戦災の被害にあまり遭わなかったため、長屋など昔の住居が比較的多く残っており、うだつのある家もある。昭和に入ってガラスが比較的安価に入手出来るようになり、大きくガラス窓を配した長屋が人気だった。,,,,,,文化・観光,都市景観資源,文化・観光/都市景観資源,167,19442
135.4845348,34.6906158,莫大小（メリヤス）会館,めりやすかいかん,莫大小（メリヤス）会館（めりやすかいかん）,福島区福島3丁目1番39号,福島区,,,堂島大橋北詰に位置する「莫大小（メリヤス）会館」は、大阪輸出莫大小工業組合が、組合の事務所として、昭和4年（1929年）の第1期、昭和12年（1937年）の第2期に分け建設した。伸縮自在なメリヤスは莫大にも小にもなる意味から「莫大小（メリヤス）」とされた。現在は、テナントビルとして、建築設計事務所やレストラン・カフェ、ギャラリーなどが入居している。（設計：宗建築事務所、施行：大阪橋本組）,,,,,,文化・観光,都市景観資源,文化・観光/都市景観資源,167,19446
135.4740117,34.6995029,樹齢200年のクスノキ,じゅれい200ねんのくすのき,樹齢200年のクスノキ（じゅれい200ねんのくすのき）,福島区海老江3丁目4番20号,福島区,,,樹齢約200年のクスノキが民家の塀から道にせり出して生えている。この木は一見すると塀の外から生えてきたように見えるが、実は根が家の地下までおよんでいる。背の高いトラックが枝に当るたびに振動が伝わり、家が大きく揺れるそうである。,,,,,,文化・観光,都市景観資源,文化・観光/都市景観資源,167,19435
135.4708849,34.6988766,海老江八坂神社,えびえやさかじんじゃ,海老江八坂神社（えびえやさかじんじゃ）,福島区海老江6丁目4番2号,福島区,,,境内に天治(1120年代)の年号が刻まれた石灯籠があり、相当古い神社である。その昔は、牛頭天王社と呼ばれていたが、明治の初め八坂神社に改称された。この辺りは元々河口の砂洲で干拓により村ができ、鎮守社として創建されたものと思われる。毎年12月に古式そのままに、非公開で行われている宮座神事が大阪府無形文化財に指定されている。毎年夏祭りには地車3基、枕太鼓1基の巡行が行われ夏の風物詩のひとつになっている。,,,,,,文化・観光,都市景観資源,文化・観光/都市景観資源,167,19436
135.4871186,34.6948096,福島天満宮,ふくしまてんまんぐう,福島天満宮（ふくしまてんまんぐう）,福島区福島2丁目8番1号,福島区,,,この天満宮は俗に「上之天神」と言われ、祭神は菅原道真・大国主命・事代主神などを祀っている。社伝によれば、延喜元年（901年）に菅原道真が、藤原時平により九州大宰府へ配転させられた際、当地の里人徳次郎が旅情を慰めたことをいたく喜ばれ、この辺りを餓飢島と呼ばれていたのを福島と名づけられた。後年、菅原道真が大宰府で失意のうちに死亡したのを聞いたこの地の里人らが、小祠を建てたのが起源とされている。,,,,,,文化・観光,都市景観資源,文化・観光/都市景観資源,167,19445
135.4848757,34.6951306,旧川崎貯蓄銀行福島出張所(ミナミビル）,きゅうかわさきちょちくぎんこうふくしましゅっちょうじょ,旧川崎貯蓄銀行福島出張所(ミナミビル）（きゅうかわさきちょちくぎんこうふくしましゅっちょうじょ）,福島区福島5丁目17番7号,福島区,,,JR新福島駅近くの国道2号線に面したミナミ株式会社の建物は昭和9年(1934年)に建てられ、国の登録文化財に登録されている。鉄筋2階・地下1階建てのミナミビルは、イオニア式の4本の円柱が取り付けられた正面が後方に緩やかなカーブを描き、奥行き感を出している。玄関の円弧状のひさしには彫刻が施されているほか、ビル内部の柱の頭にもコリント式飾りが見られ、華やかさを演出している。,,,,,,文化・観光,都市景観資源,文化・観光/都市景観資源,167,19448
135.4829259,34.6984696,聖天了徳院,しょうてんりょうとくいん,聖天了徳院（しょうてんりょうとくいん）,福島区鷺洲2丁目14番1号,福島区,,,聖天さんの参道は、聖天通り商店街として江戸時代から栄えていたといわれる。今も住民の憩いの中心的寺院である。真言宗東寺派の寺院で歓喜天を祀っている。古くから「浦江の聖天さん」と呼ばれて親しまれ、大変賑わったところである。また、境内の桜・藤・杜若などが目を楽しませているとともに、丸角流の山門は大阪府の文化財に指定されている。,,,,,,文化・観光,都市景観資源,文化・観光/都市景観資源,167,19437
135.4851365,34.6999312,日本基督教団　大阪福島教会,にほんきりすときょうだん　おおさかふくしまきょうかい,日本基督教団　大阪福島教会（にほんきりすときょうだん　おおさかふくしまきょうかい）,福島区福島7丁目19番16号,福島区,,,大阪福島教会は心斎橋の大丸百貨店を手がけた建築家のヴォーリズの設計により昭和元年（1926年）に起工し、同年12月に竣工、昭和2年（1927年）に献堂式を行った。その後2回の修繕を経て、戦後の昭和25年（1950年）の大修理で装いを一変した。,,,,,,文化・観光,都市景観資源,文化・観光/都市景観資源,167,19449
135.5063874,34.6525337,通天閣,つうてんかく,通天閣（つうてんかく）,浪速区恵美須東1丁目18番6号,浪速区,,,登録年月日：平成15年4月11日　概要：通天閣は、明治45年（1912年）内国勧業博の会場跡に新世界・ルナパークとともに完成。昭和18年（1943年）火災にあい、鉄材供出により解体され姿を消したが、地元の熱い思いを受けて、昭和31年に2代目通天閣が再建された。高さ103ｍ、円形エレベーター、展望台が設置されており、平成8年（1996年）の改修によりリニューアルされたネオンは、交通安全の標語、天気予報にも活用されている。,,,,,,文化・観光,都市景観資源,文化・観光/都市景観資源,167,13064
135.5108179,34.6530481,一心寺,いっしんじ,一心寺（いっしんじ）,天王寺区逢坂2丁目8番69号,天王寺区,,,登録年月日：平成15年4月11日　概要：約800年前に法然上人が、四天王寺の西、海に沈む夕陽が望めるあたりに造った草庵が一心寺のはじまりで、骨仏の寺として全国的に有名。昭和20年（1945年）、戦災によりほとんど焼失したが、その後、昭和41年（1966年）には本堂が再建され、その後も念仏堂・山門など伽藍の再興が進められている。,,,,,,文化・観光,都市景観資源,文化・観光/都市景観資源,167,13062
135.5174064,34.6552594,総本山四天王寺,そうほんざんしてんのうじ,総本山四天王寺（そうほんざんしてんのうじ）,天王寺区四天王寺1丁目11番18号,天王寺区,,,登録年月日：平成15年4月11日　概要：四天王寺は、推古天皇元年（593年）聖徳太子により創建された日本最古の官寺で、南北一列に並ぶ伽藍配置は四天王寺様式と呼ばれる。たびたびの戦火や災害にあたってきたが、西門の石鳥居や、元和9年（1623年）再建の六時堂・五智光院・本坊方丈などは重要文化財に指定されており、中心伽藍は昭和38年（1963年）に鉄筋コンクリート造で再建が完成した。,,,,,,文化・観光,都市景観資源,文化・観光/都市景観資源,167,13063
135.5020311,34.6643423,南海ビル（難波駅・髙島屋）,なんかいびる（なんばえき・たかしまや）,南海ビル（難波駅・髙島屋）（なんかいびる（なんばえき・たかしまや））,中央区難波5丁目1番5号,中央区,,,登録年月日：平成22年7月23日　概要：御堂筋の建設を前後して、昭和7年（1932年）、ミナミの玄関口に4代目の南海難波駅が完成。現在もミナミのターミナルの役割を果たしている。ビルの外壁はすべてテラコッタ※が張り詰められ、連続する半円アーチと古典的な飾りのある円柱の壁面が特徴的である。当時から冷暖房完備されたターミナルビルには、現在もテナントとして髙島屋が営業している。  　※テラコッタ：素焼きの陶器焼き。,,,,,,文化・観光,都市景観資源,文化・観光/都市景観資源,167,13021
135.5003171,34.6676849,御堂筋,みどうすじ,御堂筋（みどうすじ）,中央区北浜3丁目、4丁目～難波5丁目,中央区,,,登録年月日：平成22年7月23日　概要：大阪の都心部を南北に貫くメインストリートであり、美しい景観を有する大阪のシンボルロードでもある。昭和12年（1937年）完成。沿道建物の高さは約31ｍまでに制限され、整然とした景観がつくられた。平成7年（1995年）には、御堂筋沿いの壁面の4ｍ後退などを条件に、軒高50ｍ、最大高さ60ｍまで緩和された。銀杏並木は大阪みどりの百選や大阪市指定文化財に指定されている。,,,,,,文化・観光,都市景観資源,文化・観光/都市景観資源,167,13028
135.5008891,34.6683934,大阪松竹座,おおさかしょうちくざ,大阪松竹座（おおさかしょうちくざ）,中央区道頓堀1丁目9番19号,中央区,,,登録年月日：平成22年7月23日　概要：大正12年（1923年）に関西初の洋式劇場として開館。豪華な装飾のある建物は、道頓堀の顔として人々に親しまれてきた。平成9年（1997年）、建物の正面全体に広がる優美な装飾レリーフ※をそのまま残し新築開場する。多くの劇場でにぎわっていた大阪道頓堀の文化機能を今でも担い続けている。 　※レリーフ：浮き彫りまたは浮き彫り細工。,,,,,,文化・観光,都市景観資源,文化・観光/都市景観資源,167,13006
135.5006317,34.6705297,三津寺,みつでら,三津寺（みつでら）,中央区心斎橋筋2丁目7番12号,中央区,,,登録年月日：平成22年7月23日　概要：奈良時代の難波宮遷都の際に、僧の行基が開いたと伝えられる。寺院の台所や住居部分である庫裡は、昭和8年（1933年）の御堂筋拡張工事のときに新築されたもの。文化5年（1808年）に建てられた木造の本堂は、戦災を無事免れ、庫裡ともども往時の姿をそのまま保っている。,,,,,,文化・観光,都市景観資源,文化・観光/都市景観資源,167,13027
135.5011788,34.668857,道頓堀グリコネオン,どうとんぼりぐりこねおん,道頓堀グリコネオン（どうとんぼりぐりこねおん）,中央区道頓堀1丁目10番1号,中央区,,,登録年月日：平成15年4月11日　概要：昭和10年（1935年）に戎橋のそばに初めてグリコのネオン塔が立って以来、デザインが改良され、現在のもので5代目となる。高さ20ｍ、横幅約11ｍと大規模で、ランナーが大阪城や海遊館、大阪ドーム、通天閣を背景に大阪の街を走るデザインとなっている。日没30分前に点灯し、24時に消灯し、道頓堀川の水面に映し出されるネオンも名物のひとつとなっている。,,,,,,文化・観光,都市景観資源,文化・観光/都市景観資源,167,13057
135.5026172,34.6678652,法善寺水かけ不動尊,ほうぜんじみずかけふどうそん,法善寺水かけ不動尊（ほうぜんじみずかけふどうそん）,中央区難波1丁目2番16号,中央区,,,登録年月日：平成22年7月23日　概要：法善寺の西向不動尊。苔に包まれてきれいな緑色になったお不動さんは「水かけ不動」として親しまれている。お供え物を持ち合わせていなかった参拝客が、思わず水をかけて手を合わせたのが始まりだと伝えられている。,,,,,,文化・観光,都市景観資源,文化・観光/都市景観資源,167,13026
135.5040543,34.668949,道頓堀,どうとんぼり,道頓堀（どうとんぼり）,中央区道頓堀1丁目、宗右衛門町、心斎橋筋2丁目,中央区,,,登録年月日：平成22年7月23日　概要：慶長17年（1612年）、安井道頓らが私財を投じて運河開削に着工、元和元年（1615年）完成。道頓堀川にかかる戎橋は昼夜を問わず多くの人々でにぎわっている。道頓堀川の水辺には道頓堀川遊歩道「とんぼりリバーウォーク」の整備が順次進められており、平成16年（2004年）には戎橋から太左衛門橋までの区間が完成し、現在では戎橋から日本橋までの区間で供用開始している。,,,,,,文化・観光,都市景観資源,文化・観光/都市景観資源,167,13019
135.5140552,34.6685316,高津宮（高津神社）,こうづぐう（こうづじんじゃ）,高津宮（高津神社）（こうづぐう（こうづじんじゃ））,中央区高津1丁目1番29号,中央区,,,登録年月日：平成22年7月23日　概要：平安初期、清和天皇が仁徳天皇の徳政を慕い、難波高津宮（たかつのみや）旧跡の地に社殿を築いてお祀りしたのが始まり。豊臣秀吉が大阪城築城に際して現在の地に移した。桜まつりや夏祭りなどの祭りが行われている。また、古典落語や文楽の舞台となっており、古くより人々に親しまれていることがうかがえる。,,,,,,文化・観光,都市景観資源,文化・観光/都市景観資源,167,13010
135.5341191,34.6667443,東小橋の街並み,ひがしおばせのまちなみ,東小橋の街並み（ひがしおばせのまちなみ）,東成区東小橋3丁目6番～9番,東成区,,,東小橋にある比賣許曽神社の歴史は古く、古事記では新羅から渡来した赤留比売命を祀ったと記され、石山合戦の兵火にあい、現在の地に移ったとされている。比賣許曽神社の周辺は、かつて江戸時代・明治時代の東小橋村の中心であった。現在でも、比賣許曽神社のほか、安楽寺、格子のある民家など、戦災から逃れた昔の街並みが残っている。,,,,,,文化・観光,都市景観資源,文化・観光/都市景観資源,167,19293
135.5365008,34.6668851,玉津の昭和初期の街並み,たまづのしょうわしょきのまちなみ,玉津の昭和初期の街並み（たまづのしょうわしょきのまちなみ）,東成区玉津3丁目2番,東成区,,,玉津周辺は、映画「血と骨」の舞台となった場所である。映画に出てくる市電「大成通一丁目」停車場（昭和44年（1969年）廃止）の周辺には、サンデー毎日創刊時からの看板、昭和8年（1933年）創業の食堂など昭和初期の街並みが残っている。,,,,,,文化・観光,都市景観資源,文化・観光/都市景観資源,167,19291
135.5486873,34.6678326,旧三井釦被服,きゅうみついぼたんひふく,旧三井釦被服（きゅうみついぼたんひふく）,東成区大今里4丁目27番22号,東成区,,,今里周辺には明治中期から大正にかけてボタンや被服の製造に携わる事業者が数多く存在した。そのなかで三井釦被服は最も大きな事業者であった。この建物は、昭和初期に軍の要請で四条畷市に青年学校校舎として建てられたが、青年学校校舎としては使用されず、小学校仮校舎として使用され、戦後になってから現在の地に移築したといわれる。移設当時から被服製品の販売を行っていたが、後に改装して用途の転用を図っている。移築当時は、左右対称の建物であったが、左側部分が取り壊され、非対称となっている。,,,,,,文化・観光,都市景観資源,文化・観光/都市景観資源,167,19289
135.5491434,34.6677517,火袋式道標,ひぶくろしきどうひょう,火袋式道標（ひぶくろしきどうひょう）,東成区大今里4丁目27番,東成区,,,暗越奈良街道と千日前通が交差する場所に立つ道標。上部を四角にくりぬいて火袋とし、上に笠をのせた形状をしている。文化3年（1806年）に釘問屋が建てたといわれており、道標には「右志き山、八尾久宝寺道　左いせ、なら道」と示されている。,,,,,,文化・観光,都市景観資源,文化・観光/都市景観資源,167,19294
135.548083,34.669031,真言宗御室派密華山妙法寺,しんごんしゅうおむろはみっけざんみょうほうじ,真言宗御室派密華山妙法寺（しんごんしゅうおむろはみっけざんみょうほうじ）,東成区大今里4丁目16番50号,東成区,,,聖徳太子の創建と伝えられる。石山合戦で焼失した本堂は、享保年間（1716年頃）に再建された。近世国学の祖と言われる契沖が、延宝7年（1679）から元禄3年（1690）まで住職を務め、ここで「万葉代匠記」を記したといわれ、境内は大阪府の史跡に指定されている。,,,,,,文化・観光,都市景観資源,文化・観光/都市景観資源,167,19290
135.5605154,34.6699545,深江の建築物、史跡群,ふかえのけんちくぶつ、しせきぐん,深江の建築物、史跡群（ふかえのけんちくぶつ、しせきぐん）,東成区深江南3丁目5番～22番,東成区,,,昔、良質の菅の生い繁った深江の地に、笠を縫うことを職業とした大和の一族が集団移住したことが始まりと伝えられている。菅笠・菅細工などの伝統文化が現在も継承され、伊勢神宮式年遷宮に使用する菅笠を納めている。深江集落には、笠縫邑跡として史跡に指定されている深江稲荷神社、法明寺などがあり、茅葺屋根形状の家屋、蔵、地蔵堂も多く見ることができる。,,,,,,文化・観光,都市景観資源,文化・観光/都市景観資源,167,19295
135.5009497,34.6731358,大丸心斎橋店,だいまるしんさいばしてん,大丸心斎橋店（だいまるしんさいばしてん）,中央区心斎橋筋1丁目7番1号,中央区,,,登録年月日：平成22年7月23日　概要：大正14年（1925年）、第1期、第2期工事により心斎橋側が完成し、心斎橋筋に面する中央玄関上部に巨大なピーコックレリーフが掲げられた。昭和8年（1933年）には御堂筋の拡張整備に合わせて、御堂筋側が増築され高さ100尺（約30ｍ）の外観が築かれた。,,,,,,文化・観光,都市景観資源,文化・観光/都市景観資源,167,13016
135.4974281,34.6784723,長瀬産業大阪本社ビル本館,ながせさんぎょうおおさかほんしゃびるほんかん,長瀬産業大阪本社ビル本館（ながせさんぎょうおおさかほんしゃびるほんかん）,西区新町1丁目1番17号,西区,,,昭和3年（1928年）竣工。設計者は初代通天閣を設計した設楽貞雄。中央のバルコニーが特徴的で、外壁はスクラッチタイルを使用している。新館が昭和57年（1982年）に建てられているが、そのデザインは、立面の構成や窓の配列など旧館へ配慮している。,,,,,,文化・観光,都市景観資源,文化・観光/都市景観資源,167,19282
135.5037053,34.6769667,原田産業（大阪本社ビル）,はらださんぎょう（おおさかほんしゃびる）,原田産業（大阪本社ビル）（はらださんぎょう（おおさかほんしゃびる））,中央区南船場2丁目10番14号,中央区,,,登録年月日：平成22年7月23日　概要：昭和3年（1928年）竣工。大きな四角い窓とアーチ型の入口の対比がはっきりしたデザインが特徴的。窓からは吹き抜けの階段が臨める。貿易商社原田産業の本社屋として設計建築され、現在も同社の本社ビルとして使い続けられている。,,,,,,文化・観光,都市景観資源,文化・観光/都市景観資源,167,13024
135.4993813,34.6805536,真宗大谷派　難波別院（南御堂）,しんしゅうおおたには　なんばべついん（みなみみどう）,真宗大谷派　難波別院（南御堂）（しんしゅうおおたには　なんばべついん（みなみみどう））,中央区久太郎町4丁目1番11号,中央区,,,登録年月日：平成22年7月23日　概要：文禄5年（1596年）大谷本願寺として大坂渡辺の地に建立。慶長3年（1598年）大阪城の拡張により現在の地に移転。後に難波別院となり、「北御堂」と呼ばれた津村別院とともに「南御堂」と称されている。戦時中の大阪大空襲により焼失した本堂は、昭和36年（1961年）二重屋根で再建された。屋根裏の垂木を省略した簡素な表現はコンクリート建築の特性を活かしたデザイン。,,,,,,文化・観光,都市景観資源,文化・観光/都市景観資源,167,13014
135.4941032,34.6854973,靱公園,うつぼこうえん,靱公園（うつぼこうえん）,西区靭本町1丁目、2丁目,西区,,,昭和30年（1955年）開園。なにわ筋を挟んで東西に分かれている。東園には、バラ園や四季に彩られるケヤキ並木などがある。バラ園はゆるやかに起伏する地形を生かして、東から西に向かって山、里山、田園、街と広がる「大阪のマチ構造」を表現し、平成16年（2004年）に再整備された。西園には国際大会にも利用できる靱テニスセンターがある。,,,,,,文化・観光,都市景観資源,文化・観光/都市景観資源,167,19274
135.4998057,34.6850626,浄土真宗本願寺派　本願寺津村別院（北御堂）,じょうどしんしゅうほんがんじは　ほんがんじつむらべついん（きたみどう）,浄土真宗本願寺派　本願寺津村別院（北御堂）（じょうどしんしゅうほんがんじは　ほんがんじつむらべついん（きたみどう））,中央区本町4丁目1番3号,中央区,,,登録年月日：平成22年7月23日　概要：大阪の発祥は本願寺の寺内町形成に由来するが、本願寺は信長との石山合戦で大坂を退去。残った門徒たちが天満に集会所を設け、慶長２年（1597年）の町割改革により現在の地に移転。後に津村別院となる。明治元年（1868年）に大阪鎮台が置かれ、また行在所となり明治天皇の行幸が行われた。大阪大空襲により焼失した本堂は、昭和39年（1964年）近代的なコンクリート造で再建された。,,,,,,文化・観光,都市景観資源,文化・観光/都市景観資源,167,13013
135.503896,34.6854933,綿業会館,めんぎょうかいかん,綿業会館（めんぎょうかいかん）,中央区備後町2丁目5番8号,中央区,,,登録年月日：平成16年10月8日　概要：東洋紡の役員であった岡恒夫の遺贈金と関係業界からの醸出金をもとに、綿業関係者の倶楽部会館として、昭和6年（1931年）に竣工した。設計は渡辺節。国の重要文化財に指定されている。,,,,,,文化・観光,都市景観資源,文化・観光/都市景観資源,167,13060
135.5350489,34.673978,矢田地蔵尊,やたじぞうそん,矢田地蔵尊（やたじぞうそん）,東成区東小橋1丁目4番2号,東成区,,,玉造駅から東に入った暗越奈良街道沿いにある。峠越えをして奈良へいくときに、ここで願掛けをしたといわれている。奈良の矢田寺に縁のある地蔵で、地蔵堂の中央に安置された石の地蔵尊には、矢田寺への道しるべが彫られている。,,,,,,文化・観光,都市景観資源,文化・観光/都市景観資源,167,19296
135.538869,34.6742451,北中道の古い街並み,きたなかみちのふるいまちなみ,北中道の古い街並み（きたなかみちのふるいまちなみ）,東成区中道4丁目16番、17番,東成区,,,かつて平野川と暗越奈良街道とが交差する玉津橋は、交通の要所として賑わっていた。玉津橋西詰を北に入ると、通りの両側に蔵や板塀のある民家が連続しており、古い街並みを形成している。,,,,,,文化・観光,都市景観資源,文化・観光/都市景観資源,167,19288
135.5300733,34.6776626,玉造稲荷神社,たまつくりいなりじんじゃ,玉造稲荷神社（たまつくりいなりじんじゃ）,中央区玉造2丁目3番8号,中央区,,,登録年月日：平成22年7月23日　概要：社伝によれば垂仁天皇18年（紀元前12年）の秋にお祀りしたのが始まり。日本書紀に記された玉の故郷に鎮座し、豊臣・徳川時代には大阪城の鎮守神として崇められた。だんご茶会や玉造黒門越瓜食味祭（たまつくりくろもんしろうりしょくみさい）などの行事が行われている。,,,,,,文化・観光,都市景観資源,文化・観光/都市景観資源,167,13017
135.520036,34.6863542,大阪府庁本館,おおさかふちょうほんかん,大阪府庁本館（おおさかふちょうほんかん）,中央区大手前2丁目1番22号,中央区,,,登録年月日：平成22年7月23日　概要：大正15年（1926年）竣工。現行の都道府県庁舎としては最も古い。外壁に石材と白い擬石タイルを広く用い、勾配のない水平の屋根とした外観意匠に特色があり、正面玄関の車寄せには個性的な装飾が施されている。大理石仕上げの床や階段をもつ3層吹き抜けの玄関ホールは、映画やドラマのロケにも利用されている。,,,,,,文化・観光,都市景観資源,文化・観光/都市景観資源,167,13007
135.52912,34.6856805,大阪城公園,おおさかじょうこうえん,大阪城公園（おおさかじょうこうえん）,中央区大阪城,中央区,,,登録年月日：平成22年7月23日　概要：大阪城公園は、都心に位置する開設面積約105.6haの史跡を中心とした広大な歴史公園である。外濠に囲まれた73.4haは国の特別史跡に指定されており、多門櫓・千貫櫓など13棟の重要文化財を有するほか、大阪城天守閣や約600本の桜を楽しめる西の丸庭園、約100品種、約1300本の梅が咲き誇る梅林や市民の森・記念樹の森などがあり、都市に貴重で豊かな緑を提供している。,,,,,,文化・観光,都市景観資源,文化・観光/都市景観資源,167,13005
135.5265429,34.6858748,もと大阪市立博物館,もとおおさかしりつはくぶつかん,もと大阪市立博物館（もとおおさかしりつはくぶつかん）,中央区大阪城1番1号,中央区,,,登録年月日：平成22年7月23日　概要：昭和6年（1931年）に陸軍第4師団司令部の建物として竣工。終戦後は駐留軍施設として接収された。昭和23年（1948年）、大阪市警察本部として返還を受け、その後、府警本部となる。昭和35年（1960年）には博物館として一部開館し、2年後に全面開館した。平成13年（2001年）、大阪歴史博物館の開館に先立ち閉館した。,,,,,,文化・観光,都市景観資源,文化・観光/都市景観資源,167,13029
135.5410188,34.6851007,白山神社,しらやまじんじゃ,白山神社（しらやまじんじゃ）,城東区中浜2丁目3番15号,城東区,,,白山神社は、菊理媛神（くくりひめのかみ）を祭神としている。創建年月は不詳であるが、明治5年(1872年）までは、白山権現と称していた。応永（1394年）の頃から中浜・鴫野・森の諸村の氏神であった。天正4年 (1576年)織田信長が石山本願寺を攻撃した時、社殿を焼失したが、慶長8年（1603年）豊臣秀頼により再建された。しかし、同19年(1614年）大阪冬の陣による兵火で再び焼失した。元和3年（1617年）再建されるが、その後も幾度かの改築・修理が加えられ現在に至っている。,,,,,,文化・観光,都市景観資源,文化・観光/都市景観資源,167,19470
135.4954002,34.6896124,江戸堀コダマビル,えどぼりこだまびる,江戸堀コダマビル（えどぼりこだまびる）,西区江戸堀1丁目10番26号,西区,,,昭和10年（1935年）個人の邸宅として建設。設計・施工はヴォーリズ建築を手がけた岡本工務店でファサードに特色がある。建設当時、敷地の南には江戸堀川が流れ、窓から川面が見えていた。現在は、物販店や貸会議室、音楽室などとして活用されている。国の登録有形文化財に登録されている。,,,,,,文化・観光,都市景観資源,文化・観光/都市景観資源,167,19275
135.4900116,34.6883493,菅澤眼科クリニック,すがさわがんかくりにっく,菅澤眼科クリニック（すがさわがんかくりにっく）,西区土佐堀2丁目3番5号,西区,,,昭和３年（1928年）に建築、昭和22年（1947年）に改修された眼科医院。正面玄関の柱とアーチ、ドイツから輸入されたタイル貼りの外壁、細長いアーチ窓が特徴的である。,,,,,,文化・観光,都市景観資源,文化・観光/都市景観資源,167,19280
135.5002005,34.6879257,大阪ガスビルディング,おおさかがすびるでぃんぐ,大阪ガスビルディング（おおさかがすびるでぃんぐ）,中央区平野町4丁目1番2号,中央区,,,登録年月日：平成22年7月23日　概要：昭和8年（1933年）に御堂筋とともに誕生した。外壁は１・２階を石材で黒くまとめ、上部は白色のタイル張りとなっている。昭和41年（1966年）に北館が増築され、現在も大阪ガスビルとして使用されている。国の登録有形文化財に指定されている。,,,,,,文化・観光,都市景観資源,文化・観光/都市景観資源,167,13003
135.5018781,34.6890466,芝川ビル,しばかわびる,芝川ビル（しばかわびる）,中央区伏見町3丁目3番3号,中央区,,,登録年月日：平成22年7月23日　概要：昭和2年（1927年）竣工。昭和4年（1929年）、ビル内に「芝蘭社家政学園」を開校。戦後はテナントビルとして使われている。竜山石※をふんだんに用いた彫りの深い装飾が施されている。国の登録有形文化財に指定されている。 　※竜山石：兵庫県高砂市に産する石材名。,,,,,,文化・観光,都市景観資源,文化・観光/都市景観資源,167,13012
135.5022561,34.6932438,みおつくしプロムナード,みおつくしぷろむなーど,みおつくしプロムナード（みおつくしぷろむなーど）,北区中之島1丁目,北区,,,登録年月日：平成22年3月5日　概要：市役所の南側に位置する延長約210ｍのケヤキ並木の自転車歩行者専用道となっている。また、期間限定で、夜間のライトアップも行われている。,,,,,,文化・観光,都市景観資源,文化・観光/都市景観資源,167,13044
135.5009356,34.6929598,淀屋橋,よどやばし,淀屋橋（よどやばし）,大阪市北区中之島1丁目、2丁目・中央区北浜3丁目、4丁目間,北区,,,登録年月日：平成16年10月8日　概要：大正10年（1921年）に決定された第一次都市計画事業における御堂筋の建設の一環として土佐堀川に架けられた。北側の大江橋とともに橋梁設計の分野では珍しい一般公募のデザインコンペで大谷瀧雄氏の案が選ばれ、これをもとに実施設計が行われたものである。昭和10年（1935年）に完成。国の重要文化財に指定されている。,,,,,,文化・観光,都市景観資源,文化・観光/都市景観資源,167,13054
135.4989278,34.690984,大阪倶楽部,おおさかくらぶ,大阪倶楽部（おおさかくらぶ）,中央区今橋4丁目4番11号,中央区,,,登録年月日：平成16年10月8日　概要：大阪財界人によって経済都市大阪の進取的社交場として創設された社団法人大阪倶楽部の旧館が、大正11年（1922年）に焼失したあと、安井武雄の設計により大正13年（1924年）に再建された。国の登録有形文化財に登録されている。,,,,,,文化・観光,都市景観資源,文化・観光/都市景観資源,167,13059
135.5041729,34.6870079,船場ビルディング,せんばびるでぃんぐ,船場ビルディング（せんばびるでぃんぐ）,中央区淡路町2丁目5番8号,中央区,,,登録年月日：平成22年7月23日　概要：三休橋筋の拡張を機に大正14年（1925年）竣工。 オフィスと住宅をあわせもつビルとして建設され、注目を集めた。また、船場という場所柄から、装飾性のみでなく、トラックや荷馬車などを引き込むのに便利な機能性を重んじた設計が大きな特徴となっている。国の登録有形文化財に指定されている。,,,,,,文化・観光,都市景観資源,文化・観光/都市景観資源,167,13015
135.5088695,34.6882223,道修町の界隈・古い家屋,どしょうまちのかいわい・ふるいかおく,道修町の界隈・古い家屋（どしょうまちのかいわい・ふるいかおく）,中央区道修町1丁目～3丁目,中央区,,,登録年月日：平成22年7月23日　概要：道修町は薬業関連会社が多く、江戸時代からこのあたり一帯は、町の人たちが子弟や丁稚のためにお金を出し合って塾や学校をつくり、商売と勉学を両立させていた。戦災を逃れたこの界隈には老舗の看板を掲げる建物が今も現役で残っている。,,,,,,文化・観光,都市景観資源,文化・観光/都市景観資源,167,13020
135.503869,34.689475,日本基督教団浪花教会,にほんきりすときょうだんなにわきょうかい,日本基督教団浪花教会（にほんきりすときょうだんなにわきょうかい）,中央区高麗橋2丁目6番2号,中央区,,,登録年月日：平成22年7月23日　概要：明治10年（1877年）、日本人によって設立された最初の自給教会「浪花公会」が前身。教会堂は昭和5年（1930年）に建設された。礼拝室にある外観からでもわかる大きなアーチ窓のステンドグラスが印象的である。,,,,,,文化・観光,都市景観資源,文化・観光/都市景観資源,167,13022
135.5060748,34.6889934,伏見町付近の街並み（青山ビル・伏見ビル）,ふしみちょうふきんのまちなみ（あおやまびる・ふしみびる）,伏見町付近の街並み（青山ビル・伏見ビル）（ふしみちょうふきんのまちなみ（あおやまびる・ふしみびる））,中央区伏見町2丁目2番,中央区,,,登録年月日：平成22年7月23日　概要：伏見町には、青山ビルや伏見ビルといった戦前の建築物が当時と変わらない姿で今も存在している。青山ビルは大正10年（1921年）に洋館の邸宅として建てられ、ビル全体を覆う蔦が四季折々の姿を見せる。伏見ビルは大正12年（1923年）にホテルとして建てられ、円形の飾り窓などの外観が特徴的である。両ビルとも、国の登録有形文化財に指定されている。,,,,,,文化・観光,都市景観資源,文化・観光/都市景観資源,167,13025
135.5067991,34.6886898,旧小西家住宅,きゅうこにしけじゅうたく,旧小西家住宅（きゅうこにしけじゅうたく）,中央区道修町1丁目6番10号,中央区,,,登録年月日：平成15年4月11日　概要：旧小西儀助商店（現コニシ株式会社）の旧店舗・住宅で、明治36年（1903年）に一部3階建で完成、堺筋の拡幅で西側が切り取られ、のち3階部分を撤去して現在の姿になった。船場に残る数少ない町屋の遺構のひとつとして、薬種問屋の形態を残した土蔵造り風の外観が特徴で、重要文化財に指定されている。内部は非公開。,,,,,,文化・観光,都市景観資源,文化・観光/都市景観資源,167,13056
135.5063578,34.6875146,生駒時計店（生駒ビルヂング）,いこまとけいてん（いこまびるぢんぐ）,生駒時計店（生駒ビルヂング）（いこまとけいてん（いこまびるぢんぐ））,中央区平野町2丁目2番12号,中央区,,,登録年月日：平成16年10月8日　概要：明治3年（1870年）に高麗橋5丁目で創業した生駒時計店が、御堂筋の拡幅と地下鉄工事を機に現在地に当ビルを新築。昭和5年（1930年）に竣工した。設計は宗兵藏。国の登録有形文化財に登録されている。,,,,,,文化・観光,都市景観資源,文化・観光/都市景観資源,167,13058
135.5095419,34.6893435,高麗橋,こうらいばし,高麗橋（こうらいばし）,中央区東高麗橋・高麗橋1丁目間,中央区,,,登録年月日：平成22年7月23日　概要：慶長9年（1604年）、立派な擬宝珠（ぎぼし）をもつ橋として架けられた高麗橋は、江戸時代に12あった公儀橋（幕府直轄管理の橋）のなかでも特に重要視され、西詰には幕府の高札（公報板）が立てられた。西日本各地への街道の起点とされ、これを表す里程元標が置かれた。その跡を示す碑が東詰め北側に立っている。,,,,,,文化・観光,都市景観資源,文化・観光/都市景観資源,167,13011
135.5028086,34.6911092,愛珠幼稚園,あいしゅようちえん,愛珠幼稚園（あいしゅようちえん）,中央区今橋3丁目1番11号,中央区,,,登録年月日：平成22年7月23日　概要：明治34年（1901年）竣工。園舎としてはめずらしい御殿風の建築様式。築後100年以上経ってもなお現役の木造園舎は日本最古である。遊戯室は吹き抜けになっている。天井は寺院などにみられる格天井。建設当時からのシャンデリアが今も飾られている。園舎は国の重要文化財に指定されている。,,,,,,文化・観光,都市景観資源,文化・観光/都市景観資源,167,13001
135.5063686,34.6907358,新井ビル,あらいびる,新井ビル（あらいびる）,中央区今橋2丁目1番1号,中央区,,,登録年月日：平成22年7月23日　概要：大正11年（1922年）、大日本報徳銀行大阪支店として建てられ、新井証券を経て新井ビルとなる。外観は完全な左右対称で、茶褐色のタイルの外壁が街に馴染んでいる。国の登録有形文化財に指定されている。,,,,,,文化・観光,都市景観資源,文化・観光/都市景観資源,167,13002
135.5072586,34.6912968,大阪証券取引所ビル,おおさかしょうけんとりひきじょびる,大阪証券取引所ビル（おおさかしょうけんとりひきじょびる）,中央区北浜1丁目8番16号,中央区,,,登録年月日：平成22年7月23日　概要：昭和10年（1935年）に完成した旧大阪証券ビル市場館は、ビルの老朽化に伴い、平成16年（2004年）、近代的なガラス張りの超高層ビルに建替えられた。エントランスのドーム部分は当時のままの姿で残されており、ドーム内部の広間と外観は再現保存されている。,,,,,,文化・観光,都市景観資源,文化・観光/都市景観資源,167,13004
135.5074782,34.6917201,北浜レトロビルヂング,きたはまれとろびるぢんぐ,北浜レトロビルヂング（きたはまれとろびるぢんぐ）,中央区北浜1丁目1番26号,中央区,,,登録年月日：平成22年7月23日　概要：明治45年(1912年)、株仲買商の商館として建設。戦後は建築資材の専門商社の本社社屋として利用されたが、平成9年（1997年）、大規模な保存改修工事を経て、建築当時の雰囲気そのままに再生された。２階北側の窓からは土佐堀川越しに中之島公園のバラ園を見渡すことができる。国の登録有形文化財に指定されている。,,,,,,文化・観光,都市景観資源,文化・観光/都市景観資源,167,13008
135.503233,34.691247,適塾,てきじゅく,適塾（てきじゅく）,中央区北浜3丁目3番8号,中央区,,,登録年月日：平成22年7月23日　概要：医師・蘭学者であった緒方洪庵が開いた蘭学塾。洪庵は、天保9年（1838年）、大坂の瓦町に適塾を開いたが、弘化2年（1845年）に過書町（現在の場所）に移転した。幸運にも戦災を免れ、江戸時代後期の町家の姿を現在に伝えている。１階は、洪庵の書斎や家族部屋などがあり、2階には塾生大部屋などがある。国の史跡及び重要文化財に指定されている。,,,,,,文化・観光,都市景観資源,文化・観光/都市景観資源,167,13018
135.5070821,34.692664,難波橋,なにわばし,難波橋（なにわばし）,北区西天満1丁目・中央区北浜1丁目、2丁目間,北区,,,登録年月日：平成22年3月5日　概要：土佐堀川・中之島公園・堂島川に架かる橋。大正4年（1915年）架橋。橋長約190ｍであり、橋の両サイドに「阿」と「吽」それぞれ２体のライオンの像が置かれている。現在の橋は、昭和50年（1975年）に改修されたものであるが装飾部分等は旧来のものが使われている。,,,,,,文化・観光,都市景観資源,文化・観光/都市景観資源,167,13043
135.5040085,34.693533,大阪市中央公会堂,おおさかしちゅうおうこうかいどう,大阪市中央公会堂（おおさかしちゅうおうこうかいどう）,北区中之島1丁目1番27号,北区,,,登録年月日：平成15年4月11日　概要：北浜の株式仲買人・岩本栄之助が私財100万円（現代で約50億円）を大阪市に寄贈し、辰野金吾らの設計により、大正7年（1918年）に建設された（地上3階、地下1階）。ヘレン・ケラーやガガーリンなどの著名人の講演やコンサートなどに活用され、大阪の近代文化の形成に大きく貢献してきた。,,,,,,文化・観光,都市景観資源,文化・観光/都市景観資源,167,13049
135.5033927,34.6934048,大阪府立中之島図書館,おおさかふりつなかのしまとしょかん,大阪府立中之島図書館（おおさかふりつなかのしまとしょかん）,北区中之島1丁目2番10号,北区,,,登録年月日：平成16年10月8日　概要：明治37年（1904年）に住友吉左衛門友純の寄付により、大阪で初めての学術図書館として開館した。設計は野口孫市と日高胖で、施工は久保田小三郎。竣工当初は中央の十字型の建物だけで、大正11年（1922年）に両翼の部分が住友家の寄付をもとに、日高胖の設計によって増築された。国の重要文化財に指定されている。なお、東側にも戦前から近年にかけて別館等が増築された。,,,,,,文化・観光,都市景観資源,文化・観光/都市景観資源,167,13052
135.5110113,34.6903887,ルポンドシエルビル（大林組旧本店ビル）,るぽんどしえるびる（おおばやしぐみきゅうほんてんびる）,ルポンドシエルビル（大林組旧本店ビル）（るぽんどしえるびる（おおばやしぐみきゅうほんてんびる））,中央区北浜東6番9号,中央区,,,登録年月日：平成22年7月23日　概要：大正15年（1926年）大林組の四代目本店ビルとして竣工。平成19年（2007年）に、耐震補強を含む全館の改修工事が行われ、南向いにある大阪大林ビルに入居していたフレンチレストラン、大林組歴史館などが当ビルに移転した。ビル中央のアーチ部が印象的である。,,,,,,文化・観光,都市景観資源,文化・観光/都市景観資源,167,13030
135.5099178,34.6934048,菅原町の土蔵,すがわらちょうのどぞう,菅原町の土蔵（すがわらちょうのどぞう）,北区菅原町6番1号,中央区,,,登録年月日：平成22年3月5日　概要：　　完成年度は不明。大正時代に乾物問屋の蔵として建築されたと推測される。周辺には、その当時の土蔵の一部が倉庫や事務所として使われている。,,,,,,文化・観光,都市景観資源,文化・観光/都市景観資源,167,13036
135.5117214,34.6914206,天神橋,てんじんばし,天神橋（てんじんばし）,北区天神橋１丁目・中央区北浜東間,北区,,,登録年月日：平成22年3月5日　概要：最初の橋は、文禄3年（1594年）に架けられたと伝えられている。現在の橋は、昭和9年（1934年）に架橋されたものであり、橋長約210ｍの鋼アーチとなっている。,,,,,,文化・観光,都市景観資源,文化・観光/都市景観資源,167,13040
135.5008231,34.6993437,お初天神（露天神社）,おはつてんじん（つゆのてんじんじゃ）,お初天神（露天神社）（おはつてんじん（つゆのてんじんじゃ））,北区曽根崎2丁目5番4号,北区,,,登録年月日：平成15年4月11日　概要：露天神社は、創建以来1300年ともいわれ、菅原道真の詠んだ歌から露天神社とも称する。一般には、近松門左衛門の名作「曾根崎心中」の遊女お初にちなんでお初天神と呼ばれている。昭和20年（1945年）、戦災により焼失したため、昭和32年（1957年）に社殿が再建され、平成5年（1993年）の改修により境内は一新されている。,,,,,,文化・観光,都市景観資源,文化・観光/都市景観資源,167,13050
135.5127212,34.6959729,大阪天満宮,おおさかてんまんぐう,大阪天満宮（おおさかてんまんぐう）,北区天神橋2丁目1番8号、5番6号,中央区,,,登録年月日：平成22年3月5日　概要：天暦3年（949年）創建。学問の神様として知られる菅原道真を祭っており、「天満の天神さん」の愛称で親しまれている。現在の本殿は、天保14年（1843年）に再建されたものである。梅花殿・神楽所・参集所は、国の登録文化財に指定されている。,,,,,,文化・観光,都市景観資源,文化・観光/都市景観資源,167,13034
135.5113933,34.6965512,天神橋筋商店街（2丁目）の看板,てんじんばしすじしょうてんがい（にちょうめ）のかんばん,天神橋筋商店街（2丁目）の看板（てんじんばしすじしょうてんがい（にちょうめ）のかんばん）,北区天神橋2丁目,北区,,,登録年月日：平成22年3月5日　概要：天神橋筋商店街（2丁目）の入口にある看板。天神祭で御神霊を出迎えるお迎え人形をモチーフにしている。交差点北側、南側の2箇所に設置されている。,,,,,,文化・観光,都市景観資源,文化・観光/都市景観資源,167,13041
135.5125878,34.6965176,天満天神繁昌亭,てんまてんじんはんじょうてい,天満天神繁昌亭（てんまてんじんはんじょうてい）,北区天神橋2丁目1番34号,北区,,,登録年月日：平成22年3月5日　概要：平成18年（2006年）オープン。天満に落語専門の定席を復活させるため、市民等より寄付を受け建設。天満宮の渡り船をイメージした外観となっており寄付者の名前を記した提灯が吊るされている。地上３階建てで、座席は1、2階の216席。,,,,,,文化・観光,都市景観資源,文化・観光/都市景観資源,167,13042
135.5258463,34.6872842,大阪城天守閣,おおさかじょうてんしゅかく,大阪城天守閣（おおさかじょうてんしゅかく）,中央区大阪城1丁目1番,中央区,,,登録年月日：平成15年4月11日　概要：大阪城は、天正11年（1583年）豊臣秀吉により築かれたが、大坂夏の陣で焼失、堀も石垣も全て徳川幕府の手で作り直された。天守閣は、その後落雷により焼失したままであったが、昭和6年（1931年）、市民の寄付により豊臣秀吉創建時の姿に再建されたもので、鉄筋コンクリート造、外部5層、内部8層で、館内は秀吉と大阪城を中心とした歴史博物館として活用されている。平成9年（1997年）の大改修により美しい姿がよみがえっている。,,,,,,文化・観光,都市景観資源,文化・観光/都市景観資源,167,13055
135.5161074,34.6905885,八軒家浜船着場跡の近くにある石畳の階段,はちけんやはまふなつきばあとのちかくにあるいしだだみのかいだん,八軒家浜船着場跡の近くにある石畳の階段（はちけんやはまふなつきばあとのちかくにあるいしだだみのかいだん）,中央区石町1丁目,中央区,,,登録年月日：平成22年7月23日　概要：この付近は、古くは渡辺の津と呼ばれる船着場で、熊野街道の起点でもあった。平安時代中期から鎌倉時代にかけては「蟻の熊野詣」といわれ、人々はここで上陸して熊野に向かったといわれる。さらに江戸時代には、八軒家浜と呼ばれ、三十石船がつき、人の往来だけでなく、交易の場としてもにぎわった。,,,,,,文化・観光,都市景観資源,文化・観光/都市景観資源,167,13023
135.5209577,34.6923486,川崎橋,かわさきばし,川崎橋（かわさきばし）,北区天満１丁目・都島区網島町間,中央区,,,登録年月日：平成22年3月5日　概要：昭和53年(1978年)架橋。橋長約129ｍの2径間連続斜張橋である。中之島公園と千里の万博記念公園を結ぶ大規模自転車道の一環として架設された。,,,,,,文化・観光,都市景観資源,文化・観光/都市景観資源,167,13035
135.5285426,34.6921241,クリスタルタワー,くりすたるたわー,クリスタルタワー（くりすたるたわー）,中央区城見1丁目2番27号,中央区,,,登録年月日：平成22年7月23日　概要：平成2年（1990年）、大阪ビジネスパークの西側、二つの川が合流する場所に完成した超高層ビル。「中之島からの遠望が新しい水都大阪の代表的な都市景観である」として第12回大阪まちなみ賞※を受賞している。  ※大阪まちなみ賞：景観上優れた建物やまちなみに対して表彰するもので、大阪市・大阪府・（社）大阪府建築士会の3者の共催により昭和56年から実施。,,,,,,文化・観光,都市景観資源,文化・観光/都市景観資源,167,13009
135.5210176,34.696658,造幣局桜の通り抜け,ぞうへいきょくさくらのとおりぬけ,造幣局桜の通り抜け（ぞうへいきょくさくらのとおりぬけ）,北区天満１丁目1番79号,北区,,,登録年月日：平成22年3月5日　概要：造幣局の創業は、明治4年（1871年）4月。明治16年（1883年）に桜のトンネルの「通り抜け」が開始され、造幣局構内大川沿いの全長560ｍの通路を1週間一般開放している。現在、120品種以上340本以上の桜を数え、大半は遅咲きの八重桜である,,,,,,文化・観光,都市景観資源,文化・観光/都市景観資源,167,13038
135.5248296,34.6953625,藤田邸跡（太閤園、藤田邸跡公園、藤田美術館）,ふじたていあと（たいこうえん、ふじたていあとこうえん、ふじたびじゅつかん）,藤田邸跡（太閤園、藤田邸跡公園、藤田美術館）（ふじたていあと（たいこうえん、ふじたていあとこうえん、ふじたびじゅつかん））,都島区網島町9番10号、10番、10番32号,都島区,,,,,,,,,文化・観光,都市景観資源,文化・観光/都市景観資源,167,37728
135.5228408,34.6975719,桜宮橋,さくらのみやばし,桜宮橋（さくらのみやばし）,北区天満1丁目・都島区網島町間,北区,,,登録年月日：平成15年4月11日　概要：昭和5年（1930年）に第一次都市計画事業によって大川（旧淀川）に架けられたアーチ橋で、最大支間は104mとアーチ橋としては戦前では日本最大であった。アーチの両端にロマネスク風の昇降口があり、橋の景観を高めている。意匠指導は武田五一による。銀色に塗られているため、銀橋と呼ばれ親しまれている。,,,,,,文化・観光,都市景観資源,文化・観光/都市景観資源,167,13051
135.5453995,34.6731975,八王子神社御旅所の楠,はちおうじじんじゃおたびしょのくすのき,八王子神社御旅所の楠（はちおうじじんじゃおたびしょのくすのき）,東成区大今里1丁目17番10号,東成区,,,八王子神社御旅所の楠は、樹齢1300年を数えるとされ、明治18年（1886年）の洪水の際には、楠の上に、いかだを組んで難を逃れたという言い伝えがある。幹周11m、樹高25mで、大阪市の保存樹に指定されている。八王子神社御旅所は、この樹の見事さから楠神社とも呼ばれている。,,,,,,文化・観光,都市景観資源,文化・観光/都市景観資源,167,19292
135.5605693,34.6856621,諏訪2丁目の大いちょう,すわにちょうめのおおいちょう,諏訪2丁目の大いちょう（すわにちょうめのおおいちょう）,城東区諏訪2丁目11番8号,城東区,,,大阪市指定＜昭和43年（1968年）10月1日＞の保存樹で、高さ16.5m、幹まわり3.3mに達する。宅地内にあるが、樹高が高いことから遠くから眺められ、落葉の季節には、道一面に黄色いじゅうたんが敷きつめられたように美しくなる。幹まわりから見ても、かなりの樹齢であると推察され、この地域のシンボル的存在である。,,,,,,文化・観光,都市景観資源,文化・観光/都市景観資源,167,19467
135.5438849,34.6880346,中浜下水処理場の桜,なかはまげすいしょりじょうのさくら,中浜下水処理場の桜（なかはまげすいしょりじょうのさくら）,城東区中浜1丁目17番,城東区,,,中浜下水処理場は、大阪市で3番目の下水処理場として昭和35年に通水した。場内に整備された「中浜せせらぎの里」周辺には、約300本の桜並木が毎年春に見事な桜のトンネルを作り、多くの人々の目を楽しませている。,,,,,,文化・観光,都市景観資源,文化・観光/都市景観資源,167,19469
135.565396,34.688781,阿遅速雄神社,あちはやおじんじゃ,阿遅速雄神社（あちはやおじんじゃ）,鶴見区放出東3丁目31番18号,鶴見区,,,天智7年（668年）、熱田神宮に祀られていた草薙の剣を盗んだ者が当地で大嵐に遭った際、放り出した剣をこの神社に一時おさめたのが創始といわれる。その後、剣は熱田神宮に奉還されたと伝えられる。,,,,,,文化・観光,都市景観資源,文化・観光/都市景観資源,167,37737
135.563998,34.6926411,中高野街道の剣街道,なかこうやかいどうのつるぎかいどう,中高野街道の剣街道（なかこうやかいどうのつるぎかいどう）,鶴見区放出東1、2、3丁目付近,鶴見区,,,京都や大阪から和歌山の高野山へお参りする人たちが多く利用した中高野街道は、この辺りでは“剣街道”とも呼ばれていた。“剣街道”の名称は、江戸時代に八剣神社と呼ばれた阿遅速雄神社の参詣道であったことから名づけられたともいわれている。,,,,,,文化・観光,都市景観資源,文化・観光/都市景観資源,167,37736
135.5444401,34.6974922,野崎街道の家並み,のざきかいどうのいえなみ,野崎街道の家並み（のざきかいどうのいえなみ）,城東区蒲生4丁目1～3番,城東区,,,野崎街道は、通称「野崎の観音さん」で知られる曹洞宗福聚山慈眼寺(大東市野崎)へ参詣するルートである。野崎参りは 17世紀後半の延宝(1673～1681)・元禄(1688～1704年)に始まり、明治の末頃まで、大坂の町や近郷から行楽を兼ねてお参りをする人々で賑わった。今でも旧街道沿いに、古い伝統的な家屋が点在しており、かつての街道筋だった面影が残っている。,,,,,,文化・観光,都市景観資源,文化・観光/都市景観資源,167,19466
135.5508264,34.6977433,皇大神宮,こうたいじんぐう,皇大神宮（こうたいじんぐう）,城東区今福南2丁目12番31号,城東区,,,皇大神宮は、天照皇大神（あまてらすおおみかみ）を祭神とし、神宮様と称して広く崇敬され栄えてきた由緒ある神社である。現在の社殿は、享保2年（1742年）、天保13年（1842年）、明治13年（1880年）に改修され、昭和7年（1932年）に大阪城の設計を手がけた古川重春氏の設計により改築された、桃山様式の風雅な流造の社殿である。平安時代末期に摂津国今福村が開発された時、同地に天照皇大神をお祀りしたのが始まりと伝えられている。,,,,,,文化・観光,都市景観資源,文化・観光/都市景観資源,167,19465
135.5792669,34.6922496,比枝神社,ひえじんじゃ,比枝神社（ひえじんじゃ）,鶴見区今津中5丁目5番23号,鶴見区,,,本殿は、安永5年（1776年）に建立され、摂末社には天満宮、大正軍社、歯神之社の三社殿と稲荷神社がある。境内には延宝8年（1680年）に寄進されている320年前の石灯篭が並ぶほか、クスノキなど計13本の樹木は大阪市の保存樹林に指定されている。,,,,,,文化・観光,都市景観資源,文化・観光/都市景観資源,167,37735
135.4905365,34.7053018,梅田スカイビルと新梅田シティ「花野」「中自然の森」,うめだすかいびるとしんうめだしてぃ「はなの」「なかしぜんのもり」,梅田スカイビルと新梅田シティ「花野」「中自然の森」（うめだすかいびるとしんうめだしてぃ「はなの」「なかしぜんのもり」）,北区大淀中1丁目1番88号,中央区,,,登録年月日：平成22年3月5日　概要：平成5年（1993年）竣工。地上40階建ての2棟のビルを地上170ｍの上部でつないだ連結超高層で、屋上には視界360度の空中庭園展望台がある。両棟を行き来するため22階に連絡通路が設けられている。敷地面積の約60％が公開空地として「中自然の森」、「花野」等の庭園となっている。,,,,,,文化・観光,都市景観資源,文化・観光/都市景観資源,167,13031
135.5000125,34.7080024,ちゃやまちプロムナード,ちゃやまちぷろむなーど,ちゃやまちプロムナード（ちゃやまちぷろむなーど）,北区茶屋町16番、17番、19番,北区,,,登録年月日：平成22年3月5日　概要：梅田駅の北東に位置する延長約200ｍの高木のケヤキ並木道である。この道は、地権者自らが将来の町の姿を共有し、細街路を両側４ｍ以上壁面後退して生み出したものである。一部、夜間のライトアップが行われている。,,,,,,文化・観光,都市景観資源,文化・観光/都市景観資源,167,13039
135.5087125,34.7043812,扇町公園,おおぎまちこうえん,扇町公園（おおぎまちこうえん）,北区扇町1丁目、2丁目,中央区,,,登録年月日：平成22年3月5日　概要：大正12年（1923年）開園。面積約7.3haの都市公園で、公園内には扇町プールや大型遊戯施設がある。,,,,,,文化・観光,都市景観資源,文化・観光/都市景観資源,167,13033
135.5104521,34.7047209,扇町キッズパーク（関西テレビ放送）,おおぎまちきっずぱーく（かんさいてれびほうそう）,扇町キッズパーク（関西テレビ放送）（おおぎまちきっずぱーく（かんさいてれびほうそう））,北区扇町2丁目1番7号,中央区,,,登録年月日：平成22年3月5日　概要：平成9年（1997年）竣工。市の土地信託事業により複合文化施設として建設された。現在は、関西テレビ放送の社屋となり、キッズプラザ大阪などが入居している。地上13階建てで、扇町公園に隣接し、ミラーガラス張りのデザインとなっている。,,,,,,文化・観光,都市景観資源,文化・観光/都市景観資源,167,13032
135.5032088,34.7098168,道引地蔵尊,みちびきじぞうそん,道引地蔵尊（みちびきじぞうそん）,北区豊崎1丁目2番7号,北区,,,登録年月日：平成22年3月5日　概要：明治24年（1891年）に建立。4畳半ほどのお堂に、お地蔵さんが佇んでおり、地域の人々の信仰を集めている。,,,,,,文化・観光,都市景観資源,文化・観光/都市景観資源,167,13045
135.5388642,34.7085954,野江水神社,のえすいじんじゃ,野江水神社（のえすいじんじゃ）,城東区野江4丁目1番39号,城東区,,,水波女大神（みずはのめのおおかみ）を祭神とし、一般には水神社・水神さま・水神宮・野江神社などと呼ばれている。伝えられるところによれば、天文2年（1533年）三好政長が榎並城を築く際、たびたび水害を被ったので、水火除難の守護神として城内に小さい祠を造営し、祀ったのが起源といわれている。現在の社殿は、明治18年（1885年）の大洪水で倒壊したため、明治21年（1888年）に再建されている。この地は榎並猿楽発祥の地でもある。,,,,,,文化・観光,都市景観資源,文化・観光/都市景観資源,167,19471
135.5391102,34.7085681,野江水流地蔵尊,のえすいりゅうじぞうそん,野江水流地蔵尊（のえすいりゅうじぞうそん）,城東区野江4丁目1番39号,城東区,,,大阪北部一帯を襲った、未曾有の大洪水時（明治18年）に、当地に流れ着いたとの謂れがあり、城東区民にとって忘れてはならない出来事の証人として、守り伝えなければならないお地蔵さんとされている。地元町会に守られ、地蔵盆などの行事は欠かさず毎年行われている。,,,,,,文化・観光,都市景観資源,文化・観光/都市景観資源,167,19472
135.5210621,34.7111298,飛翔橋,ひしょうばし,飛翔橋（ひしょうばし）,都島区都島本通1丁目～北区長柄東1丁目,都島区,,,都島区善源寺町から、大川を隔てて北区長柄東へ連絡する歩行者専用橋で、昭和59年（1983年）に完成し、主橋梁部の形は、建設当時、わが国にも外国にも例のない二重のアーチ橋（ニールセン・ローゼ桁）である。橋長103.55ｍ、幅員4.00ｍで、鋼桁の色調は白色と肌色を基本としている。,,,,,,文化・観光,都市景観資源,文化・観光/都市景観資源,167,37732
135.5232416,34.7117977,櫻宮御旅所　渡辺綱・駒つなぎの樟（くす）,さくらのみやおたびしょ　わたなべつな・こまつなぎのくす,櫻宮御旅所　渡辺綱・駒つなぎの樟（くす）（さくらのみやおたびしょ　わたなべつな・こまつなぎのくす）,都島区善源寺町1丁目11番26号,都島区,,,明治42年（1909年）まで旧善源寺（ぜんげんじ）村の産土神社（うぶすなじんじゃ）が鎮座したところで、現在の櫻宮御旅所（さくらのみやおたびしょ）に、このクスノキの大樹がある。この木は平安時代の中ごろ、源頼光（みなもとのよりみつ）が社を創建する際に植えたもので、頼光の四天王の一人で、この荘園の管理を任されていた家臣の渡辺綱（わたなべのつな）が参詣するとき馬をつないだとの伝承があるところから「渡辺綱・駒つなぎの樟（くす）」と呼ばれている。,,,,,,文化・観光,都市景観資源,文化・観光/都市景観資源,167,37731
135.5231419,34.7090193,都島神社,みやこじまじんじゃ,都島神社（みやこじまじんじゃ）,都島区都島本通1丁目5番5号,都島区,,,平安後期、後白河法皇が鎮護の神社として創建されたと伝えられる。社殿は太平洋戦争の空襲で焼失したが、昭和24年（1949年）に再建された。境内にある嘉元2年(1304年)銘の石造三重宝篋印塔は、市内最古の石造建造物で府の有形文化財に指定されている。,,,,,,文化・観光,都市景観資源,文化・観光/都市景観資源,167,37733
135.5054031,34.7244015,水道記念館（旧柴島浄水場第1配水ポンプ場）,すいどうきねんかん（きゅうくにじまじょうすいじょうだいいちはいすいぽんぷじょう）,水道記念館（旧柴島浄水場第1配水ポンプ場）（すいどうきねんかん（きゅうくにじまじょうすいじょうだいいちはいすいぽんぷじょう））,東淀川区柴島1丁目3番1号,東淀川区,,,登録年月日：平成16年10月8日　概要：水道記念館の建物は、宗兵藏の設計で、大正3年（1914年）に竣工。市勢発展による人口急増に伴う給水量を確保するため、明治41年（1897年）から始まった第2回水道拡張事業において建てられた送水ポンプ場「旧第1配水ポンプ場」の建物を保存活用した記念館。国の登録有形文化財に登録されている。,,,,,,文化・観光,都市景観資源,文化・観光/都市景観資源,167,13066
135.5207892,34.7177179,毛馬桜之宮公園,けまさくらのみやこうえん,毛馬桜之宮公園（けまさくらのみやこうえん）,北区長柄東2丁目～天神橋1丁目、都島区友渕町1丁目～網島町,北区,,,登録年月日：平成16年10月8日　概要：大川の毛馬閘門から下流の天満橋まで、川の両岸に連なる延長4.2km、面積約30haの都市公園。大川の流れに沿ったプロムナードには桜並木が続く。3月下旬から4月上旬には、ソメイヨシノなど約4700本の桜が満開となる。,,,,,,文化・観光,都市景観資源,文化・観光/都市景観資源,167,13053
135.5212602,34.7181905,淀川神社,よどがわじんじゃ,淀川神社（よどがわじんじゃ）,都島区毛馬町1丁目2番11号,都島区,,,平安時代に淀川河口を護る武士達によって祀られたのを始まりとし、友渕村には氏神として「十五神社」が、毛馬村には氏神として「八幡神社」が祀られていたが、明治時代に他社に合祀された。昭和に入り、平和な街づくりと、明るい郷土の発展を願う熱心な人々の総意によって、旧十五神社の境内地に毛馬町、大東町、友渕町の総鎮守として再建された。,,,,,,文化・観光,都市景観資源,文化・観光/都市景観資源,167,37729
135.5191729,34.7251631,淀川河川敷（都島区）,よどがわかせんじき（みやこじまく）,淀川河川敷（都島区）（よどがわかせんじき（みやこじまく））,都島区毛馬町3丁目地先,都島区,,,淀川河川敷には淀川河川公園が、昭和47年（1972年）から整備されており、当地区は昭和51年（1976年）に整備された。都島区に位置する公園部分は、スポーツのためのグラウンドのほか、芝生広場や野草広場が広がっており、家族そろって楽しめる空間となっている。緑地部分の面積が幅広く、ゆったりした淀川のランドスケープを楽しむことができる。,,,,,,文化・観光,都市景観資源,文化・観光/都市景観資源,167,37730
135.5394012,34.7293515,城北公園,しろきたこうえん,城北公園（しろきたこうえん）,旭区生江3丁目,旭区,,,"登録年月日：平成22年3月5日　概要：昭和9年（1934年）開園。旧淀川の河川敷を利用して造られた約9.5haの都市公園で、公園内には約1.3haの城北菖蒲園があり、毎年6月には約250品種、13,000株の花菖蒲が咲く。",,,,,,文化・観光,都市景観資源,文化・観光/都市景観資源,167,13046
135.5538785,34.7031749,城北川新光製糖の艀,しろきたがわしんこうせいとうのはしけ,城北川新光製糖の艀（しろきたがわしんこうせいとうのはしけ）,城東区今福西6丁目8番,城東区,,,新光製糖は、精製糖、氷砂糖、液糖の製造販売等を業種とする会社である。昭和19年（1944年）に城東区鴫野町に設立、昭和27年（1952年）に今福工場を建設、昭和29年（1954年）に本社を今福に構えた。かつて“水の都”といわれた大阪に本社を置く新光製糖では、地の利を活かしてCO2排出量の少ない、艀（はしけ）輸送を50年以上続けている。,,,,,,文化・観光,都市景観資源,文化・観光/都市景観資源,167,19464
135.5513668,34.7090363,関目2丁目・4丁目の楠並木,せきめにちょうめ・よんちょうめのくすのきなみき,関目2丁目・4丁目の楠並木（せきめにちょうめ・よんちょうめのくすのきなみき）,城東区関目2丁目8番、9番、関目4丁目2番、10番,城東区,,,関目2丁目、4丁目の道路にある楠並木。延長100m強の「クスノキ並木」で、高さ約10ｍ、枝振りも立派で手入れもよく行き届いた「癒しの空間」となっている。真夏の昼下がりや軽やかなそよ風に触れる事の出来る、貴重な緑陰空間である。,,,,,,文化・観光,都市景観資源,文化・観光/都市景観資源,167,19468
135.5594604,34.7113546,大阪信愛女学院,おおさかしんあいじょがくいん,大阪信愛女学院（おおさかしんあいじょがくいん）,城東区古市2丁目7番30号,城東区,,,学院の歴史は明治17年（1884年）に川口居留地に開校したことに始まる。現在地の城東区古市（当時は東成区千林町）に移転した時に建設されたのが本館で、今でも幼稚園から短大まで続く同学院の中で、中学校校舎の一部として使用されている。（開設：昭和7年(1932年)）また、聖堂は、第25回（2005年）大阪まちなみ賞（大阪都市景観建築賞） 大阪市長賞を受賞しており、街路の角地を生かして聖堂の祭壇を配置し、外壁をセットバックさせて街路と一体になった緑地と水盤を設け、周辺環境への積極的な配慮を行っている。,,,,,,文化・観光,都市景観資源,文化・観光/都市景観資源,167,19473
135.5715364,34.7058243,横堤　花と緑のプロムナード,よこづつみ　はなとみどりのぷろむなーど,横堤　花と緑のプロムナード（よこづつみ　はなとみどりのぷろむなーど）,鶴見区横堤4、5丁目,鶴見区,,,西三荘都市下水路の、横堤橋～緑地橋間の約500mを覆蓋し、区民の憩いの場、遊歩道として整備している。「土を感じる道」「石を感じる道」「木を感じる道」「水を感じる道」のゾーンに分け、ベンチや特徴ある植栽を配置し、楽しく歩ける工夫が施されている。,,,,,,文化・観光,都市景観資源,文化・観光/都市景観資源,167,37740
135.5888831,34.7079348,井路の名残り,いじのなごり,井路の名残り（いじのなごり）,鶴見区安田3丁目、茨田大宮1丁目付近,鶴見区,,,鶴見区は低湿地帯であったため、人口の水路である井路が網の目のように通っており、戦後しばらくまで三枚板でできた船が人や物を載せて行き来していた。昭和40年代以降埋め立てられ、ほとんどが道路になってしまったが、一部に昔の風情を残している。,,,,,,文化・観光,都市景観資源,文化・観光/都市景観資源,167,37739
135.5932348,34.712305,鶴見はなぽ～とブロッサム,つるみはなぽーとぶろっさむ,鶴見はなぽ～とブロッサム（つるみはなぽーとぶろっさむ）,鶴見区茨田大宮2丁目7番70号,鶴見区,,,多くの人々が花と出会い、花に親しみ、より豊かな暮らしを育むためのアメニティスペースとして誕生。月下美人の花のイメージを表現した外観が特徴的。花の卸売市場として西日本の中核的役割を果たす「大阪鶴見花き地方卸売市場」と、ショッピングだけでなく、毎週末のイベントなど様々な楽しみ方ができる日本初の本格的アウトレットモール「三井アウトレットパーク大阪鶴見」からなる、流通・商業が一体となった複合型施設である。,,,,,,文化・観光,都市景観資源,文化・観光/都市景観資源,167,37738
135.5538636,34.7250092,千林の長屋,せんばやしのながや,千林の長屋（せんばやしのながや）,旭区千林2丁目14番,旭区,,,登録年月日：平成22年3月5日　概要：昭和12年（1937年）建築の2階建長屋。9軒（4軒と5軒）が軒を連ね、通りに玄関と台所が面し、台所部分の屋根は入母屋式となっている。,,,,,,文化・観光,都市景観資源,文化・観光/都市景観資源,167,13047
135.5356074,34.7347419,菅原城北大橋,すがはらしろきたおおはし,菅原城北大橋（すがはらしろきたおおはし）,東淀川区豊里1丁目・旭区生江3丁目間,東淀川区,,,登録年月日：平成15年4月11日　概要：大阪市で最初に有料道路の事業を取り入れて平成元年に完成した斜張橋で、普通車の通行料が100円であることから、百円橋と呼ばれ親しまれている。2つのタワーが他本数のケーブルに力を分散して支えている姿が美しい。この橋が架かる淀川には、ヨシ原や天然記念物のイタセンパラの棲むワンドがあり、建設にあたってはこれらの保全に配慮された。また城北公園の中を通るため景観面で数々の検討がなされた。,,,,,,文化・観光,都市景観資源,文化・観光/都市景観資源,167,13065
135.4571387,34.6642825,桜通り,,桜通り（）,港区磯路3丁目～弁天3丁目,港区,,,桜通りには、南北800ｍに渡ってソメイヨシノとサトザクラが植えられている。桜並木は、地域住民により植えられ、管理されているもので、港区の桜の名所となっている。桜の開花時期には地元愛護会によりぼんぼりが飾られる。,,,,,,文化・観光,都市景観資源,文化・観光/都市景観資源,167,19287
135.4888602,34.6939806,ほたるまち,,ほたるまち（）,福島区福島1丁目1番,福島区,,,ほたるのようなやさしい光で川を照らす町になってほしいとの思いから「「ほたるまち」と名づけられ、平成20年(2008年)5月2日に誕生。梅田・福島・中之島が接する大阪の中心地にありながら、川の自然を感じられるこのまちは「文化・情報」（朝日放送本社、堂島リバーフォーラム、ABCホール）、「にぎわい」（堂島クロスウォーク）、「居住」（タワーマンション）の3つの機能を備えた複合都市である。また、「ほたるまち」はかつて中津藩の蔵屋敷があり、そこで福澤諭吉が生まれていることから、福沢諭吉誕生地の記念碑も建立されている,,,,,,文化・観光,都市景観資源,文化・観光/都市景観資源,167,19444
135.489538,34.6980675,TKPゲートタワービル,,TKPゲートタワービル（）,福島区福島5丁目4番21号,福島区,,,TKPゲートタワービル（Gate Tower Building）は、地上16階建てのオフィスビルである。通称「ビーハイブ（Beehive）」で、Beehiveとは「蜂の巣」、「にぎやかな場所」という意味である。高速道路がこのビルを貫通しているのが特徴で、立体道路制度適用第1号のビルである。,,,,,,文化・観光,都市景観資源,文化・観光/都市景観資源,167,19447
135.449647,34.68146,第一近江湯,だいいちおうみゆ,第一近江湯（だいいちおうみゆ）,此花区春日出北２丁目６-4,此花区,06-6468-5549,,銭湯・一般公衆浴場,15：30-22：00（定休日：土曜日）,,,,,文化・観光,その他施設,文化・観光/その他施設,160,97434
135.447112,34.681686,浪華温泉,なにわおんせん,浪華温泉（なにわおんせん）,此花区春日出北３丁目９－２７ 浪華温泉,此花区,06-6468-4576,,銭湯・一般公衆浴場,15：00-22：30（定休日：木曜日）,,,,,文化・観光,その他施設,文化・観光/その他施設,160,97437
135.457341,34.683808,梅香温泉,ばいかおんせん,梅香温泉（ばいかおんせん）,此花区梅香３丁目３０－７ ,此花区,06-6461-1115,,銭湯・一般公衆浴場,14：30-翌01：00（定休日：水曜日）,,,,,文化・観光,その他施設,文化・観光/その他施設,160,97438
135.4478738,34.6874492,庚申湯,こうしんゆ,庚申湯（こうしんゆ）,此花区伝法５丁目３－４１,此花区,06-6464-3291,,銭湯・一般公衆浴場,15：00-22：30,,,,,文化・観光,その他施設,文化・観光/その他施設,160,97433
135.468507,34.681931,大福湯,だいふくゆ,大福湯（だいふくゆ）,此花区西九条１丁目１４－８ 大福湯,此花区,06-6465-2867,,銭湯・一般公衆浴場,14：30-23：30（定休日：水曜日）,,,,,文化・観光,その他施設,文化・観光/その他施設,160,97435
135.458628,34.681948,千鳥温泉,ちどりおんせん,千鳥温泉（ちどりおんせん）,此花区梅香２丁目１２－２０ ,此花区,06-6463-3888,,銭湯・一般公衆浴場,14：30-23：30（定休日：火曜日）,,,,,文化・観光,その他施設,文化・観光/その他施設,160,97436
135.452326,34.684377,豊湯,ゆたかゆ,豊湯（ゆたかゆ）,此花区春日出北１丁目１９－１５ 豊湯,此花区,06-6461-8693,,銭湯・一般公衆浴場,15：20-23：00（定休日：水曜日）,,,,,文化・観光,その他施設,文化・観光/その他施設,160,97439
135.470497,34.667825,病児保育施設ぴ～よんルーム,びょうじほいくしせつぴ～よんるーむ,病児保育施設ぴ～よんルーム（びょうじほいくしせつぴ～よんるーむ）,港区南市岡１丁目７－１,港区,06-6575-9774,,,,http://care-net.biz/27/namiyoke/piyonroom.php,,,,文化・観光,その他施設,文化・観光/その他施設,160,96240
135.499661,34.738315,病児保育施設リトルベアーYodo,びょうじほいくしせつりとるべあーよど,病児保育施設リトルベアーYodo（びょうじほいくしせつりとるべあーよど）,淀川区宮原２丁目１１－６,淀川区,06-6396-9310,,,,http://www.aikou-group.com/byoujinew.html,,,,文化・観光,その他施設,文化・観光/その他施設,160,96241
135.519611,34.639559,阿倍野産業会館,あべのさんぎょうかいかん,阿倍野産業会館（あべのさんぎょうかいかん）,阿倍野区三明町２丁目１０－３２,阿倍野区,,,,,,,,,文化・観光,その他施設,文化・観光/その他施設,160,95045
135.536989,34.696335,アカツキホール,あかつきほーる,アカツキホール（あかつきほーる）,城東区新喜多１丁目５－２６,城東区,,,,,,,,,文化・観光,その他施設,文化・観光/その他施設,160,92833
135.554171,34.706314,南菫橋,ミナミスミレバシ,南菫橋（ミナミスミレバシ）,城東区古市１丁目１－１０,城東区,,,,,,,,,文化・観光,その他施設,文化・観光/その他施設,160,92829
135.554203,34.702199,リバーサイドテラス,リバーサイドテラス,リバーサイドテラス（リバーサイドテラス）,城東区今福東２丁目１－１８,城東区,,,,,,,,,文化・観光,その他施設,文化・観光/その他施設,160,92828
135.5010818,34.6642134,ビジターズインフォメーションセンター・難波,びじたーずいんふぉめーしょんせんたー・なんば,ビジターズインフォメーションセンター・難波（びじたーずいんふぉめーしょんせんたー・なんば）,中央区難波5-1-60　南海ターミナルビル1F,中央区,06-6631-9100,06-6631-9110,,,http://www.osaka-info.jp/jp/search/detail/office_1.html,,,,文化・観光,その他施設,文化・観光/その他施設,112,4644
135.5018316,34.6657713,もと精華小学校,もとせいかしょうがっこう,もと精華小学校（もとせいかしょうがっこう）,難波3-2,中央区,,,,,,,,,文化・観光,その他施設,文化・観光/その他施設,140,19391
135.549576,34.6514079,生野区花づくり広場,いくのくはなづくりひろば,生野区花づくり広場（いくのくはなづくりひろば）,生野区巽中1丁目5番,生野区,,,生野区緑花友の会が「種から育てる地域の花づくり活動」に取り組む広場。入口は南側（川沿い）にあります。,,http://www.city.osaka.lg.jp/ikuno/page/0000083514.html,,,,文化・観光,その他施設,文化・観光/その他施設,158,19398
135.5187498,34.668498,もと東平小学校,もととうへいしょうがっこう,もと東平小学校（もととうへいしょうがっこう）,中央区上本町西5-1,中央区,,,,,,,,,文化・観光,その他施設,文化・観光/その他施設,140,19392
135.4665184,34.7097666,花川墓地,はなかわぼち,花川墓地（はなかわぼち）,大阪市西淀川区柏里２丁目１０番,西淀川区,,,,,,,,,文化・観光,その他施設,文化・観光/その他施設,140,19261
135.4977192,34.7025641,ビジターズインフォメーションセンター梅田,びじたーずいんふぉめーしょんせんたー・うめだ,ビジターズインフォメーションセンター梅田（びじたーずいんふぉめーしょんせんたー・うめだ）,北区梅田3-1-2　JR大阪駅御堂筋口前,北区,06-6345-2189,,観光案内所,,,,,,文化・観光,その他施設,文化・観光/その他施設,160,1146
